name,street,city,state,zip,website,phone,source
1634 Funk,394 Communipaw Ave,Jersey City,NJ,07304,,,https://www.nj.gov/cannabis/dispensaries/find/
4Twenty Somewhere,1938 Union Valley Rd,Hewitt,NJ,07421,,,https://www.nj.gov/cannabis/dispensaries/find/
A-Z Supply,1283 Broad St,Bloomfield,NJ,07003,,,https://www.nj.gov/cannabis/dispensaries/find/
A21 Wellness,2507 US-22,Scotch Plains,NJ,07076,,,https://www.nj.gov/cannabis/dispensaries/find/
AC Leef,470 N Albany Ave,Atlantic City,NJ,08401,,,https://www.nj.gov/cannabis/dispensaries/find/
Altitude Cannabis,225 Atlantic City Blvd,Toms River,NJ,08757,,,https://www.nj.gov/cannabis/dispensaries/find/
Altius NJ,60 Delsea Dr N,Glassboro,NJ,08028,,,https://www.nj.gov/cannabis/dispensaries/find/
Andover Cannabis,144-146 Main St,Andover,NJ,07821,,,https://www.nj.gov/cannabis/dispensaries/find/
Anja,225 Woodbridge Ave,Highland Park,NJ,08904,,,https://www.nj.gov/cannabis/dispensaries/find/
Aurum Botanics,6 Fort Dix Rd,Pemberton,NJ,08068,,,https://www.nj.gov/cannabis/dispensaries/find/
Baked by the River,8 Church St,Lambertville,NJ,08530,,,https://www.nj.gov/cannabis/dispensaries/find/
Bakin' Bad,2834 Atlantic Ave,Atlantic City,NJ,08401,,,https://www.nj.gov/cannabis/dispensaries/find/
Bay Street Greenery,150 Bay St,Jersey City,NJ,07302,,,https://www.nj.gov/cannabis/dispensaries/find/
Benedict's Supply,3523 John F. Kennedy Blvd,Jersey City,NJ,07307,,,https://www.nj.gov/cannabis/dispensaries/find/
BestBuds,135 S Broad St,Woodbury,NJ,08096,,,https://www.nj.gov/cannabis/dispensaries/find/
"Beyond Bleaf, LLC",753 Macopin Rd,West Milford,NJ,07480,,,https://www.nj.gov/cannabis/dispensaries/find/
BLKBRN Cannabis Dispensary,176 Woodbridge Ave,Highland Park,NJ,08904,,,https://www.nj.gov/cannabis/dispensaries/find/
Blue Oak,1025 Broad St suite 2,Bloomfield,NJ,07003,,,https://www.nj.gov/cannabis/dispensaries/find/
Blue Violets,628 Washington St,Hoboken,NJ,07030,,,https://www.nj.gov/cannabis/dispensaries/find/
BluLight Cannabis,890 Mantua Pike,Woodbury Heights,NJ,08097,,,https://www.nj.gov/cannabis/dispensaries/find/
Boone Town Provisions,677 Myrtle Ave,Boonton,NJ,07005,,,https://www.nj.gov/cannabis/dispensaries/find/
Botera Harrison,701 Frank E Rodgers Blvd N,Harrison,NJ,07029,,,https://www.nj.gov/cannabis/dispensaries/find/
Botera Union,2290 US-22,Union,NJ,07083,,,https://www.nj.gov/cannabis/dispensaries/find/
Bridge City Collective Dispensary,665 Hamilton St,Somerset,NJ,08873,,,https://www.nj.gov/cannabis/dispensaries/find/
Brotherly Bud Dispensary,500 N Black Horse Pike,Mt Ephraim,NJ,08059,,,https://www.nj.gov/cannabis/dispensaries/find/
Bud 2 Bloom,123 Ledgewood Ave #1a,Netcong,NJ,07857,,,https://www.nj.gov/cannabis/dispensaries/find/
Bud City NJ,117 Water St,Newton,NJ,07860,,,https://www.nj.gov/cannabis/dispensaries/find/
Budzooka Weed Dispensary,142 Broad St,Elizabeth,NJ,07201,,,https://www.nj.gov/cannabis/dispensaries/find/
Camden Apothecary,1205 Haddon Ave,Camden,NJ,08103,,,https://www.nj.gov/cannabis/dispensaries/find/
Canabhang,24 Marshall Hill Rd,West Milford,NJ,07480,,,https://www.nj.gov/cannabis/dispensaries/find/
Canna Bar,58 Main St,Matawan,NJ,07747,,,https://www.nj.gov/cannabis/dispensaries/find/
Canna Remedies,2175 Spruce St,Trenton,NJ,08638,,,https://www.nj.gov/cannabis/dispensaries/find/
Cannabis Clubhouse,70-72 E Main St,Sussex,NJ,07461,,,https://www.nj.gov/cannabis/dispensaries/find/
CannaBoy Treehouse,57 W South Orange Ave,South Orange Village,NJ,07079,,,https://www.nj.gov/cannabis/dispensaries/find/
Cannavibes,1 US-46,Elmwood Park,NJ,07407,,,https://www.nj.gov/cannabis/dispensaries/find/
Canopy Crossroad,9 West St,Red Bank,NJ,07701,,,https://www.nj.gov/cannabis/dispensaries/find/
Casa Verde Wellness,315 US-46,Dover,NJ,07801,,,https://www.nj.gov/cannabis/dispensaries/find/
Castaway Cannabis,6006 US-130,Delran,NJ,08075,,,https://www.nj.gov/cannabis/dispensaries/find/
Citi Roots,4585 NJ-27,Kingston,NJ,08528,,,https://www.nj.gov/cannabis/dispensaries/find/
City Leaves,2516 Fire Rd,Egg Harbor Township,NJ,08234,,,https://www.nj.gov/cannabis/dispensaries/find/
CityLeaf Dispensary,519 Broadway,Newark,NJ,07104,,,https://www.nj.gov/cannabis/dispensaries/find/
Cloud Nine Dispensary,513-27 US-22,North Plainfield,NJ,07060,,,https://www.nj.gov/cannabis/dispensaries/find/
Conservatory Cannabis Company,2516 Fire Rd,Egg Harbor Township,NJ,08234,,,https://www.nj.gov/cannabis/dispensaries/find/
Cookies Harrison,335 Angelo Cifelli Dr,Harrison,NJ,07029,,,https://www.nj.gov/cannabis/dispensaries/find/
Cottonmouth Dispensary,10 E Clements Bridge Rd,Runnemede,NJ,08078,,,https://www.nj.gov/cannabis/dispensaries/find/
Cream Cannabis Dispensary,284 1st St,Jersey City,NJ,07302,,,https://www.nj.gov/cannabis/dispensaries/find/
Cuzzie's,2750 Mt Ephraim Ave,Camden,NJ,08104,,,https://www.nj.gov/cannabis/dispensaries/find/
Dank Poet Dispensary,245 E Washington Ave,Washington,NJ,07882,,,https://www.nj.gov/cannabis/dispensaries/find/
Daylite Cannabis,1136 NJ-73,Mt Laurel Township,NJ,08054,,,https://www.nj.gov/cannabis/dispensaries/find/
Dispensary of Somerset,920 Hamilton St,Somerset,NJ,08873,,,https://www.nj.gov/cannabis/dispensaries/find/
Dispensory of Union,1603 US-22,Union,NJ,07083,,,https://www.nj.gov/cannabis/dispensaries/find/
Dogwood Green,5 Central Ave,West Orange,NJ,07052,,,https://www.nj.gov/cannabis/dispensaries/find/
Doobiez,1612 Union Valley Rd,West Milford,NJ,07480,,,https://www.nj.gov/cannabis/dispensaries/find/
Earth & Ivy,355 George St,New Brunswick,NJ,08901,,,https://www.nj.gov/cannabis/dispensaries/find/
Earth & Ivy Lakehurst,29 Union Ave,Lakehurst,NJ,08733,,,https://www.nj.gov/cannabis/dispensaries/find/
Elevated by TheCannaBossLady,9 Highland Pl,Maplewood,NJ,07040,,,https://www.nj.gov/cannabis/dispensaries/find/
Elevated Herb,1846 NJ-23,West Milford,NJ,07480,,,https://www.nj.gov/cannabis/dispensaries/find/
Emerald Tea Supply,368b Broad St,Bloomfield,NJ,07003,,,https://www.nj.gov/cannabis/dispensaries/find/
Enlighten Dispensary,781 Rte 70 W,Marlton,NJ,08053,,,https://www.nj.gov/cannabis/dispensaries/find/
Everest Dispensary,1226 Atlantic Ave,Atlantic City,NJ,08401,,,https://www.nj.gov/cannabis/dispensaries/find/
Evergreen Nature's Remedy,1242 NJ-23,Butler,NJ,07405,,,https://www.nj.gov/cannabis/dispensaries/find/
Evolve Cannabis,186 US-130,Bordentown,NJ,08505,,,https://www.nj.gov/cannabis/dispensaries/find/
Feels of Green,474 US-206,Newton,NJ,07860,,,https://www.nj.gov/cannabis/dispensaries/find/
Fire and Oak,5 Washington St,Mt Holly,NJ,08060,,,https://www.nj.gov/cannabis/dispensaries/find/
Flower and Flame Dispensary,601 College Dr,Blackwood,NJ,08012,,,https://www.nj.gov/cannabis/dispensaries/find/
Flowerbomb Dispensary,1108 Clinton Ave,Irvington,NJ,07111,,,https://www.nj.gov/cannabis/dispensaries/find/
Fresh Dispensary Eatontown,315 NJ-35,Eatontown,NJ,07724,,,https://www.nj.gov/cannabis/dispensaries/find/
Fresh Elizabeth,460 Maple Ave,Elizabeth,NJ,07202,,,https://www.nj.gov/cannabis/dispensaries/find/
G2 Dispensary,350 US-46,Rockaway,NJ,07866,,,https://www.nj.gov/cannabis/dispensaries/find/
Garden Greenz,190 Newark Ave,Jersey City,NJ,07302,,,https://www.nj.gov/cannabis/dispensaries/find/
Garden State Natural Green,4597 NJ-27,Kingston,NJ,08528,,,https://www.nj.gov/cannabis/dispensaries/find/
Ginger Hale,814 White Horse Pike,Oaklyn,NJ,08107,,,https://www.nj.gov/cannabis/dispensaries/find/
Golden Door Dispensary,638 Newark Ave,Jersey City,NJ,07306,,,https://www.nj.gov/cannabis/dispensaries/find/
Get Directions,4437 NJ-27,Princeton,NJ,08540,,,https://www.nj.gov/cannabis/dispensaries/find/
Green Haven Industries,402 Elizabeth Ave,Elizabeth,NJ,07206,,,https://www.nj.gov/cannabis/dispensaries/find/
Green Knight Cannabis,831 Hamilton St,Somerset,NJ,08873,,,https://www.nj.gov/cannabis/dispensaries/find/
Green Lightning Cannabis,1503 Taylors Ln,Cinnaminson,NJ,08077,,,https://www.nj.gov/cannabis/dispensaries/find/
Get Directions,632 White Horse Pike,Atco,NJ,08004,,,https://www.nj.gov/cannabis/dispensaries/find/
Green Wellness Haven,1110 N New Rd,Pleasantville,NJ,08232,,,https://www.nj.gov/cannabis/dispensaries/find/
Get Directions,516 Tonnelle Ave,Jersey City,NJ,07307,,,https://www.nj.gov/cannabis/dispensaries/find/
Gynsyng,14 S Center St,Merchantville,NJ,08109,,,https://www.nj.gov/cannabis/dispensaries/find/
Get Directions,321 Mountain Ave,Hackettstown,NJ,07840,,,https://www.nj.gov/cannabis/dispensaries/find/
Get Directions,747 West Side Ave,Jersey City,NJ,07306,,,https://www.nj.gov/cannabis/dispensaries/find/
Happy Leaf,200 N White Horse Pike,Somerdale,NJ,08083,,,https://www.nj.gov/cannabis/dispensaries/find/
Hashery,409 NJ-17,Hackensack,NJ,07601,,,https://www.nj.gov/cannabis/dispensaries/find/
Hashstoria NJ,799 Broad St,Newark,NJ,07102,,,https://www.nj.gov/cannabis/dispensaries/find/
Hello High,7685 Black Horse Pike,Hammonton,NJ,08037,,,https://www.nj.gov/cannabis/dispensaries/find/
Get Directions,757 Franklin Blvd,Somerset,NJ,08873,,,https://www.nj.gov/cannabis/dispensaries/find/
Herbalicity,246 Raritan Ave,Highland Park,NJ,08904,,,https://www.nj.gov/cannabis/dispensaries/find/
High Profile Lakehurst,145 NJ-70,Lakehurst,NJ,08733,,,https://www.nj.gov/cannabis/dispensaries/find/
Get Directions,4 N White Horse Pike,Somerdale,NJ,08083,,,https://www.nj.gov/cannabis/dispensaries/find/
Get Directions,120 S Indiana Ave,Atlantic City,NJ,08401,,,https://www.nj.gov/cannabis/dispensaries/find/
Get Directions,811 High St,Hackettstown,NJ,07840,,,https://www.nj.gov/cannabis/dispensaries/find/
Highway 90,90 Old Marlton Pike,Evesham,NJ,08053,,,https://www.nj.gov/cannabis/dispensaries/find/
Holistic Re-Leaf,321 Mt Hope Ave,Rockaway,NJ,07866,,,https://www.nj.gov/cannabis/dispensaries/find/
Honey Buzz Farms,1724 Atlantic Ave,Atlantic City,NJ,08401,,,https://www.nj.gov/cannabis/dispensaries/find/
HudHaus,9001 River Rd,North Bergen,NJ,07047,,,https://www.nj.gov/cannabis/dispensaries/find/
Hudsonica Inc.,1427 Grand St,Hoboken,NJ,07030,,,https://www.nj.gov/cannabis/dispensaries/find/
Indigo,302 Crescent Blvd,Brooklawn,NJ,08030,,,https://www.nj.gov/cannabis/dispensaries/find/
Island Vibez,18 Roosevelt Ave,Plainfield,NJ,07060,,,https://www.nj.gov/cannabis/dispensaries/find/
Get Directions,3055 NJ-23 Unit A,Oak Ridge,NJ,07438,,,https://www.nj.gov/cannabis/dispensaries/find/
JC Element,365 Central Ave,Jersey City,NJ,07307,,,https://www.nj.gov/cannabis/dispensaries/find/
Jersey Leaf,554 West Side Ave,Jersey City,NJ,07304,,,https://www.nj.gov/cannabis/dispensaries/find/
Jersey Meds,7 NJ-31,Pennington,NJ,08534,,,https://www.nj.gov/cannabis/dispensaries/find/
Jersey Roots,1433 Union Valley Rd,West Milford,NJ,07480,,,https://www.nj.gov/cannabis/dispensaries/find/
Jester's Joint,70 Easton Ave,New Brunswick,NJ,08901,,,https://www.nj.gov/cannabis/dispensaries/find/
Joy Leaf,711 E 1st Ave,Roselle Park,NJ,07204,,,https://www.nj.gov/cannabis/dispensaries/find/
Kind Kush,279 US-46,Rockaway,NJ,07866,,,https://www.nj.gov/cannabis/dispensaries/find/
Kine Buds Maywood,113 E Passaic St,Maywood,NJ,07607,,,https://www.nj.gov/cannabis/dispensaries/find/
La Vida Gardens,523 Washington Ave,Belleville,NJ,07109,,,https://www.nj.gov/cannabis/dispensaries/find/
Lady L Cannabis,547 West Side Ave,Jersey City,NJ,07304,,,https://www.nj.gov/cannabis/dispensaries/find/
Leaf Haus,900 Easton Ave,Somerset,NJ,08873,,,https://www.nj.gov/cannabis/dispensaries/find/
Leaf Joint,391 Central Ave,Jersey City,NJ,07307,,,https://www.nj.gov/cannabis/dispensaries/find/
Legacy to Lifted,490 West Side Ave,Jersey City,NJ,07304,,,https://www.nj.gov/cannabis/dispensaries/find/
Legal Distribution,3112 Atlantic Ave,Atlantic City,NJ,08401,,,https://www.nj.gov/cannabis/dispensaries/find/
Lemon 22,2006 US-22,Scotch Plains,NJ,07076,,,https://www.nj.gov/cannabis/dispensaries/find/
Loud House,112 N 3rd St,Camden,NJ,08102,,,https://www.nj.gov/cannabis/dispensaries/find/
Get Directions,845 US-1,Avenel,NJ,07001,,,https://www.nj.gov/cannabis/dispensaries/find/
Get Directions,311 Raritan Ave,Highland Park,NJ,08904,,,https://www.nj.gov/cannabis/dispensaries/find/
Mass Grown,34 Mill St,Mt Holly,NJ,08060,,,https://www.nj.gov/cannabis/dispensaries/find/
Med Leaf,201 Philadelphia Ave,Egg Harbor City,NJ,08215,,,https://www.nj.gov/cannabis/dispensaries/find/
Midnight Greens,5100 NJ-42,Blackwood,NJ,08012,,,https://www.nj.gov/cannabis/dispensaries/find/
Get Directions,517 Park Ave,Plainfield,NJ,07060,,,https://www.nj.gov/cannabis/dispensaries/find/
MMD NJ,655 Newark Ave,Jersey City,NJ,07306,,,https://www.nj.gov/cannabis/dispensaries/find/
Moja Life,28 S Warren St,Trenton,NJ,08608,,,https://www.nj.gov/cannabis/dispensaries/find/
Molly Ann Farms,256 Belmont Ave,Haledon,NJ,07508,,,https://www.nj.gov/cannabis/dispensaries/find/
Get Directions,46 NJ-94,Vernon Township,NJ,07462,,,https://www.nj.gov/cannabis/dispensaries/find/
Mountain View Farmacy,74 Oak Ridge Rd,Oak Ridge,NJ,07438,,,https://www.nj.gov/cannabis/dispensaries/find/
NAR Cannabis,4004 Church Rd,Mt Laurel Township,NJ,08054,,,https://www.nj.gov/cannabis/dispensaries/find/
Natural Apothecary,27 Washington Ave,Belleville,NJ,07109,,,https://www.nj.gov/cannabis/dispensaries/find/
Natureâ€™s Motivation,1095 Clinton Ave,Irvington,NJ,07111,,,https://www.nj.gov/cannabis/dispensaries/find/
Get Directions,176 Belmont Ave,Belleville,NJ,07109,,,https://www.nj.gov/cannabis/dispensaries/find/
Get Directions,80-88 Main St,South Bound Brook,NJ,08880,,,https://www.nj.gov/cannabis/dispensaries/find/
New Frontier Solutions,473 E Broadway,Salem,NJ,08079,,,https://www.nj.gov/cannabis/dispensaries/find/
Nightjar,549 Bloomfield Ave,Bloomfield,NJ,07003,,,https://www.nj.gov/cannabis/dispensaries/find/
Nile of NJ,5409 Bergenline Ave,West New York,NJ,07093,,,https://www.nj.gov/cannabis/dispensaries/find/
Nirvana,1134 NJ-73,Mt Laurel Township,NJ,08054,,,https://www.nj.gov/cannabis/dispensaries/find/
NJ Pure,"A-10, 4313 US-130",Edgewater Park,NJ,08010,,,https://www.nj.gov/cannabis/dispensaries/find/
Get Directions,171 Maplewood Ave,Maplewood,NJ,07040,,,https://www.nj.gov/cannabis/dispensaries/find/
Get Directions,780 US-130,Hamilton Township,NJ,08691,,,https://www.nj.gov/cannabis/dispensaries/find/
Nova Farms,642 Mantua Pike,Woodbury,NJ,08096,,,https://www.nj.gov/cannabis/dispensaries/find/
Ohm Theory,213 US-46,Elmwood Park,NJ,07407,,,https://www.nj.gov/cannabis/dispensaries/find/
One Green Leaf,95 Lakeview Dr N,Gibbsboro,NJ,08026,,,https://www.nj.gov/cannabis/dispensaries/find/
Organic Farms,2895 Mt Ephraim Ave,Camden,NJ,08104,,,https://www.nj.gov/cannabis/dispensaries/find/
OTC Jersey,167 New Jersey Ave,Absecon,NJ,08201,,,https://www.nj.gov/cannabis/dispensaries/find/
Phasal,1100 N Black Horse Pike,Runnemede,NJ,08078,,,https://www.nj.gov/cannabis/dispensaries/find/
Phula,60-62 High St,Mt Holly,NJ,08060,,,https://www.nj.gov/cannabis/dispensaries/find/
Plant Base,148 E 2nd St,Plainfield,NJ,07060,,,https://www.nj.gov/cannabis/dispensaries/find/
Plantabis,2077 US-1,Rahway,NJ,07065,,,https://www.nj.gov/cannabis/dispensaries/find/
Plantopia,37 Main St,Englishtown,NJ,07726,,,https://www.nj.gov/cannabis/dispensaries/find/
Get Directions,3001 Atlantic Ave,Atlantic City,NJ,08401,,,https://www.nj.gov/cannabis/dispensaries/find/
Premo,2 E Front St,Keyport,NJ,07735,,,https://www.nj.gov/cannabis/dispensaries/find/
Public Absecon,792a White Horse Pike,Absecon,NJ,08201,,,https://www.nj.gov/cannabis/dispensaries/find/
Puffin Store,382 George St,New Brunswick,NJ,08901,,,https://www.nj.gov/cannabis/dispensaries/find/
Pure Blossom,2554 Pennington Rd,Pennington,NJ,08534,,,https://www.nj.gov/cannabis/dispensaries/find/
Pure Natural Vibes,470 Prospect Ave,West Orange,NJ,07052,,,https://www.nj.gov/cannabis/dispensaries/find/
Quality Roots,850 Rte 70 W,Marlton,NJ,08053,,,https://www.nj.gov/cannabis/dispensaries/find/
Queen City Remedies,1353 South Ave,Plainfield,NJ,07062,,,https://www.nj.gov/cannabis/dispensaries/find/
Releaf Cannabis,1024 S Black Horse Pike,Williamstown,NJ,08094,,,https://www.nj.gov/cannabis/dispensaries/find/
Get Directions,77 Main St,South Bound Brook,NJ,08880,,,https://www.nj.gov/cannabis/dispensaries/find/
Ruuted,14 Main St,Englishtown,NJ,07726,,,https://www.nj.gov/cannabis/dispensaries/find/
Salt Air Botanicals,1127 Arctic Ave,Atlantic City,NJ,08401,,,https://www.nj.gov/cannabis/dispensaries/find/
Scarlet Reserve Room,5 Hamilton Rd,Englishtown,NJ,07726,,,https://www.nj.gov/cannabis/dispensaries/find/
Sea & Leaf,3860 Bayshore Rd,North Cape May,NJ,08204,,,https://www.nj.gov/cannabis/dispensaries/find/
Shipwreck'd,300 W Sylvania Ave,Neptune City,NJ,07753,,,https://www.nj.gov/cannabis/dispensaries/find/
Shore House Canna,124 Sunset Blvd,Cape May,NJ,08204,,,https://www.nj.gov/cannabis/dispensaries/find/
Simply Pure Trenton,1531 N Olden Ave,Ewing Township,NJ,08638,,,https://www.nj.gov/cannabis/dispensaries/find/
Sky Cannabis,52 E Broad St unit 9,Hopewell,NJ,08525,,,https://www.nj.gov/cannabis/dispensaries/find/
Get Directions,614 N Pearl St,Bridgeton,NJ,08302,,,https://www.nj.gov/cannabis/dispensaries/find/
Somerset Green,729 Somerset St,Somerset,NJ,08873,,,https://www.nj.gov/cannabis/dispensaries/find/
Soulflora,2713 NJ-23,Newfoundland,NJ,07435,,,https://www.nj.gov/cannabis/dispensaries/find/
Sparkology,3231 NJ-27,Franklin Park,NJ,08823,,,https://www.nj.gov/cannabis/dispensaries/find/
Spot 23 LLC,2915 NJ-23,Newfoundland,NJ,07435,,,https://www.nj.gov/cannabis/dispensaries/find/
Get Directions,1070 Springfield Ave,Irvington,NJ,07111,,,https://www.nj.gov/cannabis/dispensaries/find/
Get Directions,130 US-22,Springfield,NJ,07081,,,https://www.nj.gov/cannabis/dispensaries/find/
SunnyTien,3004 Atlantic Ave,Atlantic City,NJ,08401,,,https://www.nj.gov/cannabis/dispensaries/find/
Sussex Pharms,54 Main St,Sussex,NJ,07461,,,https://www.nj.gov/cannabis/dispensaries/find/
Sweet Leaf's LLC,21 S Tennessee Ave,Atlantic City,NJ,08401,,,https://www.nj.gov/cannabis/dispensaries/find/
Get Directions,751 Irvington Ave,Maplewood,NJ,07040,,,https://www.nj.gov/cannabis/dispensaries/find/
Sweetspot River Edge,75 Rte 4,River Edge,NJ,07661,,,https://www.nj.gov/cannabis/dispensaries/find/
Taste of Earth,108 Wheat Rd,Buena,NJ,08310,,,https://www.nj.gov/cannabis/dispensaries/find/
The Cannabis Place,1544 John F. Kennedy Blvd,Jersey City,NJ,07305,,,https://www.nj.gov/cannabis/dispensaries/find/
Get Directions,225 US-46,Saddle Brook,NJ,07663,,,https://www.nj.gov/cannabis/dispensaries/find/
The Frosted Nug at Red Bank,22 Bridge Ave,Red Bank,NJ,07701,,,https://www.nj.gov/cannabis/dispensaries/find/
"The Goods Supply Co. Victory Gardens, LLC",330 S Salem St,Dover,NJ,07801,,,https://www.nj.gov/cannabis/dispensaries/find/
The Healing Side,2415 Pacific Ave,Atlantic City,NJ,08401,,,https://www.nj.gov/cannabis/dispensaries/find/
The Honorable Plant,123 Bay Ave,Highlands,NJ,07732,,,https://www.nj.gov/cannabis/dispensaries/find/
Get Directions,7-11 State St,Glassboro,NJ,08028,,,https://www.nj.gov/cannabis/dispensaries/find/
Get Directions,328 White Horse Pike Unit L,Clementon,NJ,08021,,,https://www.nj.gov/cannabis/dispensaries/find/
The Library of New Jersey,1-3 Washington St,West Orange,NJ,07052,,,https://www.nj.gov/cannabis/dispensaries/find/
The Medicine Woman,660 Tonnelle Ave,Jersey City,NJ,07307,,,https://www.nj.gov/cannabis/dispensaries/find/
Get Directions,36 Congress St,Jersey City,NJ,07307,,,https://www.nj.gov/cannabis/dispensaries/find/
The Social Leaf,334 Atlantic City Blvd,Toms River,NJ,08757,,,https://www.nj.gov/cannabis/dispensaries/find/
The THC Shop,1740 Atlantic Ave,Atlantic City,NJ,08401,,,https://www.nj.gov/cannabis/dispensaries/find/
The Wildflower Market,1810 Wayside Rd suite a,Eatontown,NJ,07724,,,https://www.nj.gov/cannabis/dispensaries/find/
Timber 5,695 Hamilton St,Somerset,NJ,08873,,,https://www.nj.gov/cannabis/dispensaries/find/
Township Green,15-17 E Scott St,Riverside,NJ,08075,,,https://www.nj.gov/cannabis/dispensaries/find/
Get Directions,326 NJ-73,Voorhees Township,NJ,08043,,,https://www.nj.gov/cannabis/dispensaries/find/
Treeotics,467 Lyons Ave,Newark,NJ,07112,,,https://www.nj.gov/cannabis/dispensaries/find/
Twisted Hat Cannabis,515 Shell Rd,Carneys Point,NJ,08069,,,https://www.nj.gov/cannabis/dispensaries/find/
Get Directions,138 Griffith St,Jersey City,NJ,07307,,,https://www.nj.gov/cannabis/dispensaries/find/
Uma Flowers,100 Ridgedale Ave,Morristown,NJ,07960,,,https://www.nj.gov/cannabis/dispensaries/find/
Union Chill,204 N Union St,Lambertville,NJ,08530,,,https://www.nj.gov/cannabis/dispensaries/find/
Unity Rd. Cannabis Shop,441 Elizabeth Ave,Somerset,NJ,08873,,,https://www.nj.gov/cannabis/dispensaries/find/
Urge,941 Elizabeth Ave,Elizabeth,NJ,07201,,,https://www.nj.gov/cannabis/dispensaries/find/
Get Directions,1082 NJ-34,Matawan,NJ,07747,,,https://www.nj.gov/cannabis/dispensaries/find/
Village Hoboken,516 Washington St,Hoboken,NJ,07030,,,https://www.nj.gov/cannabis/dispensaries/find/
Voltaire NJ,47 Mill St,Mt Holly,NJ,08060,,,https://www.nj.gov/cannabis/dispensaries/find/
West Orange Wellness,26 S Valley Rd,West Orange,NJ,07052,,,https://www.nj.gov/cannabis/dispensaries/find/
Woodbury Wellness,818 N Broad St,Woodbury,NJ,08096,,,https://www.nj.gov/cannabis/dispensaries/find/
Xena NJ,759a Bergen Ave,Jersey City,NJ,07305,,,https://www.nj.gov/cannabis/dispensaries/find/
Zacate,"Millside Shopping Center II, 4037 US-130",Delran,NJ,08075,,,https://www.nj.gov/cannabis/dispensaries/find/
Zen Leaf Mount Holly,600 High St,Mt Holly,NJ,08060,,,https://www.nj.gov/cannabis/dispensaries/find/
Medicinal cannabis,55 S Main St,Phillipsburg,NJ,08865,,,https://www.nj.gov/cannabis/dispensaries/find/
Get Directions,1865 Springfield Ave,Maplewood,NJ,07040,,,https://www.nj.gov/cannabis/dispensaries/find/
Get Directions,200 NJ-17,Lodi,NJ,07644,,,https://www.nj.gov/cannabis/dispensaries/find/
Ascend,325 NJ-15,Wharton,NJ,07885,,,https://www.nj.gov/cannabis/dispensaries/find/
Ascend,461-469 West St,Fort Lee,NJ,07024,,,https://www.nj.gov/cannabis/dispensaries/find/
Ascend,174 NJ-17,Rochelle Park,NJ,07662,,,https://www.nj.gov/cannabis/dispensaries/find/
Get Directions,100 Reaville Ave,Flemington,NJ,08822,,,https://www.nj.gov/cannabis/dispensaries/find/
Ayr Wellness,950 US-1,Woodbridge,NJ,07095,,,https://www.nj.gov/cannabis/dispensaries/find/
Ayr Wellness,59 Main St,Eatontown,NJ,07724,,,https://www.nj.gov/cannabis/dispensaries/find/
Ayr Wellness,2536 US-22,Union,NJ,07083,,,https://www.nj.gov/cannabis/dispensaries/find/
BLOC,1075 Easton Ave,Somerset,NJ,08873,,,https://www.nj.gov/cannabis/dispensaries/find/
BLOC,501 US-9,Waretown,NJ,08758,,,https://www.nj.gov/cannabis/dispensaries/find/
BLOC,1761 N Olden Ave,Ewing Township,NJ,08638,,,https://www.nj.gov/cannabis/dispensaries/find/
Breakwater,2 Corporate Dr,East Windsor,NJ,08512,,,https://www.nj.gov/cannabis/dispensaries/find/
Breakwater,154 Westfield Ave W,Roselle Park,NJ,07204,,,https://www.nj.gov/cannabis/dispensaries/find/
Brute's Roots,6206 Black Horse Pike,Egg Harbor Township,NJ,08234,,,https://www.nj.gov/cannabis/dispensaries/find/
Curaleaf,191 US-130,Bordentown,NJ,08505,,,https://www.nj.gov/cannabis/dispensaries/find/
Curaleaf,4237 US-130,Edgewater Park,NJ,08010,,,https://www.nj.gov/cannabis/dispensaries/find/
Curaleaf,640 Creek Rd,Bellmawr,NJ,08031,,,https://www.nj.gov/cannabis/dispensaries/find/
Design 710,112 Park Pl,Atlantic City,NJ,08401,,,https://www.nj.gov/cannabis/dispensaries/find/
Downtown FLWR,141 Newark Ave,Jersey City,NJ,07302,,,https://www.nj.gov/cannabis/dispensaries/find/
Eastern Green,78 NJ-73,Voorhees Township,NJ,08043,,,https://www.nj.gov/cannabis/dispensaries/find/
Get Directions,517 River Dr,Garfield,NJ,07026,,,https://www.nj.gov/cannabis/dispensaries/find/
Holistic Solutions,451 White Horse Pike,Atco,NJ,08004,,,https://www.nj.gov/cannabis/dispensaries/find/
HoneyGrove,1337 Blackwood-Clementon Rd,Clementon,NJ,08021,,,https://www.nj.gov/cannabis/dispensaries/find/
Get Directions,30 Wood Ave,Secaucus,NJ,07094,,,https://www.nj.gov/cannabis/dispensaries/find/
Monmouth Wellness & Healing (Formerly NJ Leaf),546 Park Ave,Freehold,NJ,07728,,,https://www.nj.gov/cannabis/dispensaries/find/
Monteverde NJ,45 Bridge Ave,Red Bank,NJ,07701,,,https://www.nj.gov/cannabis/dispensaries/find/
MPX NJ,153 S New York Ave,Atlantic City,NJ,08401,,,https://www.nj.gov/cannabis/dispensaries/find/
MPX NJ,5035 Central Hwy,Pennsauken Township,NJ,08109,,,https://www.nj.gov/cannabis/dispensaries/find/
MPX NJ,581 Berlin - Cross Keys Rd,Sicklerville,NJ,08081,,,https://www.nj.gov/cannabis/dispensaries/find/
NJ Leaf North Brunswick (Formerly Garden State Botanicals),1345 US-1,North Brunswick Township,NJ,08902,,,https://www.nj.gov/cannabis/dispensaries/find/
Restore NJ,300 William Dalton Dr,Glassboro,NJ,08028,,,https://www.nj.gov/cannabis/dispensaries/find/
RIPT,220 Broadway,Jersey City,NJ,07306,,,https://www.nj.gov/cannabis/dispensaries/find/
RISE,145 Rte 4,Paramus,NJ,07652,,,https://www.nj.gov/cannabis/dispensaries/find/
RISE,196 3rd Ave 3 c,Paterson,NJ,07514,,,https://www.nj.gov/cannabis/dispensaries/find/
RISE,26-48 Bloomfield Ave,Bloomfield,NJ,07003,,,https://www.nj.gov/cannabis/dispensaries/find/
Get Directions,4402 US-130,Willingboro,NJ,08046,,,https://www.nj.gov/cannabis/dispensaries/find/
Sanctuary Cannabis,2581 US-22,Scotch Plains,NJ,07076,,,https://www.nj.gov/cannabis/dispensaries/find/
SilverLeaf Wellness,1743 NJ-27,Somerset,NJ,08873,,,https://www.nj.gov/cannabis/dispensaries/find/
Sweet Spot,903 White Horse Rd,Voorhees Township,NJ,08043,,,https://www.nj.gov/cannabis/dispensaries/find/
The Botanist,2090 N Black Horse Pike,Williamstown,NJ,08094,,,https://www.nj.gov/cannabis/dispensaries/find/
The Botanist,35 W Crescent Blvd,Collingswood,NJ,08108,,,https://www.nj.gov/cannabis/dispensaries/find/
The Botanist,100 Century Dr,Egg Harbor Township,NJ,08234,,,https://www.nj.gov/cannabis/dispensaries/find/
The Cannabist,4476 Black Horse Pike Suite 2,Mays Landing,NJ,08330,,,https://www.nj.gov/cannabis/dispensaries/find/
The Cannabist,1062 N Delsea Dr,Vineland,NJ,08360,,,https://www.nj.gov/cannabis/dispensaries/find/
The Cannabist,1692 Clements Bridge Rd,Deptford,NJ,08096,,,https://www.nj.gov/cannabis/dispensaries/find/
The Station,86 River St,Hoboken,NJ,07030,,,https://www.nj.gov/cannabis/dispensaries/find/
Theo A. Cannabis,3059 NJ-27 unit 104,Franklin Park,NJ,08823,,,https://www.nj.gov/cannabis/dispensaries/find/
Theory Wellness,461 New York Ave,Trenton,NJ,08638,,,https://www.nj.gov/cannabis/dispensaries/find/
Get Directions,226 S Broad St,Trenton,NJ,08608,,,https://www.nj.gov/cannabis/dispensaries/find/
Get Directions,378 South St,Newark,NJ,07105,,,https://www.nj.gov/cannabis/dispensaries/find/
Valley Wellness,407 US-202,Raritan,NJ,08869,,,https://www.nj.gov/cannabis/dispensaries/find/
Zen Leaf,NJ-66,Neptune Township,NJ,,,,https://www.nj.gov/cannabis/dispensaries/find/
Zen Leaf,117 Spring St,Elizabeth,NJ,07201,,,https://www.nj.gov/cannabis/dispensaries/find/
Zen Leaf,3256 Brunswick Pike,Lawrence Township,NJ,08648,,,https://www.nj.gov/cannabis/dispensaries/find/
