name,street,city,state,zip,website,phone,source
1634 Funk,394 Communipaw Ave,Jersey City,NJ,7304,https://1634funk.com/,(201) 862-8877,https://my.atlist.com/map/8bed33fa-9b8c-4c51-bb33-74cd0d98628a?share=true
4Twenty Somewhere,1938 Union Valley Rd,Hewitt,NJ,7421,https://4twentysomewhere.com/,(973) 506-4503,https://my.atlist.com/map/8bed33fa-9b8c-4c51-bb33-74cd0d98628a?share=true
A-Z Supply,1283 Broad St,Bloomfield,NJ,7003,https://azsupplynj.com/,(973) 434-0404,https://my.atlist.com/map/8bed33fa-9b8c-4c51-bb33-74cd0d98628a?share=true
A21 Wellness,2507 US-22,Scotch Plains,NJ,7076,https://a21dispensary.com/,(908) 228-2619,https://my.atlist.com/map/8bed33fa-9b8c-4c51-bb33-74cd0d98628a?share=true
AC Leef,470 N Albany Ave,Atlantic City,NJ,8401,https://shop.acleef.com/acleef,(609) 350-6122,https://my.atlist.com/map/8bed33fa-9b8c-4c51-bb33-74cd0d98628a?share=true
Altitude Cannabis,225 Atlantic City Blvd,Toms River,NJ,8757,https://www.altitudecannanj.com/store,(732) 497-2629,https://my.atlist.com/map/8bed33fa-9b8c-4c51-bb33-74cd0d98628a?share=true
Altius NJ,60 Delsea Dr N,Glassboro,NJ,8028,https://altiusdispensary.com/location/glassboro,(847) 978-0843,https://my.atlist.com/map/8bed33fa-9b8c-4c51-bb33-74cd0d98628a?share=true
Andover Cannabis,144-146 Main St,Andover,NJ,7821,https://andovercannabis.llc/,(973) 437-3040,https://my.atlist.com/map/8bed33fa-9b8c-4c51-bb33-74cd0d98628a?share=true
Anja,225 Woodbridge Ave,Highland Park,NJ,8904,https://www.getanja.com/,,https://my.atlist.com/map/8bed33fa-9b8c-4c51-bb33-74cd0d98628a?share=true
Aurum Botanics,6 Fort Dix Rd,Pemberton,NJ,8068,https://aurumbotanics.com/dispensary-pemberton-nj,,https://my.atlist.com/map/8bed33fa-9b8c-4c51-bb33-74cd0d98628a?share=true
Baked by the River,8 Church St,Lambertville,NJ,8530,https://bakedbytheriver.com/,(609) 460-4207,https://my.atlist.com/map/8bed33fa-9b8c-4c51-bb33-74cd0d98628a?share=true
Bakin’ Bad,2834 Atlantic Ave,Atlantic City,NJ,8401,https://www.bakinbadac.com/,(609) 246-6415,https://my.atlist.com/map/8bed33fa-9b8c-4c51-bb33-74cd0d98628a?share=true
Bay Street Greenery,150 Bay St,Jersey City,NJ,7302,https://baystgreenery.com/stores/jersey-city,(201) 482-9675,https://my.atlist.com/map/8bed33fa-9b8c-4c51-bb33-74cd0d98628a?share=true
Benedict's Supply,3523 John F. Kennedy Blvd,Jersey City,NJ,7307,https://thecannabiswire.com/business/benedicts-supply-dispensary,(201) 721-5434,https://my.atlist.com/map/8bed33fa-9b8c-4c51-bb33-74cd0d98628a?share=true
BestBuds,135 S Broad St,Woodbury,NJ,8096,https://bestbudsnj.com/,(856) 443-7739,https://my.atlist.com/map/8bed33fa-9b8c-4c51-bb33-74cd0d98628a?share=true
"Beyond Bleaf, LLC",753 Macopin Rd,West Milford,NJ,7480,https://www.beyondbleafus.com/,(877) 420-4203,https://my.atlist.com/map/8bed33fa-9b8c-4c51-bb33-74cd0d98628a?share=true
BLKBRN Cannabis Dispensary,176 Woodbridge Ave,Highland Park,NJ,8904,https://www.blkbrndispensary.com/shop,,https://my.atlist.com/map/8bed33fa-9b8c-4c51-bb33-74cd0d98628a?share=true
Blue Oak,1025 Broad St suite 2,Bloomfield,NJ,7003,https://blueoaknj.com/,(973) 893-8111,https://my.atlist.com/map/8bed33fa-9b8c-4c51-bb33-74cd0d98628a?share=true
Blue Violets,628 Washington St,Hoboken,NJ,7030,https://www.blueviolets.co/,(201) 771-0323,https://my.atlist.com/map/8bed33fa-9b8c-4c51-bb33-74cd0d98628a?share=true
BluLight Cannabis,890 Mantua Pike,Woodbury Heights,NJ,8097,https://blulight.com/,(856) 221-4000,https://my.atlist.com/map/8bed33fa-9b8c-4c51-bb33-74cd0d98628a?share=true
Boone Town Provisions,677 Myrtle Ave,Boonton,NJ,7005,https://boonetownnj.com/,(973) 404-1026,https://my.atlist.com/map/8bed33fa-9b8c-4c51-bb33-74cd0d98628a?share=true
Botera Harrison,701 Frank E Rodgers Blvd N,Harrison,NJ,7029,https://boteranj.com/stores/harrison,(973) 982-6391,https://my.atlist.com/map/8bed33fa-9b8c-4c51-bb33-74cd0d98628a?share=true
Botera Union,2290 US-22,Union,NJ,7083,https://boteranj.com/,(800) 222-1222,https://my.atlist.com/map/8bed33fa-9b8c-4c51-bb33-74cd0d98628a?share=true
Bridge City Collective Dispensary,665 Hamilton St,Somerset,NJ,8873,https://bridgecitycollective.com/new-brunswick-dispensary,(503) 384-2955,https://my.atlist.com/map/8bed33fa-9b8c-4c51-bb33-74cd0d98628a?share=true
Brotherly Bud Dispensary,500 N Black Horse Pike,Mt Ephraim,NJ,8059,https://brotherlybud.com/,(908) 936-3739,https://my.atlist.com/map/8bed33fa-9b8c-4c51-bb33-74cd0d98628a?share=true
Bud 2 Bloom,123 Ledgewood Ave #1a,Netcong,NJ,7857,https://bud2bloomdispensary.com/,(862) 746-0420,https://my.atlist.com/map/8bed33fa-9b8c-4c51-bb33-74cd0d98628a?share=true
Bud City NJ,117 Water St,Newton,NJ,7860,https://budcitynj.com/,(973) 440-5945,https://my.atlist.com/map/8bed33fa-9b8c-4c51-bb33-74cd0d98628a?share=true
Budzooka Weed Dispensary,142 Broad St,Elizabeth,NJ,7201,https://budzookanj.com/,(908) 380-2414,https://my.atlist.com/map/8bed33fa-9b8c-4c51-bb33-74cd0d98628a?share=true
Camden Apothecary,1205 Haddon Ave,Camden,NJ,8103,https://camdenapothecary.com/,(856) 931-6310,https://my.atlist.com/map/8bed33fa-9b8c-4c51-bb33-74cd0d98628a?share=true
Canabhang,24 Marshall Hill Rd,West Milford,NJ,7480,https://4twentysomewhere.com/,(973) 506-4503,https://my.atlist.com/map/8bed33fa-9b8c-4c51-bb33-74cd0d98628a?share=true
Canna Bar,58 Main St,Matawan,NJ,7747,https://thecannabar.com/,,https://my.atlist.com/map/8bed33fa-9b8c-4c51-bb33-74cd0d98628a?share=true
Canna Remedies,2175 Spruce St,Trenton,NJ,8638,https://cannaremediesnj.com/,(609) 307-9150,https://my.atlist.com/map/8bed33fa-9b8c-4c51-bb33-74cd0d98628a?share=true
Cannabis Clubhouse,70-72 E Main St,Sussex,NJ,7461,https://www.cannabisclubhousenj.com/,(862) 351-6021,https://my.atlist.com/map/8bed33fa-9b8c-4c51-bb33-74cd0d98628a?share=true
CannaBoy Treehouse,57 W South Orange Ave,South Orange Village,NJ,7079,https://cannaboytreehouse.com/,(973) 302-9020,https://my.atlist.com/map/8bed33fa-9b8c-4c51-bb33-74cd0d98628a?share=true
Cannavibes,1 US-46,Elmwood Park,NJ,7407,https://cannavibesnj.com/,(201) 292-4489,https://my.atlist.com/map/8bed33fa-9b8c-4c51-bb33-74cd0d98628a?share=true
Canopy Crossroad,9 West St,Red Bank,NJ,7701,https://canopycrossroad.com/age-gate,,https://my.atlist.com/map/8bed33fa-9b8c-4c51-bb33-74cd0d98628a?share=true
Carry-On Cannabis,2379 S Black Horse Pike,Williamstown,NJ,8094,https://gocarryon.com/,(856) 513-3115,https://my.atlist.com/map/8bed33fa-9b8c-4c51-bb33-74cd0d98628a?share=true
Casa Verde Wellness,315 US-46,Dover,NJ,7801,https://casaverdenj.com/,(973) 343-2322,https://my.atlist.com/map/8bed33fa-9b8c-4c51-bb33-74cd0d98628a?share=true
Castaway Cannabis,6006 US-130,Delran,NJ,8075,https://www.castawaycanna.com/,(856) 544-3029,https://my.atlist.com/map/8bed33fa-9b8c-4c51-bb33-74cd0d98628a?share=true
Central Jersey Dispensary,2 John F Kennedy Blvd,Somerset,NJ,8873,https://centraljerseydispensary.com/,(732) 579-4347,https://my.atlist.com/map/8bed33fa-9b8c-4c51-bb33-74cd0d98628a?share=true
Citi Roots,4585 NJ-27,Kingston,NJ,8528,https://citirootsdispensarynj.com/kingston,(609) 924-4585,https://my.atlist.com/map/8bed33fa-9b8c-4c51-bb33-74cd0d98628a?share=true
City Leaves,2516 Fire Rd,Egg Harbor Township,NJ,8234,https://cityleaves.com/,(609) 288-8574,https://my.atlist.com/map/8bed33fa-9b8c-4c51-bb33-74cd0d98628a?share=true
CityLeaf Dispensary,519 Broadway,Newark,NJ,7104,https://cityleafnj.com/,(973) 333-3399,https://my.atlist.com/map/8bed33fa-9b8c-4c51-bb33-74cd0d98628a?share=true
Cloud Nine Dispensary,513-27 US-22,North Plainfield,NJ,7060,https://www.c9dispensarynj.com/,(908) 588-2874,https://my.atlist.com/map/8bed33fa-9b8c-4c51-bb33-74cd0d98628a?share=true
Conservatory Cannabis Company,2516 Fire Rd,Egg Harbor Township,NJ,8234,https://www.conservatorycannabis.com/,(609) 904-9409,https://my.atlist.com/map/8bed33fa-9b8c-4c51-bb33-74cd0d98628a?share=true
Cookies Harrison,335 Angelo Cifelli Dr,Harrison,NJ,7029,https://harrison.cookies.co/,(973) 266-5437,https://my.atlist.com/map/8bed33fa-9b8c-4c51-bb33-74cd0d98628a?share=true
Cottonmouth Dispensary,10 E Clements Bridge Rd,Runnemede,NJ,8078,https://getcottonmouth.com/,(856) 312-3877,https://my.atlist.com/map/8bed33fa-9b8c-4c51-bb33-74cd0d98628a?share=true
CREAM Cannabis Dispensary,284 1st St,Jersey City,NJ,7302,https://cream.online/,(848) 500-9333,https://my.atlist.com/map/8bed33fa-9b8c-4c51-bb33-74cd0d98628a?share=true
Cuzzie's,2750 Mt Ephraim Ave,Camden,NJ,8104,https://www.shopcuzzies.com/stores/camden-nj,(832) 899-4374,https://my.atlist.com/map/8bed33fa-9b8c-4c51-bb33-74cd0d98628a?share=true
Dank Poet Dispensary,245 E Washington Ave,Washington,NJ,7882,https://dankpoet.com/,(908) 450-9900,https://my.atlist.com/map/8bed33fa-9b8c-4c51-bb33-74cd0d98628a?share=true
Daylite Cannabis,1136 NJ-73,Mt Laurel Township,NJ,8054,https://daylitecannabis.com/,(856) 355-5768,https://my.atlist.com/map/8bed33fa-9b8c-4c51-bb33-74cd0d98628a?share=true
Dispensary of Somerset,920 Hamilton St,Somerset,NJ,8873,https://thedispensariesofnj.com/somerset,(201) 250-8282,https://my.atlist.com/map/8bed33fa-9b8c-4c51-bb33-74cd0d98628a?share=true
Dispensary of Union,1603 US-22,Union,NJ,7083,https://thedispensariesofnj.com/union,(201) 250-8282,https://my.atlist.com/map/8bed33fa-9b8c-4c51-bb33-74cd0d98628a?share=true
Dogwood Green,5 Central Ave,West Orange,NJ,7052,https://www.dogwoodgreen.com/,(862) 704-2820,https://my.atlist.com/map/8bed33fa-9b8c-4c51-bb33-74cd0d98628a?share=true
Doobiez,1612 Union Valley Rd,West Milford,NJ,7480,https://www.doobiez.com/,(888) 789-6465,https://my.atlist.com/map/8bed33fa-9b8c-4c51-bb33-74cd0d98628a?share=true
Earth & Ivy,355 George St,New Brunswick,NJ,8901,https://earthandivy.co/,(848) 227-3260,https://my.atlist.com/map/8bed33fa-9b8c-4c51-bb33-74cd0d98628a?share=true
Earth & Ivy Lakehurst,29 Union Ave,Lakehurst,NJ,8733,https://earthandivy.co/lakehurst-nj-dispensary,(848) 227-3260,https://my.atlist.com/map/8bed33fa-9b8c-4c51-bb33-74cd0d98628a?share=true
Elevated by TheCannaBossLady,9 Highland Pl,Maplewood,NJ,7040,https://thecannabosslady.com/,(973) 609-9435,https://my.atlist.com/map/8bed33fa-9b8c-4c51-bb33-74cd0d98628a?share=true
Elevated Herb,1846 NJ-23,West Milford,NJ,7480,https://elevated-herb.com/,,https://my.atlist.com/map/8bed33fa-9b8c-4c51-bb33-74cd0d98628a?share=true
Emerald Tea Supply,368b Broad St,Bloomfield,NJ,7003,https://etsc.store/,(862) 395-8464,https://my.atlist.com/map/8bed33fa-9b8c-4c51-bb33-74cd0d98628a?share=true
Enlighten Dispensary,781 Rte 70 W,Marlton,NJ,8053,https://enlightendispensary.com/,(856) 702-4420,https://my.atlist.com/map/8bed33fa-9b8c-4c51-bb33-74cd0d98628a?share=true
Everest Dispensary,1226 Atlantic Ave,Atlantic City,NJ,8401,https://everestdispensary.com/,(609) 783-9333,https://my.atlist.com/map/8bed33fa-9b8c-4c51-bb33-74cd0d98628a?share=true
Evergreen Nature's Remedy,1242 NJ-23,Butler,NJ,7405,https://evergreen23.com/,(973) 291-2500,https://my.atlist.com/map/8bed33fa-9b8c-4c51-bb33-74cd0d98628a?share=true
Evolve Cannabis,186 US-130,Bordentown,NJ,8505,https://www.evolvecannanj.com/,(609) 400-5590,https://my.atlist.com/map/8bed33fa-9b8c-4c51-bb33-74cd0d98628a?share=true
Feels of Green,474 US-206,Newton,NJ,7860,https://app.jointcommerce.com/dispensaries/9967,(973) 291-2404,https://my.atlist.com/map/8bed33fa-9b8c-4c51-bb33-74cd0d98628a?share=true
Fire and Oak,5 Washington St,Mt Holly,NJ,8060,https://www.faomtholly.com/,(609) 901-0698,https://my.atlist.com/map/8bed33fa-9b8c-4c51-bb33-74cd0d98628a?share=true
Flower & Flame Dispensary,601 College Dr,Blackwood,NJ,8012,https://njflowerandflame.com/,(856) 302-1235,https://my.atlist.com/map/8bed33fa-9b8c-4c51-bb33-74cd0d98628a?share=true
Flowerbomb Dispensary,1108 Clinton Ave,Irvington,NJ,7111,https://app.jointcommerce.com/dispensaries/11502,(973) 302-6404,https://my.atlist.com/map/8bed33fa-9b8c-4c51-bb33-74cd0d98628a?share=true
Fresh Dispensary Eatontown,315 NJ-35,Eatontown,NJ,7724,https://freshcannabis.co/location/eatontown,(732) 440-7702,https://my.atlist.com/map/8bed33fa-9b8c-4c51-bb33-74cd0d98628a?share=true
Fresh Elizabeth,460 Maple Ave,Elizabeth,NJ,7202,https://freshcannabis.co/location/elizabeth,(908) 316-8786,https://my.atlist.com/map/8bed33fa-9b8c-4c51-bb33-74cd0d98628a?share=true
G2 Dispensary,350 US-46,Rockaway,NJ,7866,https://www.g2dispensary.com/menu,,https://my.atlist.com/map/8bed33fa-9b8c-4c51-bb33-74cd0d98628a?share=true
Garden Greenz,190 Newark Ave,Jersey City,NJ,7302,https://gardengreenz201.com/,(201) 963-4500,https://my.atlist.com/map/8bed33fa-9b8c-4c51-bb33-74cd0d98628a?share=true
Garden State Natural Green,4597 NJ-27,Kingston,NJ,8528,https://gstate.co/,(609) 580-8522,https://my.atlist.com/map/8bed33fa-9b8c-4c51-bb33-74cd0d98628a?share=true
Ginger Hale,814 White Horse Pike,Oaklyn,NJ,8107,https://www.gingerhaledispensary.com/,,https://my.atlist.com/map/8bed33fa-9b8c-4c51-bb33-74cd0d98628a?share=true
Golden Door Dispensary,638 Newark Ave,Jersey City,NJ,7306,https://goldendoordispensary.com/,(973) 735-0950,https://my.atlist.com/map/8bed33fa-9b8c-4c51-bb33-74cd0d98628a?share=true
Got Your Six Dispensary of New Jersey,4437 NJ-27,Princeton,NJ,8540,https://gotyoursixdispensary.com/,(732) 444-2060,https://my.atlist.com/map/8bed33fa-9b8c-4c51-bb33-74cd0d98628a?share=true
Green Haven Industries,402 Elizabeth Ave,Elizabeth,NJ,7206,https://greenhaven-nj.com/,(908) 242-5119,https://my.atlist.com/map/8bed33fa-9b8c-4c51-bb33-74cd0d98628a?share=true
Green Knight Cannabis,831 Hamilton St,Somerset,NJ,8873,https://greenknightdispensary.com/,(732) 444-2080,https://my.atlist.com/map/8bed33fa-9b8c-4c51-bb33-74cd0d98628a?share=true
Green Lightning Cannabis,1503 Taylors Ln,Cinnaminson,NJ,8077,https://greenlightningcannabis.com/,,https://my.atlist.com/map/8bed33fa-9b8c-4c51-bb33-74cd0d98628a?share=true
Green Oasis Dispensary,632 White Horse Pike,Atco,NJ,8004,https://greenoasisnj.com/,(856) 388-4126,https://my.atlist.com/map/8bed33fa-9b8c-4c51-bb33-74cd0d98628a?share=true
Green Wellness Haven,1110 N New Rd,Pleasantville,NJ,8232,https://learngreenhaven.com/,(609) 382-5553,https://my.atlist.com/map/8bed33fa-9b8c-4c51-bb33-74cd0d98628a?share=true
Greenstop Dispensary,516 Tonnelle Ave,Jersey City,NJ,7307,https://greenstopwellnessjc.com/,(201) 604-1281,https://my.atlist.com/map/8bed33fa-9b8c-4c51-bb33-74cd0d98628a?share=true
Gynsyng,14 S Center St,Merchantville,NJ,8109,https://www.gynsyng.com/,(908) 275-0385,https://my.atlist.com/map/8bed33fa-9b8c-4c51-bb33-74cd0d98628a?share=true
Hackettstown Dispensary,321 Mountain Ave,Hackettstown,NJ,7840,https://www.hackettstowndispensarynj.com/,(908) 651-5542,https://my.atlist.com/map/8bed33fa-9b8c-4c51-bb33-74cd0d98628a?share=true
Hamm & Chaz Cannabis Dispensary,747 West Side Ave,Jersey City,NJ,7306,https://www.hammchaz.com/,(201) 721-5507,https://my.atlist.com/map/8bed33fa-9b8c-4c51-bb33-74cd0d98628a?share=true
Happy Leaf,200 N White Horse Pike,Somerdale,NJ,8083,https://happyleafdispensarynj.com/,(856) 545-7024,https://my.atlist.com/map/8bed33fa-9b8c-4c51-bb33-74cd0d98628a?share=true
Hashery,409 NJ-17,Hackensack,NJ,7601,https://hasherynj.com/,(201) 606-0002,https://my.atlist.com/map/8bed33fa-9b8c-4c51-bb33-74cd0d98628a?share=true
Hashstoria NJ,799 Broad St,Newark,NJ,7102,https://nj1015.com/newark-cannabis-lounge-shutdown,(800) 283-1015,https://my.atlist.com/map/8bed33fa-9b8c-4c51-bb33-74cd0d98628a?share=true
Hello High,7685 Black Horse Pike,Hammonton,NJ,8037,https://hellohigh.com/,(609) 567-4444,https://my.atlist.com/map/8bed33fa-9b8c-4c51-bb33-74cd0d98628a?share=true
Herb's Premium Dispensary,757 Franklin Blvd,Somerset,NJ,8873,https://herbspremiumdispensary.com/,(732) 522-8893,https://my.atlist.com/map/8bed33fa-9b8c-4c51-bb33-74cd0d98628a?share=true
Herbalicity,246 Raritan Ave,Highland Park,NJ,8904,https://herbalicity.com/,(732) 328-6740,https://my.atlist.com/map/8bed33fa-9b8c-4c51-bb33-74cd0d98628a?share=true
High Profile Lakehurst,145 NJ-70,Lakehurst,NJ,8733,https://highprofilecannabis.com/shop/lakehurst-dispensary,,https://my.atlist.com/map/8bed33fa-9b8c-4c51-bb33-74cd0d98628a?share=true
High Profile of Somerdale Dispensary,4 N White Horse Pike,Somerdale,NJ,8083,https://highprofilecannabis.com/nj/somerdale-dispensary,,https://my.atlist.com/map/8bed33fa-9b8c-4c51-bb33-74cd0d98628a?share=true
High Rollers Dispensary,120 S Indiana Ave,Atlantic City,NJ,8401,https://highrollersdispensary.com/,(609) 246-6823,https://my.atlist.com/map/8bed33fa-9b8c-4c51-bb33-74cd0d98628a?share=true
High Street Dispensary,811 High St,Hackettstown,NJ,7840,https://njhighstreet.com/,(833) 865-5924,https://my.atlist.com/map/8bed33fa-9b8c-4c51-bb33-74cd0d98628a?share=true
Highway 90,90 Old Marlton Pike,Evesham,NJ,8053,https://www.thehighway90.com/,(856) 607-3473,https://my.atlist.com/map/8bed33fa-9b8c-4c51-bb33-74cd0d98628a?share=true
Holistic Re-Leaf,321 Mt Hope Ave,Rockaway,NJ,7866,https://holisticreleafnj.com/,(973) 453-6645,https://my.atlist.com/map/8bed33fa-9b8c-4c51-bb33-74cd0d98628a?share=true
Honey Buzz Farms,1724 Atlantic Ave,Atlantic City,NJ,8401,https://honeybuzzfarms.com/,(609) 957-5658,https://my.atlist.com/map/8bed33fa-9b8c-4c51-bb33-74cd0d98628a?share=true
HudHaus,9001 River Rd,North Bergen,NJ,7047,https://hudhaus.co/age-gate,,https://my.atlist.com/map/8bed33fa-9b8c-4c51-bb33-74cd0d98628a?share=true
Hudsonica Inc.,1427 Grand St,Hoboken,NJ,7030,https://hudsonicadispensary.com/,,https://my.atlist.com/map/8bed33fa-9b8c-4c51-bb33-74cd0d98628a?share=true
HZY Goods,19 Prospect St,East Orange,NJ,7017,https://www.hzygoods.com/,(973) 200-3030,https://my.atlist.com/map/8bed33fa-9b8c-4c51-bb33-74cd0d98628a?share=true
Indigo,302 Crescent Blvd,Brooklawn,NJ,8030,https://www.indigodispensary.com/,(609) 920-1818,https://my.atlist.com/map/8bed33fa-9b8c-4c51-bb33-74cd0d98628a?share=true
INSA Coastline Dispensary,1580 US-9,Cape May Court House,NJ,8210,https://coastlinedispensary.com/,(609) 445-4420,https://my.atlist.com/map/8bed33fa-9b8c-4c51-bb33-74cd0d98628a?share=true
Island Vibez,18 Roosevelt Ave,Plainfield,NJ,7060,https://islandvibezdispensary.com/,(908) 941-4875,https://my.atlist.com/map/8bed33fa-9b8c-4c51-bb33-74cd0d98628a?share=true
J & J Cannabis Dispensary,3055 NJ-23 Unit A,Oak Ridge,NJ,7438,https://www.jjdispensary.com/,(973) 200-0705,https://my.atlist.com/map/8bed33fa-9b8c-4c51-bb33-74cd0d98628a?share=true
JC Element,365 Central Ave,Jersey City,NJ,7307,https://jcelement.com/,(201) 360-0588,https://my.atlist.com/map/8bed33fa-9b8c-4c51-bb33-74cd0d98628a?share=true
Jersey Leaf,554 West Side Ave,Jersey City,NJ,7304,https://jerseyleaf.net/,(201) 951-5380,https://my.atlist.com/map/8bed33fa-9b8c-4c51-bb33-74cd0d98628a?share=true
Jersey Meds,7 NJ-31,Pennington,NJ,8534,https://jerseymeds.com/,(609) 365-3002,https://my.atlist.com/map/8bed33fa-9b8c-4c51-bb33-74cd0d98628a?share=true
Jersey Roots,1433 Union Valley Rd,West Milford,NJ,7480,https://www.jerseyrootsdispensary.com/,(973) 506-4853,https://my.atlist.com/map/8bed33fa-9b8c-4c51-bb33-74cd0d98628a?share=true
Jester's Joint,70 Easton Ave,New Brunswick,NJ,8901,https://jestersdispensary.com/,(848) 800-2700,https://my.atlist.com/map/8bed33fa-9b8c-4c51-bb33-74cd0d98628a?share=true
Joy Leaf,711 E 1st Ave,Roselle Park,NJ,7204,https://joyleaf.com/,(908) 287-5414,https://my.atlist.com/map/8bed33fa-9b8c-4c51-bb33-74cd0d98628a?share=true
Kind Kush,279 US-46,Rockaway,NJ,7866,https://www.kindkushdispensary.com/,(973) 586-9333,https://my.atlist.com/map/8bed33fa-9b8c-4c51-bb33-74cd0d98628a?share=true
Kine Buds Maywood,113 E Passaic St,Maywood,NJ,7607,https://app.jointcommerce.com/dispensaries/10961,(201) 956-8800,https://my.atlist.com/map/8bed33fa-9b8c-4c51-bb33-74cd0d98628a?share=true
La Vida Gardens,523 Washington Ave,Belleville,NJ,7109,https://lavidagardens.com/,(973) 259-6736,https://my.atlist.com/map/8bed33fa-9b8c-4c51-bb33-74cd0d98628a?share=true
Lady L Cannabis,547 West Side Ave,Jersey City,NJ,7304,https://ladyljerseycity.com/,,https://my.atlist.com/map/8bed33fa-9b8c-4c51-bb33-74cd0d98628a?share=true
Leaf Haus,900 Easton Ave,Somerset,NJ,8873,https://leafhaus.com/,(908) 908-9333,https://my.atlist.com/map/8bed33fa-9b8c-4c51-bb33-74cd0d98628a?share=true
Leaf Joint,391 Central Ave,Jersey City,NJ,7307,https://www.theleafjoint.net/,(201) 630-4356,https://my.atlist.com/map/8bed33fa-9b8c-4c51-bb33-74cd0d98628a?share=true
Legacy to Lifted,490 West Side Ave,Jersey City,NJ,7304,https://www.liftednj.com/,,https://my.atlist.com/map/8bed33fa-9b8c-4c51-bb33-74cd0d98628a?share=true
Legal Distribution,3112 Atlantic Ave,Atlantic City,NJ,8401,https://legaldistributionnj.com/,,https://my.atlist.com/map/8bed33fa-9b8c-4c51-bb33-74cd0d98628a?share=true
Lemon 22,2006 US-22,Scotch Plains,NJ,7076,https://lemon22nj.com/,(908) 490-0039,https://my.atlist.com/map/8bed33fa-9b8c-4c51-bb33-74cd0d98628a?share=true
Loud House,112 N 3rd St,Camden,NJ,8102,https://www.nj.com/marijuana/2022/09/this-could-soon-be-nj-citys-first-legal-weed-store-its-owners-have-big-dreams.html,(609) 989-5454,https://my.atlist.com/map/8bed33fa-9b8c-4c51-bb33-74cd0d98628a?share=true
Mad Hatter Dispensary,845 US-1,Avenel,NJ,7001,https://www.madhatterdispensary.com/,(732) 636-5070,https://my.atlist.com/map/8bed33fa-9b8c-4c51-bb33-74cd0d98628a?share=true
Main Street Dispensary,311 Raritan Ave,Highland Park,NJ,8904,https://mainstreetdispensarynj.com/,,https://my.atlist.com/map/8bed33fa-9b8c-4c51-bb33-74cd0d98628a?share=true
Mass Grown,34 Mill St,Mt Holly,NJ,8060,https://massgrownnj.com/,(609) 518-9333,https://my.atlist.com/map/8bed33fa-9b8c-4c51-bb33-74cd0d98628a?share=true
Med Leaf,201 Philadelphia Ave,Egg Harbor City,NJ,8215,https://www.medleafdispensary.com/,(609) 616-0420,https://my.atlist.com/map/8bed33fa-9b8c-4c51-bb33-74cd0d98628a?share=true
Midnight Greens,5100 NJ-42,Blackwood,NJ,8012,https://midnightgreensnj.com/,(856) 818-5335,https://my.atlist.com/map/8bed33fa-9b8c-4c51-bb33-74cd0d98628a?share=true
MindLift Dispensary,517 Park Ave,Plainfield,NJ,7060,https://mindliftdispensary.com/,(908) 588-2322,https://my.atlist.com/map/8bed33fa-9b8c-4c51-bb33-74cd0d98628a?share=true
MMD NJ,655 Newark Ave,Jersey City,NJ,7306,https://mmdshops.com/location/jersey-city,(877) 420-5874,https://my.atlist.com/map/8bed33fa-9b8c-4c51-bb33-74cd0d98628a?share=true
Moja Life,28 S Warren St,Trenton,NJ,8608,https://moja-life.com/,(609) 228-0060,https://my.atlist.com/map/8bed33fa-9b8c-4c51-bb33-74cd0d98628a?share=true
Molly Ann Farms,256 Belmont Ave,Haledon,NJ,7508,https://mollyannfarms.com/haledon,(973) 315-4900,https://my.atlist.com/map/8bed33fa-9b8c-4c51-bb33-74cd0d98628a?share=true
Mountain Dispensary,46 NJ-94,Vernon Township,NJ,7462,https://mountaindispensarynj.com/age-gate,,https://my.atlist.com/map/8bed33fa-9b8c-4c51-bb33-74cd0d98628a?share=true
Mountain View Farmacy,74 Oak Ridge Rd,Oak Ridge,NJ,7438,https://mvf.earth/,(973) 319-6420,https://my.atlist.com/map/8bed33fa-9b8c-4c51-bb33-74cd0d98628a?share=true
NAR Cannabis,4004 Church Rd,Mt Laurel Township,NJ,8054,https://narcannabis.com/mount-laurel-location,,https://my.atlist.com/map/8bed33fa-9b8c-4c51-bb33-74cd0d98628a?share=true
Natural Apothecary,27 Washington Ave,Belleville,NJ,7109,https://natural-apothecary.com/service-area/belleville-nj,(973) 755-2918,https://my.atlist.com/map/8bed33fa-9b8c-4c51-bb33-74cd0d98628a?share=true
Nature’s Motivation,1095 Clinton Ave,Irvington,NJ,7111,https://natmotive.com/,(973) 604-1111,https://my.atlist.com/map/8bed33fa-9b8c-4c51-bb33-74cd0d98628a?share=true
Nevaeh Verde Dispensary,176 Belmont Ave,Belleville,NJ,7109,https://nevaehverdedispensary.com/,(973) 758-6011,https://my.atlist.com/map/8bed33fa-9b8c-4c51-bb33-74cd0d98628a?share=true
New Era Dispensary,80-88 Main St,South Bound Brook,NJ,8880,https://neweradispensary.com/,(732) 709-9842,https://my.atlist.com/map/8bed33fa-9b8c-4c51-bb33-74cd0d98628a?share=true
New Frontier Solutions,473 E Broadway,Salem,NJ,8079,https://salemcountychamber.com/business-directory-shoppers-guide/alcohol-recreational-cannabis/name/new-frontier-solutions,(856) 351-2245,https://my.atlist.com/map/8bed33fa-9b8c-4c51-bb33-74cd0d98628a?share=true
Nightjar,549 Bloomfield Ave,Bloomfield,NJ,7003,https://nightjarcannabis.com/,(973) 707-2915,https://my.atlist.com/map/8bed33fa-9b8c-4c51-bb33-74cd0d98628a?share=true
Nile of NJ,5409 Bergenline Ave,West New York,NJ,7093,https://shopniletoday.com/,,https://my.atlist.com/map/8bed33fa-9b8c-4c51-bb33-74cd0d98628a?share=true
Nirvana,1134 NJ-73,Mt Laurel Township,NJ,8054,https://explorenirvana.com/,(732) 431-3137,https://my.atlist.com/map/8bed33fa-9b8c-4c51-bb33-74cd0d98628a?share=true
NJ Pure,"A-10, 4313 US-130",Edgewater Park,NJ,8010,http://njpureweed.com/,,https://my.atlist.com/map/8bed33fa-9b8c-4c51-bb33-74cd0d98628a?share=true
Noire Dispensary,171 Maplewood Ave,Maplewood,NJ,7040,https://noiredispensary.com/,(973) 922-1622,https://my.atlist.com/map/8bed33fa-9b8c-4c51-bb33-74cd0d98628a?share=true
Northeast Alternatives Dispensary,780 US-130,Hamilton Township,NJ,8691,https://nealternatives.com/hamilton-nj,(609) 262-2262,https://my.atlist.com/map/8bed33fa-9b8c-4c51-bb33-74cd0d98628a?share=true
Nova Farms,642 Mantua Pike,Woodbury,NJ,8096,https://novafarms.com/shop/woodbury,(833) 420-6682,https://my.atlist.com/map/8bed33fa-9b8c-4c51-bb33-74cd0d98628a?share=true
Ohm Theory,213 US-46,Elmwood Park,NJ,7407,https://ohmtheory.com/,,https://my.atlist.com/map/8bed33fa-9b8c-4c51-bb33-74cd0d98628a?share=true
One Green Leaf,95 Lakeview Dr N,Gibbsboro,NJ,8026,https://onegreenleafdispensary.com/,(856) 344-2879,https://my.atlist.com/map/8bed33fa-9b8c-4c51-bb33-74cd0d98628a?share=true
Organic Farms,2895 Mt Ephraim Ave,Camden,NJ,8104,https://organicfarms21.com/,(856) 407-7100,https://my.atlist.com/map/8bed33fa-9b8c-4c51-bb33-74cd0d98628a?share=true
OTC Jersey,167 New Jersey Ave,Absecon,NJ,8201,https://www.redoakdispensary.com/stores/red-oak-cannabis-dispensary-absecon-nj,(609) 241-0702,https://my.atlist.com/map/8bed33fa-9b8c-4c51-bb33-74cd0d98628a?share=true
Phasal,1100 N Black Horse Pike,Runnemede,NJ,8078,https://phasaldispensary.com/,(856) 540-9333,https://my.atlist.com/map/8bed33fa-9b8c-4c51-bb33-74cd0d98628a?share=true
Phula,60-62 High St,Mt Holly,NJ,8060,https://www.phulaweed.com/,,https://my.atlist.com/map/8bed33fa-9b8c-4c51-bb33-74cd0d98628a?share=true
Plant Base,148 E 2nd St,Plainfield,NJ,7060,https://plantbasenj.co/,(848) 354-6399,https://my.atlist.com/map/8bed33fa-9b8c-4c51-bb33-74cd0d98628a?share=true
Plantabis,2077 US-1,Rahway,NJ,7065,https://plantabis.com/rahway-cannabis-dispensary,(732) 481-0002,https://my.atlist.com/map/8bed33fa-9b8c-4c51-bb33-74cd0d98628a?share=true
Plantopia,37 Main St,Englishtown,NJ,7726,https://plantopiadispensaries.com/,,https://my.atlist.com/map/8bed33fa-9b8c-4c51-bb33-74cd0d98628a?share=true
PPP Dispensary,3001 Atlantic Ave,Atlantic City,NJ,8401,https://pppdispensaryllc.com/,,https://my.atlist.com/map/8bed33fa-9b8c-4c51-bb33-74cd0d98628a?share=true
Premo,2 E Front St,Keyport,NJ,7735,http://premocannabis.co/menu,(908) 676-7320,https://my.atlist.com/map/8bed33fa-9b8c-4c51-bb33-74cd0d98628a?share=true
Public Absecon,792a White Horse Pike,Absecon,NJ,8201,https://yourpublic.co/,(323) 696-9237,https://my.atlist.com/map/8bed33fa-9b8c-4c51-bb33-74cd0d98628a?share=true
Puffin Store,382 George St,New Brunswick,NJ,8901,https://puffinstorenj.com/,(833) 507-1500,https://my.atlist.com/map/8bed33fa-9b8c-4c51-bb33-74cd0d98628a?share=true
Pure Blossom,2554 Pennington Rd,Pennington,NJ,8534,https://www.pureblossom.com/,(609) 928-3644,https://my.atlist.com/map/8bed33fa-9b8c-4c51-bb33-74cd0d98628a?share=true
Pure Natural Vibes,470 Prospect Ave,West Orange,NJ,7052,https://www.purenaturalvibes.com/,(888) 429-2010,https://my.atlist.com/map/8bed33fa-9b8c-4c51-bb33-74cd0d98628a?share=true
Quality Roots,850 Rte 70 W,Marlton,NJ,8053,https://getqualityroots.com/locations/marlton,(856) 702-1800,https://my.atlist.com/map/8bed33fa-9b8c-4c51-bb33-74cd0d98628a?share=true
Queen City Remedies,1353 South Ave,Plainfield,NJ,7062,https://queencitynj.com/,(908) 941-7909,https://my.atlist.com/map/8bed33fa-9b8c-4c51-bb33-74cd0d98628a?share=true
Releaf Cannabis,1024 S Black Horse Pike,Williamstown,NJ,8094,https://releafcanna.biz/,(856) 516-8187,https://my.atlist.com/map/8bed33fa-9b8c-4c51-bb33-74cd0d98628a?share=true
RushBudz Dispensary,77 Main St,South Bound Brook,NJ,8880,https://rushbudz.com/,(732) 314-0099,https://my.atlist.com/map/8bed33fa-9b8c-4c51-bb33-74cd0d98628a?share=true
Ruuted,14 Main St,Englishtown,NJ,7726,https://ruuteddispensary.com/,(732) 584-2209,https://my.atlist.com/map/8bed33fa-9b8c-4c51-bb33-74cd0d98628a?share=true
Salt Air Botanicals,1127 Arctic Ave,Atlantic City,NJ,8401,https://www.saltairbotanicals.com/,(609) 200-1584,https://my.atlist.com/map/8bed33fa-9b8c-4c51-bb33-74cd0d98628a?share=true
Scarlet Reserve Room,5 Hamilton Rd,Englishtown,NJ,7726,https://scarletreserveroom.com/,(856) 537-9300,https://my.atlist.com/map/8bed33fa-9b8c-4c51-bb33-74cd0d98628a?share=true
Sea & Leaf,3860 Bayshore Rd,North Cape May,NJ,8204,https://seaandleaf.com/,(609) 551-2750,https://my.atlist.com/map/8bed33fa-9b8c-4c51-bb33-74cd0d98628a?share=true
Shipwreck'd,300 W Sylvania Ave,Neptune City,NJ,7753,https://shipwreckd.com/,(732) 481-3136,https://my.atlist.com/map/8bed33fa-9b8c-4c51-bb33-74cd0d98628a?share=true
Shore House Canna,124 Sunset Blvd,Cape May,NJ,8204,https://jerseyshoretopdispensary.com/shore-house-canna-cape-mays-premier-cannabis-destination,(609) 600-3452,https://my.atlist.com/map/8bed33fa-9b8c-4c51-bb33-74cd0d98628a?share=true
Simply Pure Trenton,1531 N Olden Ave,Ewing Township,NJ,8638,https://simplypuretrenton.com/,(609) 388-7679,https://my.atlist.com/map/8bed33fa-9b8c-4c51-bb33-74cd0d98628a?share=true
Sky Cannabis,52 E Broad St unit 9,Hopewell,NJ,8525,https://www.skycannanj.com/,(609) 309-5005,https://my.atlist.com/map/8bed33fa-9b8c-4c51-bb33-74cd0d98628a?share=true
Social Dispensary,614 N Pearl St,Bridgeton,NJ,8302,https://thesocialcannabis.com/location/bridgeton-nj,(303) 997-5563,https://my.atlist.com/map/8bed33fa-9b8c-4c51-bb33-74cd0d98628a?share=true
Somerset Green,729 Somerset St,Somerset,NJ,8873,https://www.somersetgreen.co/age-gate,,https://my.atlist.com/map/8bed33fa-9b8c-4c51-bb33-74cd0d98628a?share=true
Soulflora,2713 NJ-23,Newfoundland,NJ,7435,https://www.soulflora.com/,(973) 409-4319,https://my.atlist.com/map/8bed33fa-9b8c-4c51-bb33-74cd0d98628a?share=true
Sparkology,3231 NJ-27,Franklin Park,NJ,8823,https://sparkology.com/,(732) 419-3330,https://my.atlist.com/map/8bed33fa-9b8c-4c51-bb33-74cd0d98628a?share=true
Spot 23 LLC,2915 NJ-23,Newfoundland,NJ,7435,https://spot23llc.com/,(707) 567-1790,https://my.atlist.com/map/8bed33fa-9b8c-4c51-bb33-74cd0d98628a?share=true
Springfield Ave Dispensary,1070 Springfield Ave,Irvington,NJ,7111,https://springfieldavedispensary.com/,(973) 757-2055,https://my.atlist.com/map/8bed33fa-9b8c-4c51-bb33-74cd0d98628a?share=true
Story Dispensary of Springfield,130 US-22,Springfield,NJ,7081,https://storycannabis.com/dispensary-locations/new-jersey/springfield-nj,(318) 974-9492,https://my.atlist.com/map/8bed33fa-9b8c-4c51-bb33-74cd0d98628a?share=true
SunnyTien,3004 Atlantic Ave,Atlantic City,NJ,8401,https://www.sunnytien.com/,(609) 428-6235,https://my.atlist.com/map/8bed33fa-9b8c-4c51-bb33-74cd0d98628a?share=true
Sussex Pharms,54 Main St,Sussex,NJ,7461,https://www.sussexpharms.com/,(973) 440-5044,https://my.atlist.com/map/8bed33fa-9b8c-4c51-bb33-74cd0d98628a?share=true
Sweet Leaf's LLC,21 S Tennessee Ave,Atlantic City,NJ,8401,https://sweetleafsnj.com/,(609) 400-3223,https://my.atlist.com/map/8bed33fa-9b8c-4c51-bb33-74cd0d98628a?share=true
Sweetspot Dispensary Maplewood,751 Irvington Ave,Maplewood,NJ,7040,https://www.citybiz.co/article/680520/sweetspot-dispensary-maplewood-nj-location-now-open,,https://my.atlist.com/map/8bed33fa-9b8c-4c51-bb33-74cd0d98628a?share=true
Sweetspot River Edge,75 Rte 4,River Edge,NJ,7661,https://www.roi-nj.com/2025/10/02/industry/retail/sweetspot-farms-dispensary-opens-in-river-edge,(973) 985-0455,https://my.atlist.com/map/8bed33fa-9b8c-4c51-bb33-74cd0d98628a?share=true
Taste of Earth,108 Wheat Rd,Buena,NJ,8310,https://tasteofearth.co/,,https://my.atlist.com/map/8bed33fa-9b8c-4c51-bb33-74cd0d98628a?share=true
The Cannabis Place,1544 John F. Kennedy Blvd,Jersey City,NJ,7305,https://thecannabisplace.org/,(844) 420-1542,https://my.atlist.com/map/8bed33fa-9b8c-4c51-bb33-74cd0d98628a?share=true
The Dispensary of Saddle Brook,225 US-46,Saddle Brook,NJ,7663,https://dispensaryofsaddlebrook.com/,(201) 250-8282,https://my.atlist.com/map/8bed33fa-9b8c-4c51-bb33-74cd0d98628a?share=true
The Frosted Nug at Red Bank,22 Bridge Ave,Red Bank,NJ,7701,https://frostednug.com/red-bank-dispensary,(848) 878-1110,https://my.atlist.com/map/8bed33fa-9b8c-4c51-bb33-74cd0d98628a?share=true
"The Goods Supply Co. Victory Gardens, LLC",330 S Salem St,Dover,NJ,7801,https://shop.thegoodssupply.co/dover/about-us,(908) 936-5077,https://my.atlist.com/map/8bed33fa-9b8c-4c51-bb33-74cd0d98628a?share=true
The Healing Side,2415 Pacific Ave,Atlantic City,NJ,8401,https://thehealingside.com/,(609) 727-0280,https://my.atlist.com/map/8bed33fa-9b8c-4c51-bb33-74cd0d98628a?share=true
The Honorable Plant,123 Bay Ave,Highlands,NJ,7732,https://honorableplant.com/,(732) 334-6545,https://my.atlist.com/map/8bed33fa-9b8c-4c51-bb33-74cd0d98628a?share=true
The Jersey Joint Dispensary,7-11 State St,Glassboro,NJ,8028,https://www.jerseyjointdispensary.com/age-gate,,https://my.atlist.com/map/8bed33fa-9b8c-4c51-bb33-74cd0d98628a?share=true
The Leaf and Seed Dispensary,328 White Horse Pike Unit L,Clementon,NJ,8021,https://www.theleafandseednj.com/,(609) 682-3510,https://my.atlist.com/map/8bed33fa-9b8c-4c51-bb33-74cd0d98628a?share=true
The Library of New Jersey,1-3 Washington St,West Orange,NJ,7052,https://thelibrarynj.com/,(201) 463-9998,https://my.atlist.com/map/8bed33fa-9b8c-4c51-bb33-74cd0d98628a?share=true
The Medicine Woman,660 Tonnelle Ave,Jersey City,NJ,7307,https://www.themedicinewoman.com/pages/store-jersey-city,(562) 262-9585,https://my.atlist.com/map/8bed33fa-9b8c-4c51-bb33-74cd0d98628a?share=true
The Other Side Dispensary,36 Congress St,Jersey City,NJ,7307,https://www.hobokengirl.com/cannabis-dispensary-jersey-city-nj-the-other-side,,https://my.atlist.com/map/8bed33fa-9b8c-4c51-bb33-74cd0d98628a?share=true
The Social Leaf,334 Atlantic City Blvd,Toms River,NJ,8757,https://thesocialleaf.com/,(732) 358-6800,https://my.atlist.com/map/8bed33fa-9b8c-4c51-bb33-74cd0d98628a?share=true
The THC Shop,1740 Atlantic Ave,Atlantic City,NJ,8401,https://ourthcshop.com/,(844) 732-2465,https://my.atlist.com/map/8bed33fa-9b8c-4c51-bb33-74cd0d98628a?share=true
The Wildflower Market,1810 Wayside Rd suite a,Eatontown,NJ,7724,https://thewildflowernj.com/shop,(732) 705-7550,https://my.atlist.com/map/8bed33fa-9b8c-4c51-bb33-74cd0d98628a?share=true
Timber 5,695 Hamilton St,Somerset,NJ,8873,https://timber5.com/,(732) 444-2002,https://my.atlist.com/map/8bed33fa-9b8c-4c51-bb33-74cd0d98628a?share=true
Township Green,15-17 E Scott St,Riverside,NJ,8075,https://townshipgreen.com/,(856) 544-3065,https://my.atlist.com/map/8bed33fa-9b8c-4c51-bb33-74cd0d98628a?share=true
Tree House Co-Op Dispensary,326 NJ-73,Voorhees Township,NJ,8043,https://thcvoorhees.com/,(856) 925-0420,https://my.atlist.com/map/8bed33fa-9b8c-4c51-bb33-74cd0d98628a?share=true
Treeotics,467 Lyons Ave,Newark,NJ,7112,https://treeotics.com/,(848) 236-7816,https://my.atlist.com/map/8bed33fa-9b8c-4c51-bb33-74cd0d98628a?share=true
Twisted Hat Cannabis,515 Shell Rd,Carneys Point,NJ,8069,https://cart.twistedhatcannabis.com/,,https://my.atlist.com/map/8bed33fa-9b8c-4c51-bb33-74cd0d98628a?share=true
Uforia Dispensary,138 Griffith St,Jersey City,NJ,7307,https://uforiadispensary.com/,(201) 420-9333,https://my.atlist.com/map/8bed33fa-9b8c-4c51-bb33-74cd0d98628a?share=true
Uma Flowers,100 Ridgedale Ave,Morristown,NJ,7960,https://www.umaflowers.co/location/uma-flowers-morristown-nj,(978) 925-9220,https://my.atlist.com/map/8bed33fa-9b8c-4c51-bb33-74cd0d98628a?share=true
Union Chill,204 N Union St,Lambertville,NJ,8530,https://unionchillco.com/,(609) 483-2350,https://my.atlist.com/map/8bed33fa-9b8c-4c51-bb33-74cd0d98628a?share=true
Unity Rd. Cannabis Shop,441 Elizabeth Ave,Somerset,NJ,8873,https://www.unity-rd.com/,(732) 412-7210,https://my.atlist.com/map/8bed33fa-9b8c-4c51-bb33-74cd0d98628a?share=true
Urge,941 Elizabeth Ave,Elizabeth,NJ,7201,https://urgenj.com/,(908) 936-1100,https://my.atlist.com/map/8bed33fa-9b8c-4c51-bb33-74cd0d98628a?share=true
Vigor Dispensary,1082 NJ-34,Matawan,NJ,7747,https://vigordispensary.com/,(732) 510-0400,https://my.atlist.com/map/8bed33fa-9b8c-4c51-bb33-74cd0d98628a?share=true
Village Hoboken,516 Washington St,Hoboken,NJ,7030,https://thevillagebrands.com/location/hoboken-nj,(201) 238-2451,https://my.atlist.com/map/8bed33fa-9b8c-4c51-bb33-74cd0d98628a?share=true
Voltaire NJ,47 Mill St,Mt Holly,NJ,8060,https://shopvoltaire.com/,(609) 702-5520,https://my.atlist.com/map/8bed33fa-9b8c-4c51-bb33-74cd0d98628a?share=true
West Orange Wellness,26 S Valley Rd,West Orange,NJ,7052,https://wowdispensary.com/,(862) 420-0420,https://my.atlist.com/map/8bed33fa-9b8c-4c51-bb33-74cd0d98628a?share=true
Woodbury Wellness,818 N Broad St,Woodbury,NJ,8096,https://www.woodburywellnessdispensary.com/,,https://my.atlist.com/map/8bed33fa-9b8c-4c51-bb33-74cd0d98628a?share=true
Xena NJ,759a Bergen Ave,Jersey City,NJ,7305,https://xenanj.com/,(201) 421-5000,https://my.atlist.com/map/8bed33fa-9b8c-4c51-bb33-74cd0d98628a?share=true
Zacate,"Millside Shopping Center II, 4037 US-130",Delran,NJ,8075,https://zacate.co/,(856) 200-3225,https://my.atlist.com/map/8bed33fa-9b8c-4c51-bb33-74cd0d98628a?share=true
Zen Leaf Mount Holly,600 High St,Mt Holly,NJ,8060,https://zenleafdispensaries.com/locations/mt-holly,(609) 676-9770,https://my.atlist.com/map/8bed33fa-9b8c-4c51-bb33-74cd0d98628a?share=true
Apothecarium Dispensary,55 S Main St,Phillipsburg,NJ,8865,https://shop.apothecarium.com/phillipsburg/recreational,,https://my.atlist.com/map/8bed33fa-9b8c-4c51-bb33-74cd0d98628a?share=true
Apothecarium Dispensary,1865 Springfield Ave,Maplewood,NJ,7040,https://shop.apothecarium.com/maplewood/recreational,,https://my.atlist.com/map/8bed33fa-9b8c-4c51-bb33-74cd0d98628a?share=true
Apothecarium Dispensary,200 NJ-17,Lodi,NJ,7644,https://shop.apothecarium.com/lodi/recreational,,https://my.atlist.com/map/8bed33fa-9b8c-4c51-bb33-74cd0d98628a?share=true
Ascend,325 NJ-15,Wharton,NJ,7885,https://letsascend.com/locations/new-jersey/wharton,(973) 786-1810,https://my.atlist.com/map/8bed33fa-9b8c-4c51-bb33-74cd0d98628a?share=true
Ascend,461-469 West St,Fort Lee,NJ,7024,https://letsascend.com/locations/new-jersey/fort-lee,(973) 200-7696,https://my.atlist.com/map/8bed33fa-9b8c-4c51-bb33-74cd0d98628a?share=true
Ascend,174 NJ-17,Rochelle Park,NJ,7662,https://letsascend.com/locations/new-jersey/rochelle-park,(973) 370-3150,https://my.atlist.com/map/8bed33fa-9b8c-4c51-bb33-74cd0d98628a?share=true
Aunt Mary's Dispensary,100 Reaville Ave,Flemington,NJ,8822,https://auntmarysnj.co/,(908) 257-0421,https://my.atlist.com/map/8bed33fa-9b8c-4c51-bb33-74cd0d98628a?share=true
Ayr Wellness,950 US-1,Woodbridge,NJ,7095,https://ayrdispensaries.com/new-jersey/woodbridge-medical,(848) 999-2005,https://my.atlist.com/map/8bed33fa-9b8c-4c51-bb33-74cd0d98628a?share=true
Ayr Wellness,59 Main St,Eatontown,NJ,7724,https://ayrdispensaries.com/new-jersey/eatontown-medical,(848) 999-2005,https://my.atlist.com/map/8bed33fa-9b8c-4c51-bb33-74cd0d98628a?share=true
Ayr Wellness,2536 US-22,Union,NJ,7083,https://ayrdispensaries.com/new-jersey/union-medical,(848) 999-2005,https://my.atlist.com/map/8bed33fa-9b8c-4c51-bb33-74cd0d98628a?share=true
BLOC,1075 Easton Ave,Somerset,NJ,8873,https://blocdispensary.com/location/somerset-nj,(732) 790-5899,https://my.atlist.com/map/8bed33fa-9b8c-4c51-bb33-74cd0d98628a?share=true
BLOC,501 US-9,Waretown,NJ,8758,https://blocdispensary.com/location/waretown-nj,(973) 494-8550,https://my.atlist.com/map/8bed33fa-9b8c-4c51-bb33-74cd0d98628a?share=true
BLOC,1761 N Olden Ave,Ewing Township,NJ,8638,https://blocdispensary.com/location/ewing-nj-rec,(973) 494-8499,https://my.atlist.com/map/8bed33fa-9b8c-4c51-bb33-74cd0d98628a?share=true
Breakwater,2 Corporate Dr,East Windsor,NJ,8512,https://www.breakwateratc.com/,(732) 703-7300,https://my.atlist.com/map/8bed33fa-9b8c-4c51-bb33-74cd0d98628a?share=true
Breakwater,154 Westfield Ave W,Roselle Park,NJ,7204,https://www.breakwateratc.com/,(732) 703-7300,https://my.atlist.com/map/8bed33fa-9b8c-4c51-bb33-74cd0d98628a?share=true
Brute's Roots,6206 Black Horse Pike,Egg Harbor Township,NJ,8234,https://brutesroots.com/,(609) 867-6112,https://my.atlist.com/map/8bed33fa-9b8c-4c51-bb33-74cd0d98628a?share=true
Curaleaf,191 US-130,Bordentown,NJ,8505,https://curaleaf.com/age-gate,,https://my.atlist.com/map/8bed33fa-9b8c-4c51-bb33-74cd0d98628a?share=true
Curaleaf,4237 US-130,Edgewater Park,NJ,8010,https://curaleaf.com/age-gate,,https://my.atlist.com/map/8bed33fa-9b8c-4c51-bb33-74cd0d98628a?share=true
Curaleaf,640 Creek Rd,Bellmawr,NJ,8031,https://curaleaf.com/age-gate,,https://my.atlist.com/map/8bed33fa-9b8c-4c51-bb33-74cd0d98628a?share=true
Design 710,112 Park Pl,Atlantic City,NJ,8401,https://design710.com/,(609) 964-7420,https://my.atlist.com/map/8bed33fa-9b8c-4c51-bb33-74cd0d98628a?share=true
Downtown FLWR,141 Newark Ave,Jersey City,NJ,7302,https://downtownflwr.com/,(201) 351-4048,https://my.atlist.com/map/8bed33fa-9b8c-4c51-bb33-74cd0d98628a?share=true
Eastern Green,78 NJ-73,Voorhees Township,NJ,8043,https://easterngreendispensary.com/,(856) 205-3257,https://my.atlist.com/map/8bed33fa-9b8c-4c51-bb33-74cd0d98628a?share=true
Garfield Gardens Dispensary,517 River Dr,Garfield,NJ,7026,https://gardensdispensary.com/locations/garfield-nj,,https://my.atlist.com/map/8bed33fa-9b8c-4c51-bb33-74cd0d98628a?share=true
Holistic Solutions,451 White Horse Pike,Atco,NJ,8004,https://myholisticsolutions.com/,(856) 270-7067,https://my.atlist.com/map/8bed33fa-9b8c-4c51-bb33-74cd0d98628a?share=true
HoneyGrove,1337 Blackwood-Clementon Rd,Clementon,NJ,8021,https://honeygrovedispensary.com/,(732) 395-2444,https://my.atlist.com/map/8bed33fa-9b8c-4c51-bb33-74cd0d98628a?share=true
Illicit Gardens Dispensary Secaucus,30 Wood Ave,Secaucus,NJ,7094,https://illicitgardens.com/stores/illicit-gardens-cannabis-dispensary-secaucus-nj,(732) 714-4037,https://my.atlist.com/map/8bed33fa-9b8c-4c51-bb33-74cd0d98628a?share=true
Monmouth Wellness & Healing (Formerly NJ Leaf),546 Park Ave,Freehold,NJ,7728,https://njleaf.com/location/freehold-nj,(201) 574-8060,https://my.atlist.com/map/8bed33fa-9b8c-4c51-bb33-74cd0d98628a?share=true
Monteverde NJ,45 Bridge Ave,Red Bank,NJ,7701,https://monteverdenj.com/,(732) 704-4575,https://my.atlist.com/map/8bed33fa-9b8c-4c51-bb33-74cd0d98628a?share=true
MPX NJ,153 S New York Ave,Atlantic City,NJ,8401,https://mpxnj.com/cannabis-dispensary-atlantic-city,(609) 616-7770,https://my.atlist.com/map/8bed33fa-9b8c-4c51-bb33-74cd0d98628a?share=true
MPX NJ,5035 Central Hwy,Pennsauken Township,NJ,8109,https://mpxnj.com/cannabis-dispensary-pennsauken-township,(848) 820-5060,https://my.atlist.com/map/8bed33fa-9b8c-4c51-bb33-74cd0d98628a?share=true
MPX NJ,581 Berlin - Cross Keys Rd,Sicklerville,NJ,8081,https://mpxnj.com/cannabis-dispensary-gloucester-township,(609) 616-7770,https://my.atlist.com/map/8bed33fa-9b8c-4c51-bb33-74cd0d98628a?share=true
NJ Leaf North Brunswick (Formerly Garden State Botanicals),1345 US-1,North Brunswick Township,NJ,8902,https://njleaf.com/location/north-brunswick-township-nj,(201) 574-8060,https://my.atlist.com/map/8bed33fa-9b8c-4c51-bb33-74cd0d98628a?share=true
Restore NJ,300 William Dalton Dr,Glassboro,NJ,8028,https://restoredispensaries.com/locations/glassboro,(856) 652-8001,https://my.atlist.com/map/8bed33fa-9b8c-4c51-bb33-74cd0d98628a?share=true
RIPT,220 Broadway,Jersey City,NJ,7306,https://www.riptdispensary.com/,(201) 267-0701,https://my.atlist.com/map/8bed33fa-9b8c-4c51-bb33-74cd0d98628a?share=true
RISE,145 Rte 4,Paramus,NJ,7652,https://risecannabis.com/dispensaries/new-jersey/paramus,,https://my.atlist.com/map/8bed33fa-9b8c-4c51-bb33-74cd0d98628a?share=true
RISE,196 3rd Ave 3 c,Paterson,NJ,7514,https://risecannabis.com/dispensaries/new-jersey/paterson,,https://my.atlist.com/map/8bed33fa-9b8c-4c51-bb33-74cd0d98628a?share=true
RISE,26-48 Bloomfield Ave,Bloomfield,NJ,7003,https://risecannabis.com/dispensaries/new-jersey/bloomfield,,https://my.atlist.com/map/8bed33fa-9b8c-4c51-bb33-74cd0d98628a?share=true
Roots Dispensary,4402 US-130,Willingboro,NJ,8046,https://nationwidedispensaries.com/new-jersey/willingboro-roots-cannabis-4402-us-130-cannabis-dispensary,(609) 232-2722,https://my.atlist.com/map/8bed33fa-9b8c-4c51-bb33-74cd0d98628a?share=true
Sanctuary Cannabis,2581 US-22,Scotch Plains,NJ,7076,https://www.sanctuarymed.com/near-me/new-jersey-cannabis-dispensary/scotch-plains-nj-cannabis-dispensary,(201) 326-0174,https://my.atlist.com/map/8bed33fa-9b8c-4c51-bb33-74cd0d98628a?share=true
SilverLeaf Wellness,1743 NJ-27,Somerset,NJ,8873,https://silverleafnj.com/,(732) 655-9842,https://my.atlist.com/map/8bed33fa-9b8c-4c51-bb33-74cd0d98628a?share=true
Sweet Spot,903 White Horse Rd,Voorhees Township,NJ,8043,https://sweetspotfarms.com/,(802) 871-5895,https://my.atlist.com/map/8bed33fa-9b8c-4c51-bb33-74cd0d98628a?share=true
The Botanist,2090 N Black Horse Pike,Williamstown,NJ,8094,https://shopbotanist.com/locations/williamstown-dispensary,(856) 478-3530,https://my.atlist.com/map/8bed33fa-9b8c-4c51-bb33-74cd0d98628a?share=true
The Botanist,35 W Crescent Blvd,Collingswood,NJ,8108,https://shopbotanist.com/locations/collingswood-dispensary,(856) 477-0012,https://my.atlist.com/map/8bed33fa-9b8c-4c51-bb33-74cd0d98628a?share=true
The Botanist,100 Century Dr,Egg Harbor Township,NJ,8234,https://shopbotanist.com/locations/egg-harbor-township-dispensary,(609) 277-7547,https://my.atlist.com/map/8bed33fa-9b8c-4c51-bb33-74cd0d98628a?share=true
The Cannabist,4476 Black Horse Pike Suite 2,Mays Landing,NJ,8330,https://www.gocannabist.com/stores/new-jersey/mays-landing,,https://my.atlist.com/map/8bed33fa-9b8c-4c51-bb33-74cd0d98628a?share=true
The Cannabist,1062 N Delsea Dr,Vineland,NJ,8360,https://www.gocannabist.com/stores/new-jersey/vineland,,https://my.atlist.com/map/8bed33fa-9b8c-4c51-bb33-74cd0d98628a?share=true
The Cannabist,1692 Clements Bridge Rd,Deptford,NJ,8096,https://www.gocannabist.com/stores/new-jersey/deptford,,https://my.atlist.com/map/8bed33fa-9b8c-4c51-bb33-74cd0d98628a?share=true
The Station,86 River St,Hoboken,NJ,7030,https://www.thestationhoboken.com/,(201) 876-2950,https://my.atlist.com/map/8bed33fa-9b8c-4c51-bb33-74cd0d98628a?share=true
Theo A. Cannabis,3059 NJ-27 unit 104,Franklin Park,NJ,8823,https://njtheo.com/,(732) 835-4345,https://my.atlist.com/map/8bed33fa-9b8c-4c51-bb33-74cd0d98628a?share=true
Theory Wellness,461 New York Ave,Trenton,NJ,8638,https://theorywellness.org/new-jersey-dispensary/trenton-medical-cannabis-dispensary,,https://my.atlist.com/map/8bed33fa-9b8c-4c51-bb33-74cd0d98628a?share=true
Toke Lane Cannabis Dispensary,226 S Broad St,Trenton,NJ,8608,https://thecannabiscloset.com/2025/04/07/coming-soon-your-premium-cannabis-experience-at-toke-lane-dispensary,,https://my.atlist.com/map/8bed33fa-9b8c-4c51-bb33-74cd0d98628a?share=true
URB’N Dispensary,378 South St,Newark,NJ,7105,https://urbndispensary.com/home,(973) 200-0618,https://my.atlist.com/map/8bed33fa-9b8c-4c51-bb33-74cd0d98628a?share=true
Valley Wellness,407 US-202,Raritan,NJ,8869,https://shop.valleywellnessnj.com/raritan,(908) 429-6680,https://my.atlist.com/map/8bed33fa-9b8c-4c51-bb33-74cd0d98628a?share=true
Zen Leaf,NJ-66,Neptune Township,NJ,,https://zenleafdispensaries.com/locations/neptune,(732) 466-1203,https://my.atlist.com/map/8bed33fa-9b8c-4c51-bb33-74cd0d98628a?share=true
Zen Leaf,117 Spring St,Elizabeth,NJ,7201,https://zenleafdispensaries.com/locations/elizabeth,(908) 409-9810,https://my.atlist.com/map/8bed33fa-9b8c-4c51-bb33-74cd0d98628a?share=true
Zen Leaf,3256 Brunswick Pike,Lawrence Township,NJ,8648,https://zenleafdispensaries.com/locations/lawrence,(609) 557-9825,https://my.atlist.com/map/8bed33fa-9b8c-4c51-bb33-74cd0d98628a?share=true
