name,street,city,state,zip,type,website,phone,source
1634 Funk,394 Communipaw Ave,Jersey City,NJ,7304.0,R,https://www.google.com/maps/dir/?api=1&destination=394%20Communipaw%20Ave%2C%20Jersey%20City%2C%20NJ%2007304%2C%20USA,,https://my.atlist.com/map/8bed33fa-9b8c-4c51-bb33-74cd0d98628a?share=true
4Twenty Somewhere,1938 Union Valley Rd,Hewitt,NJ,7421.0,R,https://www.google.com/maps/dir/?api=1&destination=1938%20Union%20Valley%20Rd%2C%20Hewitt%2C%20NJ%2007421%2C%20USA,,https://my.atlist.com/map/8bed33fa-9b8c-4c51-bb33-74cd0d98628a?share=true
A-Z Supply,1283 Broad St,Bloomfield,NJ,7003.0,R,https://www.google.com/maps/dir/?api=1&destination=1283%20Broad%20St%2C%20Bloomfield%2C%20NJ%2007003%2C%20USA,,https://my.atlist.com/map/8bed33fa-9b8c-4c51-bb33-74cd0d98628a?share=true
A21 Wellness,2507 US-22,Scotch Plains,NJ,7076.0,R,https://www.google.com/maps/dir/?api=1&destination=2507%20US-22%2C%20Scotch%20Plains%2C%20NJ%2007076%2C%20USA,,https://my.atlist.com/map/8bed33fa-9b8c-4c51-bb33-74cd0d98628a?share=true
AC Leef,470 N Albany Ave,Atlantic City,NJ,8401.0,R,https://www.google.com/maps/dir/?api=1&destination=470%20N%20Albany%20Ave%2C%20Atlantic%20City%2C%20NJ%2008401%2C%20USA,,https://my.atlist.com/map/8bed33fa-9b8c-4c51-bb33-74cd0d98628a?share=true
Altitude Cannabis,225 Atlantic City Blvd,Toms River,NJ,8757.0,R,https://www.google.com/maps/dir/?api=1&destination=225%20Atlantic%20City%20Blvd%2C%20Toms%20River%2C%20NJ%2008757%2C%20USA,,https://my.atlist.com/map/8bed33fa-9b8c-4c51-bb33-74cd0d98628a?share=true
Altius NJ,60 Delsea Dr N,Glassboro,NJ,8028.0,R,https://www.google.com/maps/dir/?api=1&destination=60%20Delsea%20Dr%20N%2C%20Glassboro%2C%20NJ%2008028%2C%20USA,,https://my.atlist.com/map/8bed33fa-9b8c-4c51-bb33-74cd0d98628a?share=true
Andover Cannabis,144-146 Main St,Andover,NJ,7821.0,R,https://www.google.com/maps/dir/?api=1&destination=144-146%20Main%20St%2C%20Andover%2C%20NJ%2007821%2C%20USA,,https://my.atlist.com/map/8bed33fa-9b8c-4c51-bb33-74cd0d98628a?share=true
Anja,225 Woodbridge Ave,Highland Park,NJ,8904.0,R,https://www.google.com/maps/dir/?api=1&destination=225%20Woodbridge%20Ave%2C%20Highland%20Park%2C%20NJ%2008904%2C%20USA,,https://my.atlist.com/map/8bed33fa-9b8c-4c51-bb33-74cd0d98628a?share=true
Aurum Botanics,6 Fort Dix Rd,Pemberton,NJ,8068.0,R,https://www.google.com/maps/dir/?api=1&destination=6%20Fort%20Dix%20Rd%2C%20Pemberton%2C%20NJ%2008068%2C%20USA,,https://my.atlist.com/map/8bed33fa-9b8c-4c51-bb33-74cd0d98628a?share=true
Baked by the River,8 Church St,Lambertville,NJ,8530.0,R,https://www.google.com/maps/dir/?api=1&destination=8%20Church%20St%2C%20Lambertville%2C%20NJ%2008530%2C%20USA,,https://my.atlist.com/map/8bed33fa-9b8c-4c51-bb33-74cd0d98628a?share=true
Bakin’ Bad,2834 Atlantic Ave,Atlantic City,NJ,8401.0,R,https://www.google.com/maps/dir/?api=1&destination=2834%20Atlantic%20Ave%2C%20Atlantic%20City%2C%20NJ%2008401%2C%20USA,,https://my.atlist.com/map/8bed33fa-9b8c-4c51-bb33-74cd0d98628a?share=true
Bay Street Greenery,150 Bay St,Jersey City,NJ,7302.0,R,https://www.google.com/maps/dir/?api=1&destination=150%20Bay%20St%2C%20Jersey%20City%2C%20NJ%2007302%2C%20USA,,https://my.atlist.com/map/8bed33fa-9b8c-4c51-bb33-74cd0d98628a?share=true
Benedict's Supply,3523 John F. Kennedy Blvd,Jersey City,NJ,7307.0,R,https://www.google.com/maps/dir/?api=1&destination=3523%20John%20F.%20Kennedy%20Blvd%2C%20Jersey%20City%2C%20NJ%2007307%2C%20USA,,https://my.atlist.com/map/8bed33fa-9b8c-4c51-bb33-74cd0d98628a?share=true
BestBuds,135 S Broad St,Woodbury,NJ,8096.0,R,https://www.google.com/maps/dir/?api=1&destination=135%20S%20Broad%20St%2C%20Woodbury%2C%20NJ%2008096%2C%20USA,,https://my.atlist.com/map/8bed33fa-9b8c-4c51-bb33-74cd0d98628a?share=true
"Beyond Bleaf, LLC",753 Macopin Rd,West Milford,NJ,7480.0,R,https://www.google.com/maps/dir/?api=1&destination=753%20Macopin%20Rd%2C%20West%20Milford%2C%20NJ%2007480%2C%20USA,,https://my.atlist.com/map/8bed33fa-9b8c-4c51-bb33-74cd0d98628a?share=true
BLKBRN Cannabis Dispensary,176 Woodbridge Ave,Highland Park,NJ,8904.0,R,https://www.google.com/maps/dir/?api=1&destination=176%20Woodbridge%20Ave%2C%20Highland%20Park%2C%20NJ%2008904%2C%20USA,,https://my.atlist.com/map/8bed33fa-9b8c-4c51-bb33-74cd0d98628a?share=true
Blue Oak,1025 Broad St suite 2,Bloomfield,NJ,7003.0,R,https://www.google.com/maps/dir/?api=1&destination=1025%20Broad%20St%20suite%202%2C%20Bloomfield%2C%20NJ%2007003%2C%20USA,,https://my.atlist.com/map/8bed33fa-9b8c-4c51-bb33-74cd0d98628a?share=true
Blue Violets,628 Washington St,Hoboken,NJ,7030.0,R,https://www.google.com/maps/dir/?api=1&destination=628%20Washington%20St%2C%20Hoboken%2C%20NJ%2007030%2C%20USA,,https://my.atlist.com/map/8bed33fa-9b8c-4c51-bb33-74cd0d98628a?share=true
BluLight Cannabis,890 Mantua Pike,Woodbury Heights,NJ,8097.0,R,https://www.google.com/maps/dir/?api=1&destination=890%20Mantua%20Pike%2C%20Woodbury%20Heights%2C%20NJ%2008097%2C%20USA,,https://my.atlist.com/map/8bed33fa-9b8c-4c51-bb33-74cd0d98628a?share=true
Boone Town Provisions,677 Myrtle Ave,Boonton,NJ,7005.0,R,https://www.google.com/maps/dir/?api=1&destination=677%20Myrtle%20Ave%2C%20Boonton%2C%20NJ%2007005%2C%20USA,,https://my.atlist.com/map/8bed33fa-9b8c-4c51-bb33-74cd0d98628a?share=true
Botera Harrison,701 Frank E Rodgers Blvd N,Harrison,NJ,7029.0,R,https://www.google.com/maps/dir/?api=1&destination=701%20Frank%20E%20Rodgers%20Blvd%20N%2C%20Harrison%2C%20NJ%2007029%2C%20USA,,https://my.atlist.com/map/8bed33fa-9b8c-4c51-bb33-74cd0d98628a?share=true
Botera Union,2290 US-22,Union,NJ,7083.0,R,https://www.google.com/maps/dir/?api=1&destination=2290%20US-22%2C%20Union%2C%20NJ%2007083%2C%20USA,,https://my.atlist.com/map/8bed33fa-9b8c-4c51-bb33-74cd0d98628a?share=true
Bridge City Collective Dispensary,665 Hamilton St,Somerset,NJ,8873.0,R,https://www.google.com/maps/dir/?api=1&destination=665%20Hamilton%20St%2C%20Somerset%2C%20NJ%2008873%2C%20USA,,https://my.atlist.com/map/8bed33fa-9b8c-4c51-bb33-74cd0d98628a?share=true
Brotherly Bud Dispensary,500 N Black Horse Pike,Mt Ephraim,NJ,8059.0,R,https://www.google.com/maps/dir/?api=1&destination=500%20N%20Black%20Horse%20Pike%2C%20Mt%20Ephraim%2C%20NJ%2008059%2C%20USA,,https://my.atlist.com/map/8bed33fa-9b8c-4c51-bb33-74cd0d98628a?share=true
Bud 2 Bloom,123 Ledgewood Ave #1a,Netcong,NJ,7857.0,R,https://www.google.com/maps/dir/?api=1&destination=123%20Ledgewood%20Ave%20%231a%2C%20Netcong%2C%20NJ%2007857%2C%20USA,,https://my.atlist.com/map/8bed33fa-9b8c-4c51-bb33-74cd0d98628a?share=true
Bud City NJ,117 Water St,Newton,NJ,7860.0,R,https://www.google.com/maps/dir/?api=1&destination=117%20Water%20St%2C%20Newton%2C%20NJ%2007860%2C%20USA,,https://my.atlist.com/map/8bed33fa-9b8c-4c51-bb33-74cd0d98628a?share=true
Budzooka Weed Dispensary,142 Broad St,Elizabeth,NJ,7201.0,R,https://www.google.com/maps/dir/?api=1&destination=142%20Broad%20St%2C%20Elizabeth%2C%20NJ%2007201%2C%20USA,,https://my.atlist.com/map/8bed33fa-9b8c-4c51-bb33-74cd0d98628a?share=true
Camden Apothecary,1205 Haddon Ave,Camden,NJ,8103.0,R,https://www.google.com/maps/dir/?api=1&destination=1205%20Haddon%20Ave%2C%20Camden%2C%20NJ%2008103%2C%20USA,,https://my.atlist.com/map/8bed33fa-9b8c-4c51-bb33-74cd0d98628a?share=true
Canabhang,24 Marshall Hill Rd,West Milford,NJ,7480.0,R,https://www.google.com/maps/dir/?api=1&destination=24%20Marshall%20Hill%20Rd%2C%20West%20Milford%2C%20NJ%2007480%2C%20USA,,https://my.atlist.com/map/8bed33fa-9b8c-4c51-bb33-74cd0d98628a?share=true
Canna Bar,58 Main St,Matawan,NJ,7747.0,R,https://www.google.com/maps/dir/?api=1&destination=58%20Main%20St%2C%20Matawan%2C%20NJ%2007747%2C%20USA,,https://my.atlist.com/map/8bed33fa-9b8c-4c51-bb33-74cd0d98628a?share=true
Canna Remedies,2175 Spruce St,Trenton,NJ,8638.0,R,https://www.google.com/maps/dir/?api=1&destination=2175%20Spruce%20St%2C%20Trenton%2C%20NJ%2008638%2C%20USA,,https://my.atlist.com/map/8bed33fa-9b8c-4c51-bb33-74cd0d98628a?share=true
Cannabis Clubhouse,70-72 E Main St,Sussex,NJ,7461.0,R,https://www.google.com/maps/dir/?api=1&destination=70-72%20E%20Main%20St%2C%20Sussex%2C%20NJ%2007461%2C%20USA,,https://my.atlist.com/map/8bed33fa-9b8c-4c51-bb33-74cd0d98628a?share=true
CannaBoy Treehouse,57 W South Orange Ave,South Orange Village,NJ,7079.0,R,https://www.google.com/maps/dir/?api=1&destination=57%20W%20South%20Orange%20Ave%2C%20South%20Orange%20Village%2C%20NJ%2007079%2C%20USA,,https://my.atlist.com/map/8bed33fa-9b8c-4c51-bb33-74cd0d98628a?share=true
Cannavibes,1 US-46,Elmwood Park,NJ,7407.0,R,https://www.google.com/maps/dir/?api=1&destination=1%20US-46%2C%20Elmwood%20Park%2C%20NJ%2007407%2C%20USA,,https://my.atlist.com/map/8bed33fa-9b8c-4c51-bb33-74cd0d98628a?share=true
Canopy Crossroad,9 West St,Red Bank,NJ,7701.0,R,https://www.google.com/maps/dir/?api=1&destination=9%20West%20St%2C%20Red%20Bank%2C%20NJ%2007701%2C%20USA,,https://my.atlist.com/map/8bed33fa-9b8c-4c51-bb33-74cd0d98628a?share=true
Carry-On Cannabis,2379 S Black Horse Pike,Williamstown,NJ,8094.0,R,https://www.google.com/maps/dir/?api=1&destination=2379%20S%20Black%20Horse%20Pike%2C%20Williamstown%2C%20NJ%2008094%2C%20USA,,https://my.atlist.com/map/8bed33fa-9b8c-4c51-bb33-74cd0d98628a?share=true
Casa Verde Wellness,315 US-46,Dover,NJ,7801.0,R,https://www.google.com/maps/dir/?api=1&destination=315%20US-46%2C%20Dover%2C%20NJ%2007801%2C%20USA,,https://my.atlist.com/map/8bed33fa-9b8c-4c51-bb33-74cd0d98628a?share=true
Castaway Cannabis,6006 US-130,Delran,NJ,8075.0,R,https://www.google.com/maps/dir/?api=1&destination=6006%20US-130%2C%20Delran%2C%20NJ%2008075%2C%20USA,,https://my.atlist.com/map/8bed33fa-9b8c-4c51-bb33-74cd0d98628a?share=true
Central Jersey Dispensary,2 John F Kennedy Blvd,Somerset,NJ,8873.0,R,https://www.google.com/maps/dir/?api=1&destination=2%20John%20F%20Kennedy%20Blvd%2C%20Somerset%2C%20NJ%2008873%2C%20USA,,https://my.atlist.com/map/8bed33fa-9b8c-4c51-bb33-74cd0d98628a?share=true
Citi Roots,4585 NJ-27,Kingston,NJ,8528.0,R,https://www.google.com/maps/dir/?api=1&destination=4585%20NJ-27%2C%20Kingston%2C%20NJ%2008528%2C%20USA,,https://my.atlist.com/map/8bed33fa-9b8c-4c51-bb33-74cd0d98628a?share=true
City Leaves,2516 Fire Rd,Egg Harbor Township,NJ,8234.0,R,https://www.google.com/maps/dir/?api=1&destination=2516%20Fire%20Rd%2C%20Egg%20Harbor%20Township%2C%20NJ%2008234%2C%20USA,,https://my.atlist.com/map/8bed33fa-9b8c-4c51-bb33-74cd0d98628a?share=true
CityLeaf Dispensary,519 Broadway,Newark,NJ,7104.0,R,https://www.google.com/maps/dir/?api=1&destination=519%20Broadway%2C%20Newark%2C%20NJ%2007104%2C%20USA,,https://my.atlist.com/map/8bed33fa-9b8c-4c51-bb33-74cd0d98628a?share=true
Cloud Nine Dispensary,513-27 US-22,North Plainfield,NJ,7060.0,R,https://www.google.com/maps/dir/?api=1&destination=513-27%20US-22%2C%20North%20Plainfield%2C%20NJ%2007060%2C%20USA,,https://my.atlist.com/map/8bed33fa-9b8c-4c51-bb33-74cd0d98628a?share=true
Conservatory Cannabis Company,2516 Fire Rd,Egg Harbor Township,NJ,8234.0,R,https://www.google.com/maps/dir/?api=1&destination=2516%20Fire%20Rd%2C%20Egg%20Harbor%20Township%2C%20NJ%2008234%2C%20USA,,https://my.atlist.com/map/8bed33fa-9b8c-4c51-bb33-74cd0d98628a?share=true
Cookies Harrison,335 Angelo Cifelli Dr,Harrison,NJ,7029.0,R,https://www.google.com/maps/dir/?api=1&destination=335%20Angelo%20Cifelli%20Dr%2C%20Harrison%2C%20NJ%2007029%2C%20USA,,https://my.atlist.com/map/8bed33fa-9b8c-4c51-bb33-74cd0d98628a?share=true
Cottonmouth Dispensary,10 E Clements Bridge Rd,Runnemede,NJ,8078.0,R,https://www.google.com/maps/dir/?api=1&destination=10%20E%20Clements%20Bridge%20Rd%2C%20Runnemede%2C%20NJ%2008078%2C%20USA,,https://my.atlist.com/map/8bed33fa-9b8c-4c51-bb33-74cd0d98628a?share=true
CREAM Cannabis Dispensary,284 1st St,Jersey City,NJ,7302.0,R,https://www.google.com/maps/dir/?api=1&destination=284%201st%20St%2C%20Jersey%20City%2C%20NJ%2007302%2C%20USA,,https://my.atlist.com/map/8bed33fa-9b8c-4c51-bb33-74cd0d98628a?share=true
Cuzzie's,2750 Mt Ephraim Ave,Camden,NJ,8104.0,R,https://www.google.com/maps/dir/?api=1&destination=2750%20Mt%20Ephraim%20Ave%2C%20Camden%2C%20NJ%2008104%2C%20USA,,https://my.atlist.com/map/8bed33fa-9b8c-4c51-bb33-74cd0d98628a?share=true
Dank Poet Dispensary,245 E Washington Ave,Washington,NJ,7882.0,R,https://www.google.com/maps/dir/?api=1&destination=245%20E%20Washington%20Ave%2C%20Washington%2C%20NJ%2007882%2C%20USA,,https://my.atlist.com/map/8bed33fa-9b8c-4c51-bb33-74cd0d98628a?share=true
Daylite Cannabis,1136 NJ-73,Mt Laurel Township,NJ,8054.0,R,https://www.google.com/maps/dir/?api=1&destination=1136%20NJ-73%2C%20Mt%20Laurel%20Township%2C%20NJ%2008054%2C%20USA,,https://my.atlist.com/map/8bed33fa-9b8c-4c51-bb33-74cd0d98628a?share=true
Dispensary of Somerset,920 Hamilton St,Somerset,NJ,8873.0,R,https://www.google.com/maps/dir/?api=1&destination=920%20Hamilton%20St%2C%20Somerset%2C%20NJ%2008873%2C%20USA,,https://my.atlist.com/map/8bed33fa-9b8c-4c51-bb33-74cd0d98628a?share=true
Dispensary of Union,1603 US-22,Union,NJ,7083.0,R,https://www.google.com/maps/dir/?api=1&destination=1603%20US-22%2C%20Union%2C%20NJ%2007083%2C%20USA,,https://my.atlist.com/map/8bed33fa-9b8c-4c51-bb33-74cd0d98628a?share=true
Dogwood Green,5 Central Ave,West Orange,NJ,7052.0,R,https://www.google.com/maps/dir/?api=1&destination=5%20Central%20Ave%2C%20West%20Orange%2C%20NJ%2007052%2C%20USA,,https://my.atlist.com/map/8bed33fa-9b8c-4c51-bb33-74cd0d98628a?share=true
Doobiez,1612 Union Valley Rd,West Milford,NJ,7480.0,R,https://www.google.com/maps/dir/?api=1&destination=1612%20Union%20Valley%20Rd%2C%20West%20Milford%2C%20NJ%2007480%2C%20USA,,https://my.atlist.com/map/8bed33fa-9b8c-4c51-bb33-74cd0d98628a?share=true
Earth & Ivy,355 George St,New Brunswick,NJ,8901.0,R,https://www.google.com/maps/dir/?api=1&destination=355%20George%20St%2C%20New%20Brunswick%2C%20NJ%2008901%2C%20USA,,https://my.atlist.com/map/8bed33fa-9b8c-4c51-bb33-74cd0d98628a?share=true
Earth & Ivy Lakehurst,29 Union Ave,Lakehurst,NJ,8733.0,R,https://www.google.com/maps/dir/?api=1&destination=29%20Union%20Ave%2C%20Lakehurst%2C%20NJ%2008733%2C%20USA,,https://my.atlist.com/map/8bed33fa-9b8c-4c51-bb33-74cd0d98628a?share=true
Elevated by TheCannaBossLady,9 Highland Pl,Maplewood,NJ,7040.0,R,https://www.google.com/maps/dir/?api=1&destination=9%20Highland%20Pl%2C%20Maplewood%2C%20NJ%2007040%2C%20USA,,https://my.atlist.com/map/8bed33fa-9b8c-4c51-bb33-74cd0d98628a?share=true
Elevated Herb,1846 NJ-23,West Milford,NJ,7480.0,R,https://www.google.com/maps/dir/?api=1&destination=1846%20NJ-23%2C%20West%20Milford%2C%20NJ%2007480%2C%20USA,,https://my.atlist.com/map/8bed33fa-9b8c-4c51-bb33-74cd0d98628a?share=true
Emerald Tea Supply,368b Broad St,Bloomfield,NJ,7003.0,R,https://www.google.com/maps/dir/?api=1&destination=368b%20Broad%20St%2C%20Bloomfield%2C%20NJ%2007003%2C%20USA,,https://my.atlist.com/map/8bed33fa-9b8c-4c51-bb33-74cd0d98628a?share=true
Enlighten Dispensary,781 Rte 70 W,Marlton,NJ,8053.0,R,https://www.google.com/maps/dir/?api=1&destination=781%20Rte%2070%20W%2C%20Marlton%2C%20NJ%2008053%2C%20USA,,https://my.atlist.com/map/8bed33fa-9b8c-4c51-bb33-74cd0d98628a?share=true
Everest Dispensary,1226 Atlantic Ave,Atlantic City,NJ,8401.0,R,https://www.google.com/maps/dir/?api=1&destination=1226%20Atlantic%20Ave%2C%20Atlantic%20City%2C%20NJ%2008401%2C%20USA,,https://my.atlist.com/map/8bed33fa-9b8c-4c51-bb33-74cd0d98628a?share=true
Evergreen Nature's Remedy,1242 NJ-23,Butler,NJ,7405.0,R,https://www.google.com/maps/dir/?api=1&destination=1242%20NJ-23%2C%20Butler%2C%20NJ%2007405%2C%20USA,,https://my.atlist.com/map/8bed33fa-9b8c-4c51-bb33-74cd0d98628a?share=true
Evolve Cannabis,186 US-130,Bordentown,NJ,8505.0,R,https://www.google.com/maps/dir/?api=1&destination=186%20US-130%2C%20Bordentown%2C%20NJ%2008505%2C%20USA,,https://my.atlist.com/map/8bed33fa-9b8c-4c51-bb33-74cd0d98628a?share=true
Feels of Green,474 US-206,Newton,NJ,7860.0,R,https://www.google.com/maps/dir/?api=1&destination=474%20US-206%2C%20Newton%2C%20NJ%2007860%2C%20USA,,https://my.atlist.com/map/8bed33fa-9b8c-4c51-bb33-74cd0d98628a?share=true
Fire and Oak,5 Washington St,Mt Holly,NJ,8060.0,R,https://www.google.com/maps/dir/?api=1&destination=5%20Washington%20St%2C%20Mt%20Holly%2C%20NJ%2008060%2C%20USA,,https://my.atlist.com/map/8bed33fa-9b8c-4c51-bb33-74cd0d98628a?share=true
Flower & Flame Dispensary,601 College Dr,Blackwood,NJ,8012.0,R,https://www.google.com/maps/dir/?api=1&destination=601%20College%20Dr%2C%20Blackwood%2C%20NJ%2008012%2C%20USA,,https://my.atlist.com/map/8bed33fa-9b8c-4c51-bb33-74cd0d98628a?share=true
Flowerbomb Dispensary,1108 Clinton Ave,Irvington,NJ,7111.0,R,https://www.google.com/maps/dir/?api=1&destination=1108%20Clinton%20Ave%2C%20Irvington%2C%20NJ%2007111%2C%20USA,,https://my.atlist.com/map/8bed33fa-9b8c-4c51-bb33-74cd0d98628a?share=true
Fresh Dispensary Eatontown,315 NJ-35,Eatontown,NJ,7724.0,R,https://www.google.com/maps/dir/?api=1&destination=315%20NJ-35%2C%20Eatontown%2C%20NJ%2007724%2C%20USA,,https://my.atlist.com/map/8bed33fa-9b8c-4c51-bb33-74cd0d98628a?share=true
Fresh Elizabeth,460 Maple Ave,Elizabeth,NJ,7202.0,R,https://www.google.com/maps/dir/?api=1&destination=460%20Maple%20Ave%2C%20Elizabeth%2C%20NJ%2007202%2C%20USA,,https://my.atlist.com/map/8bed33fa-9b8c-4c51-bb33-74cd0d98628a?share=true
G2 Dispensary,350 US-46,Rockaway,NJ,7866.0,R,https://www.google.com/maps/dir/?api=1&destination=350%20US-46%2C%20Rockaway%2C%20NJ%2007866%2C%20USA,,https://my.atlist.com/map/8bed33fa-9b8c-4c51-bb33-74cd0d98628a?share=true
Garden Greenz,190 Newark Ave,Jersey City,NJ,7302.0,R,https://www.google.com/maps/dir/?api=1&destination=190%20Newark%20Ave%2C%20Jersey%20City%2C%20NJ%2007302%2C%20USA,,https://my.atlist.com/map/8bed33fa-9b8c-4c51-bb33-74cd0d98628a?share=true
Garden State Natural Green,4597 NJ-27,Kingston,NJ,8528.0,R,https://www.google.com/maps/dir/?api=1&destination=4597%20NJ-27%2C%20Kingston%2C%20NJ%2008528%2C%20USA,,https://my.atlist.com/map/8bed33fa-9b8c-4c51-bb33-74cd0d98628a?share=true
Ginger Hale,814 White Horse Pike,Oaklyn,NJ,8107.0,R,https://www.google.com/maps/dir/?api=1&destination=814%20White%20Horse%20Pike%2C%20Oaklyn%2C%20NJ%2008107%2C%20USA,,https://my.atlist.com/map/8bed33fa-9b8c-4c51-bb33-74cd0d98628a?share=true
Golden Door Dispensary,638 Newark Ave,Jersey City,NJ,7306.0,R,https://www.google.com/maps/dir/?api=1&destination=638%20Newark%20Ave%2C%20Jersey%20City%2C%20NJ%2007306%2C%20USA,,https://my.atlist.com/map/8bed33fa-9b8c-4c51-bb33-74cd0d98628a?share=true
Got Your Six Dispensary of New Jersey,4437 NJ-27,Princeton,NJ,8540.0,R,https://www.google.com/maps/dir/?api=1&destination=4437%20NJ-27%2C%20Princeton%2C%20NJ%2008540%2C%20USA,,https://my.atlist.com/map/8bed33fa-9b8c-4c51-bb33-74cd0d98628a?share=true
Green Haven Industries,402 Elizabeth Ave,Elizabeth,NJ,7206.0,R,https://www.google.com/maps/dir/?api=1&destination=402%20Elizabeth%20Ave%2C%20Elizabeth%2C%20NJ%2007206%2C%20USA,,https://my.atlist.com/map/8bed33fa-9b8c-4c51-bb33-74cd0d98628a?share=true
Green Knight Cannabis,831 Hamilton St,Somerset,NJ,8873.0,R,https://www.google.com/maps/dir/?api=1&destination=831%20Hamilton%20St%2C%20Somerset%2C%20NJ%2008873%2C%20USA,,https://my.atlist.com/map/8bed33fa-9b8c-4c51-bb33-74cd0d98628a?share=true
Green Lightning Cannabis,1503 Taylors Ln,Cinnaminson,NJ,8077.0,R,https://www.google.com/maps/dir/?api=1&destination=1503%20Taylors%20Ln%2C%20Cinnaminson%2C%20NJ%2008077%2C%20USA,,https://my.atlist.com/map/8bed33fa-9b8c-4c51-bb33-74cd0d98628a?share=true
Green Oasis Dispensary,632 White Horse Pike,Atco,NJ,8004.0,R,https://www.google.com/maps/dir/?api=1&destination=632%20White%20Horse%20Pike%2C%20Atco%2C%20NJ%2008004%2C%20USA,,https://my.atlist.com/map/8bed33fa-9b8c-4c51-bb33-74cd0d98628a?share=true
Green Wellness Haven,1110 N New Rd,Pleasantville,NJ,8232.0,R,https://www.google.com/maps/dir/?api=1&destination=1110%20N%20New%20Rd%2C%20Pleasantville%2C%20NJ%2008232%2C%20USA,,https://my.atlist.com/map/8bed33fa-9b8c-4c51-bb33-74cd0d98628a?share=true
Greenstop Dispensary,516 Tonnelle Ave,Jersey City,NJ,7307.0,R,https://www.google.com/maps/dir/?api=1&destination=516%20Tonnelle%20Ave%2C%20Jersey%20City%2C%20NJ%2007307%2C%20USA,,https://my.atlist.com/map/8bed33fa-9b8c-4c51-bb33-74cd0d98628a?share=true
Gynsyng,14 S Center St,Merchantville,NJ,8109.0,R,https://www.google.com/maps/dir/?api=1&destination=14%20S%20Center%20St%2C%20Merchantville%2C%20NJ%2008109%2C%20USA,,https://my.atlist.com/map/8bed33fa-9b8c-4c51-bb33-74cd0d98628a?share=true
Hackettstown Dispensary,321 Mountain Ave,Hackettstown,NJ,7840.0,R,https://www.google.com/maps/dir/?api=1&destination=321%20Mountain%20Ave%2C%20Hackettstown%2C%20NJ%2007840%2C%20USA,,https://my.atlist.com/map/8bed33fa-9b8c-4c51-bb33-74cd0d98628a?share=true
Hamm & Chaz Cannabis Dispensary,747 West Side Ave,Jersey City,NJ,7306.0,R,https://www.google.com/maps/dir/?api=1&destination=747%20West%20Side%20Ave%2C%20Jersey%20City%2C%20NJ%2007306%2C%20USA,,https://my.atlist.com/map/8bed33fa-9b8c-4c51-bb33-74cd0d98628a?share=true
Happy Leaf,200 N White Horse Pike,Somerdale,NJ,8083.0,R,https://www.google.com/maps/dir/?api=1&destination=200%20N%20White%20Horse%20Pike%2C%20Somerdale%2C%20NJ%2008083%2C%20USA,,https://my.atlist.com/map/8bed33fa-9b8c-4c51-bb33-74cd0d98628a?share=true
Hashery,409 NJ-17,Hackensack,NJ,7601.0,R,https://www.google.com/maps/dir/?api=1&destination=409%20NJ-17%2C%20Hackensack%2C%20NJ%2007601%2C%20USA,,https://my.atlist.com/map/8bed33fa-9b8c-4c51-bb33-74cd0d98628a?share=true
Hashstoria NJ,799 Broad St,Newark,NJ,7102.0,R,https://www.google.com/maps/dir/?api=1&destination=799%20Broad%20St%2C%20Newark%2C%20NJ%2007102%2C%20USA,,https://my.atlist.com/map/8bed33fa-9b8c-4c51-bb33-74cd0d98628a?share=true
Hello High,7685 Black Horse Pike,Hammonton,NJ,8037.0,R,https://www.google.com/maps/dir/?api=1&destination=7685%20Black%20Horse%20Pike%2C%20Hammonton%2C%20NJ%2008037%2C%20USA,,https://my.atlist.com/map/8bed33fa-9b8c-4c51-bb33-74cd0d98628a?share=true
Herb's Premium Dispensary,757 Franklin Blvd,Somerset,NJ,8873.0,R,https://www.google.com/maps/dir/?api=1&destination=757%20Franklin%20Blvd%2C%20Somerset%2C%20NJ%2008873%2C%20USA,,https://my.atlist.com/map/8bed33fa-9b8c-4c51-bb33-74cd0d98628a?share=true
Herbalicity,246 Raritan Ave,Highland Park,NJ,8904.0,R,https://www.google.com/maps/dir/?api=1&destination=246%20Raritan%20Ave%2C%20Highland%20Park%2C%20NJ%2008904%2C%20USA,,https://my.atlist.com/map/8bed33fa-9b8c-4c51-bb33-74cd0d98628a?share=true
High Profile Lakehurst,145 NJ-70,Lakehurst,NJ,8733.0,R,https://www.google.com/maps/dir/?api=1&destination=145%20NJ-70%2C%20Lakehurst%2C%20NJ%2008733%2C%20USA,,https://my.atlist.com/map/8bed33fa-9b8c-4c51-bb33-74cd0d98628a?share=true
High Profile of Somerdale Dispensary,4 N White Horse Pike,Somerdale,NJ,8083.0,R,https://www.google.com/maps/dir/?api=1&destination=4%20N%20White%20Horse%20Pike%2C%20Somerdale%2C%20NJ%2008083%2C%20USA,,https://my.atlist.com/map/8bed33fa-9b8c-4c51-bb33-74cd0d98628a?share=true
High Rollers Dispensary,120 S Indiana Ave,Atlantic City,NJ,8401.0,R,https://www.google.com/maps/dir/?api=1&destination=120%20S%20Indiana%20Ave%2C%20Atlantic%20City%2C%20NJ%2008401%2C%20USA,,https://my.atlist.com/map/8bed33fa-9b8c-4c51-bb33-74cd0d98628a?share=true
High Street Dispensary,811 High St,Hackettstown,NJ,7840.0,R,https://www.google.com/maps/dir/?api=1&destination=811%20High%20St%2C%20Hackettstown%2C%20NJ%2007840%2C%20USA,,https://my.atlist.com/map/8bed33fa-9b8c-4c51-bb33-74cd0d98628a?share=true
Highway 90,90 Old Marlton Pike,Evesham,NJ,8053.0,R,https://www.google.com/maps/dir/?api=1&destination=90%20Old%20Marlton%20Pike%2C%20Evesham%2C%20NJ%2008053%2C%20USA,,https://my.atlist.com/map/8bed33fa-9b8c-4c51-bb33-74cd0d98628a?share=true
Holistic Re-Leaf,321 Mt Hope Ave,Rockaway,NJ,7866.0,R,https://www.google.com/maps/dir/?api=1&destination=321%20Mt%20Hope%20Ave%2C%20Rockaway%2C%20NJ%2007866%2C%20USA,,https://my.atlist.com/map/8bed33fa-9b8c-4c51-bb33-74cd0d98628a?share=true
Honey Buzz Farms,1724 Atlantic Ave,Atlantic City,NJ,8401.0,R,https://www.google.com/maps/dir/?api=1&destination=1724%20Atlantic%20Ave%2C%20Atlantic%20City%2C%20NJ%2008401%2C%20USA,,https://my.atlist.com/map/8bed33fa-9b8c-4c51-bb33-74cd0d98628a?share=true
HudHaus,9001 River Rd,North Bergen,NJ,7047.0,R,https://www.google.com/maps/dir/?api=1&destination=9001%20River%20Rd%2C%20North%20Bergen%2C%20NJ%2007047%2C%20USA,,https://my.atlist.com/map/8bed33fa-9b8c-4c51-bb33-74cd0d98628a?share=true
Hudsonica Inc.,1427 Grand St,Hoboken,NJ,7030.0,R,https://www.google.com/maps/dir/?api=1&destination=1427%20Grand%20St%2C%20Hoboken%2C%20NJ%2007030%2C%20USA,,https://my.atlist.com/map/8bed33fa-9b8c-4c51-bb33-74cd0d98628a?share=true
HZY Goods,19 Prospect St,East Orange,NJ,7017.0,R,https://www.google.com/maps/dir/?api=1&destination=19%20Prospect%20St%2C%20East%20Orange%2C%20NJ%2007017%2C%20USA,,https://my.atlist.com/map/8bed33fa-9b8c-4c51-bb33-74cd0d98628a?share=true
Indigo,302 Crescent Blvd,Brooklawn,NJ,8030.0,R,https://www.google.com/maps/dir/?api=1&destination=302%20Crescent%20Blvd%2C%20Brooklawn%2C%20NJ%2008030%2C%20USA,,https://my.atlist.com/map/8bed33fa-9b8c-4c51-bb33-74cd0d98628a?share=true
INSA Coastline Dispensary,1580 US-9,Cape May Court House,NJ,8210.0,R,https://www.google.com/maps/dir/?api=1&destination=1580%20US-9%2C%20Cape%20May%20Court%20House%2C%20NJ%2008210%2C%20USA,,https://my.atlist.com/map/8bed33fa-9b8c-4c51-bb33-74cd0d98628a?share=true
Island Vibez,18 Roosevelt Ave,Plainfield,NJ,7060.0,R,https://www.google.com/maps/dir/?api=1&destination=18%20Roosevelt%20Ave%2C%20Plainfield%2C%20NJ%2007060%2C%20USA,,https://my.atlist.com/map/8bed33fa-9b8c-4c51-bb33-74cd0d98628a?share=true
J & J Cannabis Dispensary,3055 NJ-23 Unit A,Oak Ridge,NJ,7438.0,R,https://www.google.com/maps/dir/?api=1&destination=3055%20NJ-23%20Unit%20A%2C%20Oak%20Ridge%2C%20NJ%2007438%2C%20USA,,https://my.atlist.com/map/8bed33fa-9b8c-4c51-bb33-74cd0d98628a?share=true
JC Element,365 Central Ave,Jersey City,NJ,7307.0,R,https://www.google.com/maps/dir/?api=1&destination=365%20Central%20Ave%2C%20Jersey%20City%2C%20NJ%2007307%2C%20USA,,https://my.atlist.com/map/8bed33fa-9b8c-4c51-bb33-74cd0d98628a?share=true
Jersey Leaf,554 West Side Ave,Jersey City,NJ,7304.0,R,https://www.google.com/maps/dir/?api=1&destination=554%20West%20Side%20Ave%2C%20Jersey%20City%2C%20NJ%2007304%2C%20USA,,https://my.atlist.com/map/8bed33fa-9b8c-4c51-bb33-74cd0d98628a?share=true
Jersey Meds,7 NJ-31,Pennington,NJ,8534.0,R,https://www.google.com/maps/dir/?api=1&destination=7%20NJ-31%2C%20Pennington%2C%20NJ%2008534%2C%20USA,,https://my.atlist.com/map/8bed33fa-9b8c-4c51-bb33-74cd0d98628a?share=true
Jersey Roots,1433 Union Valley Rd,West Milford,NJ,7480.0,R,https://www.google.com/maps/dir/?api=1&destination=1433%20Union%20Valley%20Rd%2C%20West%20Milford%2C%20NJ%2007480%2C%20USA,,https://my.atlist.com/map/8bed33fa-9b8c-4c51-bb33-74cd0d98628a?share=true
Jester's Joint,70 Easton Ave,New Brunswick,NJ,8901.0,R,https://www.google.com/maps/dir/?api=1&destination=70%20Easton%20Ave%2C%20New%20Brunswick%2C%20NJ%2008901%2C%20USA,,https://my.atlist.com/map/8bed33fa-9b8c-4c51-bb33-74cd0d98628a?share=true
Joy Leaf,711 E 1st Ave,Roselle Park,NJ,7204.0,R,https://www.google.com/maps/dir/?api=1&destination=711%20E%201st%20Ave%2C%20Roselle%20Park%2C%20NJ%2007204%2C%20USA,,https://my.atlist.com/map/8bed33fa-9b8c-4c51-bb33-74cd0d98628a?share=true
Kind Kush,279 US-46,Rockaway,NJ,7866.0,R,https://www.google.com/maps/dir/?api=1&destination=279%20US-46%2C%20Rockaway%2C%20NJ%2007866%2C%20USA,,https://my.atlist.com/map/8bed33fa-9b8c-4c51-bb33-74cd0d98628a?share=true
Kine Buds Maywood,113 E Passaic St,Maywood,NJ,7607.0,R,https://www.google.com/maps/dir/?api=1&destination=113%20E%20Passaic%20St%2C%20Maywood%2C%20NJ%2007607%2C%20USA,,https://my.atlist.com/map/8bed33fa-9b8c-4c51-bb33-74cd0d98628a?share=true
La Vida Gardens,523 Washington Ave,Belleville,NJ,7109.0,R,https://www.google.com/maps/dir/?api=1&destination=523%20Washington%20Ave%2C%20Belleville%2C%20NJ%2007109%2C%20USA,,https://my.atlist.com/map/8bed33fa-9b8c-4c51-bb33-74cd0d98628a?share=true
Lady L Cannabis,547 West Side Ave,Jersey City,NJ,7304.0,R,https://www.google.com/maps/dir/?api=1&destination=547%20West%20Side%20Ave%2C%20Jersey%20City%2C%20NJ%2007304%2C%20USA,,https://my.atlist.com/map/8bed33fa-9b8c-4c51-bb33-74cd0d98628a?share=true
Leaf Haus,900 Easton Ave,Somerset,NJ,8873.0,R,https://www.google.com/maps/dir/?api=1&destination=900%20Easton%20Ave%2C%20Somerset%2C%20NJ%2008873%2C%20USA,,https://my.atlist.com/map/8bed33fa-9b8c-4c51-bb33-74cd0d98628a?share=true
Leaf Joint,391 Central Ave,Jersey City,NJ,7307.0,R,https://www.google.com/maps/dir/?api=1&destination=391%20Central%20Ave%2C%20Jersey%20City%2C%20NJ%2007307%2C%20USA,,https://my.atlist.com/map/8bed33fa-9b8c-4c51-bb33-74cd0d98628a?share=true
Legacy to Lifted,490 West Side Ave,Jersey City,NJ,7304.0,R,https://www.google.com/maps/dir/?api=1&destination=490%20West%20Side%20Ave%2C%20Jersey%20City%2C%20NJ%2007304%2C%20USA,,https://my.atlist.com/map/8bed33fa-9b8c-4c51-bb33-74cd0d98628a?share=true
Legal Distribution,3112 Atlantic Ave,Atlantic City,NJ,8401.0,R,https://www.google.com/maps/dir/?api=1&destination=3112%20Atlantic%20Ave%2C%20Atlantic%20City%2C%20NJ%2008401%2C%20USA,,https://my.atlist.com/map/8bed33fa-9b8c-4c51-bb33-74cd0d98628a?share=true
Lemon 22,2006 US-22,Scotch Plains,NJ,7076.0,R,https://www.google.com/maps/dir/?api=1&destination=2006%20US-22%2C%20Scotch%20Plains%2C%20NJ%2007076%2C%20USA,,https://my.atlist.com/map/8bed33fa-9b8c-4c51-bb33-74cd0d98628a?share=true
Loud House,112 N 3rd St,Camden,NJ,8102.0,R,https://www.google.com/maps/dir/?api=1&destination=112%20N%203rd%20St%2C%20Camden%2C%20NJ%2008102%2C%20USA,,https://my.atlist.com/map/8bed33fa-9b8c-4c51-bb33-74cd0d98628a?share=true
Mad Hatter Dispensary,845 US-1,Avenel,NJ,7001.0,R,https://www.google.com/maps/dir/?api=1&destination=845%20US-1%2C%20Avenel%2C%20NJ%2007001%2C%20USA,,https://my.atlist.com/map/8bed33fa-9b8c-4c51-bb33-74cd0d98628a?share=true
Main Street Dispensary,311 Raritan Ave,Highland Park,NJ,8904.0,R,https://www.google.com/maps/dir/?api=1&destination=311%20Raritan%20Ave%2C%20Highland%20Park%2C%20NJ%2008904%2C%20USA,,https://my.atlist.com/map/8bed33fa-9b8c-4c51-bb33-74cd0d98628a?share=true
Mass Grown,34 Mill St,Mt Holly,NJ,8060.0,R,https://www.google.com/maps/dir/?api=1&destination=34%20Mill%20St%2C%20Mt%20Holly%2C%20NJ%2008060%2C%20USA,,https://my.atlist.com/map/8bed33fa-9b8c-4c51-bb33-74cd0d98628a?share=true
Med Leaf,201 Philadelphia Ave,Egg Harbor City,NJ,8215.0,R,https://www.google.com/maps/dir/?api=1&destination=201%20Philadelphia%20Ave%2C%20Egg%20Harbor%20City%2C%20NJ%2008215%2C%20USA,,https://my.atlist.com/map/8bed33fa-9b8c-4c51-bb33-74cd0d98628a?share=true
Midnight Greens,5100 NJ-42,Blackwood,NJ,8012.0,R,https://www.google.com/maps/dir/?api=1&destination=5100%20NJ-42%2C%20Blackwood%2C%20NJ%2008012%2C%20USA,,https://my.atlist.com/map/8bed33fa-9b8c-4c51-bb33-74cd0d98628a?share=true
MindLift Dispensary,517 Park Ave,Plainfield,NJ,7060.0,R,https://www.google.com/maps/dir/?api=1&destination=517%20Park%20Ave%2C%20Plainfield%2C%20NJ%2007060%2C%20USA,,https://my.atlist.com/map/8bed33fa-9b8c-4c51-bb33-74cd0d98628a?share=true
MMD NJ,655 Newark Ave,Jersey City,NJ,7306.0,R,https://www.google.com/maps/dir/?api=1&destination=655%20Newark%20Ave%2C%20Jersey%20City%2C%20NJ%2007306%2C%20USA,,https://my.atlist.com/map/8bed33fa-9b8c-4c51-bb33-74cd0d98628a?share=true
Moja Life,28 S Warren St,Trenton,NJ,8608.0,R,https://www.google.com/maps/dir/?api=1&destination=28%20S%20Warren%20St%2C%20Trenton%2C%20NJ%2008608%2C%20USA,,https://my.atlist.com/map/8bed33fa-9b8c-4c51-bb33-74cd0d98628a?share=true
Molly Ann Farms,256 Belmont Ave,Haledon,NJ,7508.0,R,https://www.google.com/maps/dir/?api=1&destination=256%20Belmont%20Ave%2C%20Haledon%2C%20NJ%2007508%2C%20USA,,https://my.atlist.com/map/8bed33fa-9b8c-4c51-bb33-74cd0d98628a?share=true
Mountain Dispensary,46 NJ-94,Vernon Township,NJ,7462.0,R,https://www.google.com/maps/dir/?api=1&destination=46%20NJ-94%2C%20Vernon%20Township%2C%20NJ%2007462%2C%20USA,,https://my.atlist.com/map/8bed33fa-9b8c-4c51-bb33-74cd0d98628a?share=true
Mountain View Farmacy,74 Oak Ridge Rd,Oak Ridge,NJ,7438.0,R,https://www.google.com/maps/dir/?api=1&destination=74%20Oak%20Ridge%20Rd%2C%20Oak%20Ridge%2C%20NJ%2007438%2C%20USA,,https://my.atlist.com/map/8bed33fa-9b8c-4c51-bb33-74cd0d98628a?share=true
NAR Cannabis,4004 Church Rd,Mt Laurel Township,NJ,8054.0,R,https://www.google.com/maps/dir/?api=1&destination=4004%20Church%20Rd%2C%20Mt%20Laurel%20Township%2C%20NJ%2008054%2C%20USA,,https://my.atlist.com/map/8bed33fa-9b8c-4c51-bb33-74cd0d98628a?share=true
Natural Apothecary,27 Washington Ave,Belleville,NJ,7109.0,R,https://www.google.com/maps/dir/?api=1&destination=27%20Washington%20Ave%2C%20Belleville%2C%20NJ%2007109%2C%20USA,,https://my.atlist.com/map/8bed33fa-9b8c-4c51-bb33-74cd0d98628a?share=true
Nature’s Motivation,1095 Clinton Ave,Irvington,NJ,7111.0,R,https://www.google.com/maps/dir/?api=1&destination=1095%20Clinton%20Ave%2C%20Irvington%2C%20NJ%2007111%2C%20USA,,https://my.atlist.com/map/8bed33fa-9b8c-4c51-bb33-74cd0d98628a?share=true
Nevaeh Verde Dispensary,176 Belmont Ave,Belleville,NJ,7109.0,R,https://www.google.com/maps/dir/?api=1&destination=176%20Belmont%20Ave%2C%20Belleville%2C%20NJ%2007109%2C%20USA,,https://my.atlist.com/map/8bed33fa-9b8c-4c51-bb33-74cd0d98628a?share=true
New Era Dispensary,80-88 Main St,South Bound Brook,NJ,8880.0,R,https://www.google.com/maps/dir/?api=1&destination=80-88%20Main%20St%2C%20South%20Bound%20Brook%2C%20NJ%2008880%2C%20USA,,https://my.atlist.com/map/8bed33fa-9b8c-4c51-bb33-74cd0d98628a?share=true
New Frontier Solutions,473 E Broadway,Salem,NJ,8079.0,R,https://www.google.com/maps/dir/?api=1&destination=473%20E%20Broadway%2C%20Salem%2C%20NJ%2008079%2C%20USA,,https://my.atlist.com/map/8bed33fa-9b8c-4c51-bb33-74cd0d98628a?share=true
Nightjar,549 Bloomfield Ave,Bloomfield,NJ,7003.0,R,https://www.google.com/maps/dir/?api=1&destination=549%20Bloomfield%20Ave%2C%20Bloomfield%2C%20NJ%2007003%2C%20USA,,https://my.atlist.com/map/8bed33fa-9b8c-4c51-bb33-74cd0d98628a?share=true
Nile of NJ,5409 Bergenline Ave,West New York,NJ,7093.0,R,https://www.google.com/maps/dir/?api=1&destination=5409%20Bergenline%20Ave%2C%20West%20New%20York%2C%20NJ%2007093%2C%20USA,,https://my.atlist.com/map/8bed33fa-9b8c-4c51-bb33-74cd0d98628a?share=true
Nirvana,1134 NJ-73,Mt Laurel Township,NJ,8054.0,R,https://www.google.com/maps/dir/?api=1&destination=1134%20NJ-73%2C%20Mt%20Laurel%20Township%2C%20NJ%2008054%2C%20USA,,https://my.atlist.com/map/8bed33fa-9b8c-4c51-bb33-74cd0d98628a?share=true
NJ Pure,"A-10, 4313 US-130",Edgewater Park,NJ,8010.0,R,https://www.google.com/maps/dir/?api=1&destination=A-10%2C%204313%20US-130%2C%20Edgewater%20Park%2C%20NJ%2008010%2C%20USA,,https://my.atlist.com/map/8bed33fa-9b8c-4c51-bb33-74cd0d98628a?share=true
Noire Dispensary,171 Maplewood Ave,Maplewood,NJ,7040.0,R,https://www.google.com/maps/dir/?api=1&destination=171%20Maplewood%20Ave%2C%20Maplewood%2C%20NJ%2007040%2C%20USA,,https://my.atlist.com/map/8bed33fa-9b8c-4c51-bb33-74cd0d98628a?share=true
Northeast Alternatives Dispensary,780 US-130,Hamilton Township,NJ,8691.0,R,https://www.google.com/maps/dir/?api=1&destination=780%20US-130%2C%20Hamilton%20Township%2C%20NJ%2008691%2C%20USA,,https://my.atlist.com/map/8bed33fa-9b8c-4c51-bb33-74cd0d98628a?share=true
Nova Farms,642 Mantua Pike,Woodbury,NJ,8096.0,R,https://www.google.com/maps/dir/?api=1&destination=642%20Mantua%20Pike%2C%20Woodbury%2C%20NJ%2008096%2C%20USA,,https://my.atlist.com/map/8bed33fa-9b8c-4c51-bb33-74cd0d98628a?share=true
Ohm Theory,213 US-46,Elmwood Park,NJ,7407.0,R,https://www.google.com/maps/dir/?api=1&destination=213%20US-46%2C%20Elmwood%20Park%2C%20NJ%2007407%2C%20USA,,https://my.atlist.com/map/8bed33fa-9b8c-4c51-bb33-74cd0d98628a?share=true
One Green Leaf,95 Lakeview Dr N,Gibbsboro,NJ,8026.0,R,https://www.google.com/maps/dir/?api=1&destination=95%20Lakeview%20Dr%20N%2C%20Gibbsboro%2C%20NJ%2008026%2C%20USA,,https://my.atlist.com/map/8bed33fa-9b8c-4c51-bb33-74cd0d98628a?share=true
Organic Farms,2895 Mt Ephraim Ave,Camden,NJ,8104.0,R,https://www.google.com/maps/dir/?api=1&destination=2895%20Mt%20Ephraim%20Ave%2C%20Camden%2C%20NJ%2008104%2C%20USA,,https://my.atlist.com/map/8bed33fa-9b8c-4c51-bb33-74cd0d98628a?share=true
OTC Jersey,167 New Jersey Ave,Absecon,NJ,8201.0,R,https://www.google.com/maps/dir/?api=1&destination=167%20New%20Jersey%20Ave%2C%20Absecon%2C%20NJ%2008201%2C%20USA,,https://my.atlist.com/map/8bed33fa-9b8c-4c51-bb33-74cd0d98628a?share=true
Phasal,1100 N Black Horse Pike,Runnemede,NJ,8078.0,R,https://www.google.com/maps/dir/?api=1&destination=1100%20N%20Black%20Horse%20Pike%2C%20Runnemede%2C%20NJ%2008078%2C%20USA,,https://my.atlist.com/map/8bed33fa-9b8c-4c51-bb33-74cd0d98628a?share=true
Phula,60-62 High St,Mt Holly,NJ,8060.0,R,https://www.google.com/maps/dir/?api=1&destination=60-62%20High%20St%2C%20Mt%20Holly%2C%20NJ%2008060%2C%20USA,,https://my.atlist.com/map/8bed33fa-9b8c-4c51-bb33-74cd0d98628a?share=true
Plant Base,148 E 2nd St,Plainfield,NJ,7060.0,R,https://www.google.com/maps/dir/?api=1&destination=148%20E%202nd%20St%2C%20Plainfield%2C%20NJ%2007060%2C%20USA,,https://my.atlist.com/map/8bed33fa-9b8c-4c51-bb33-74cd0d98628a?share=true
Plantabis,2077 US-1,Rahway,NJ,7065.0,R,https://www.google.com/maps/dir/?api=1&destination=2077%20US-1%2C%20Rahway%2C%20NJ%2007065%2C%20USA,,https://my.atlist.com/map/8bed33fa-9b8c-4c51-bb33-74cd0d98628a?share=true
Plantopia,37 Main St,Englishtown,NJ,7726.0,R,https://www.google.com/maps/dir/?api=1&destination=37%20Main%20St%2C%20Englishtown%2C%20NJ%2007726%2C%20USA,,https://my.atlist.com/map/8bed33fa-9b8c-4c51-bb33-74cd0d98628a?share=true
PPP Dispensary,3001 Atlantic Ave,Atlantic City,NJ,8401.0,R,https://www.google.com/maps/dir/?api=1&destination=3001%20Atlantic%20Ave%2C%20Atlantic%20City%2C%20NJ%2008401%2C%20USA,,https://my.atlist.com/map/8bed33fa-9b8c-4c51-bb33-74cd0d98628a?share=true
Premo,2 E Front St,Keyport,NJ,7735.0,R,https://www.google.com/maps/dir/?api=1&destination=2%20E%20Front%20St%2C%20Keyport%2C%20NJ%2007735%2C%20USA,,https://my.atlist.com/map/8bed33fa-9b8c-4c51-bb33-74cd0d98628a?share=true
Public Absecon,792a White Horse Pike,Absecon,NJ,8201.0,R,https://www.google.com/maps/dir/?api=1&destination=792a%20White%20Horse%20Pike%2C%20Absecon%2C%20NJ%2008201%2C%20USA,,https://my.atlist.com/map/8bed33fa-9b8c-4c51-bb33-74cd0d98628a?share=true
Puffin Store,382 George St,New Brunswick,NJ,8901.0,R,https://www.google.com/maps/dir/?api=1&destination=382%20George%20St%2C%20New%20Brunswick%2C%20NJ%2008901%2C%20USA,,https://my.atlist.com/map/8bed33fa-9b8c-4c51-bb33-74cd0d98628a?share=true
Pure Blossom,2554 Pennington Rd,Pennington,NJ,8534.0,R,https://www.google.com/maps/dir/?api=1&destination=2554%20Pennington%20Rd%2C%20Pennington%2C%20NJ%2008534%2C%20USA,,https://my.atlist.com/map/8bed33fa-9b8c-4c51-bb33-74cd0d98628a?share=true
Pure Natural Vibes,470 Prospect Ave,West Orange,NJ,7052.0,R,https://www.google.com/maps/dir/?api=1&destination=470%20Prospect%20Ave%2C%20West%20Orange%2C%20NJ%2007052%2C%20USA,,https://my.atlist.com/map/8bed33fa-9b8c-4c51-bb33-74cd0d98628a?share=true
Quality Roots,850 Rte 70 W,Marlton,NJ,8053.0,R,https://www.google.com/maps/dir/?api=1&destination=850%20Rte%2070%20W%2C%20Marlton%2C%20NJ%2008053%2C%20USA,,https://my.atlist.com/map/8bed33fa-9b8c-4c51-bb33-74cd0d98628a?share=true
Queen City Remedies,1353 South Ave,Plainfield,NJ,7062.0,R,https://www.google.com/maps/dir/?api=1&destination=1353%20South%20Ave%2C%20Plainfield%2C%20NJ%2007062%2C%20USA,,https://my.atlist.com/map/8bed33fa-9b8c-4c51-bb33-74cd0d98628a?share=true
Releaf Cannabis,1024 S Black Horse Pike,Williamstown,NJ,8094.0,R,https://www.google.com/maps/dir/?api=1&destination=1024%20S%20Black%20Horse%20Pike%2C%20Williamstown%2C%20NJ%2008094%2C%20USA,,https://my.atlist.com/map/8bed33fa-9b8c-4c51-bb33-74cd0d98628a?share=true
RushBudz Dispensary,77 Main St,South Bound Brook,NJ,8880.0,R,https://www.google.com/maps/dir/?api=1&destination=77%20Main%20St%2C%20South%20Bound%20Brook%2C%20NJ%2008880%2C%20USA,,https://my.atlist.com/map/8bed33fa-9b8c-4c51-bb33-74cd0d98628a?share=true
Ruuted,14 Main St,Englishtown,NJ,7726.0,R,https://www.google.com/maps/dir/?api=1&destination=14%20Main%20St%2C%20Englishtown%2C%20NJ%2007726%2C%20USA,,https://my.atlist.com/map/8bed33fa-9b8c-4c51-bb33-74cd0d98628a?share=true
Salt Air Botanicals,1127 Arctic Ave,Atlantic City,NJ,8401.0,R,https://www.google.com/maps/dir/?api=1&destination=1127%20Arctic%20Ave%2C%20Atlantic%20City%2C%20NJ%2008401%2C%20USA,,https://my.atlist.com/map/8bed33fa-9b8c-4c51-bb33-74cd0d98628a?share=true
Scarlet Reserve Room,5 Hamilton Rd,Englishtown,NJ,7726.0,R,https://www.google.com/maps/dir/?api=1&destination=5%20Hamilton%20Rd%2C%20Englishtown%2C%20NJ%2007726%2C%20USA,,https://my.atlist.com/map/8bed33fa-9b8c-4c51-bb33-74cd0d98628a?share=true
Sea & Leaf,3860 Bayshore Rd,North Cape May,NJ,8204.0,R,https://www.google.com/maps/dir/?api=1&destination=3860%20Bayshore%20Rd%2C%20North%20Cape%20May%2C%20NJ%2008204%2C%20USA,,https://my.atlist.com/map/8bed33fa-9b8c-4c51-bb33-74cd0d98628a?share=true
Shipwreck'd,300 W Sylvania Ave,Neptune City,NJ,7753.0,R,https://www.google.com/maps/dir/?api=1&destination=300%20W%20Sylvania%20Ave%2C%20Neptune%20City%2C%20NJ%2007753%2C%20USA,,https://my.atlist.com/map/8bed33fa-9b8c-4c51-bb33-74cd0d98628a?share=true
Shore House Canna,124 Sunset Blvd,Cape May,NJ,8204.0,R,https://www.google.com/maps/dir/?api=1&destination=124%20Sunset%20Blvd%2C%20Cape%20May%2C%20NJ%2008204%2C%20USA,,https://my.atlist.com/map/8bed33fa-9b8c-4c51-bb33-74cd0d98628a?share=true
Simply Pure Trenton,1531 N Olden Ave,Ewing Township,NJ,8638.0,R,https://www.google.com/maps/dir/?api=1&destination=1531%20N%20Olden%20Ave%2C%20Ewing%20Township%2C%20NJ%2008638%2C%20USA,,https://my.atlist.com/map/8bed33fa-9b8c-4c51-bb33-74cd0d98628a?share=true
Sky Cannabis,52 E Broad St unit 9,Hopewell,NJ,8525.0,R,https://www.google.com/maps/dir/?api=1&destination=52%20E%20Broad%20St%20unit%209%2C%20Hopewell%2C%20NJ%2008525%2C%20USA,,https://my.atlist.com/map/8bed33fa-9b8c-4c51-bb33-74cd0d98628a?share=true
Social Dispensary,614 N Pearl St,Bridgeton,NJ,8302.0,R,https://www.google.com/maps/dir/?api=1&destination=614%20N%20Pearl%20St%2C%20Bridgeton%2C%20NJ%2008302%2C%20USA,,https://my.atlist.com/map/8bed33fa-9b8c-4c51-bb33-74cd0d98628a?share=true
Somerset Green,729 Somerset St,Somerset,NJ,8873.0,R,https://www.google.com/maps/dir/?api=1&destination=729%20Somerset%20St%2C%20Somerset%2C%20NJ%2008873%2C%20USA,,https://my.atlist.com/map/8bed33fa-9b8c-4c51-bb33-74cd0d98628a?share=true
Soulflora,2713 NJ-23,Newfoundland,NJ,7435.0,R,https://www.google.com/maps/dir/?api=1&destination=2713%20NJ-23%2C%20Newfoundland%2C%20NJ%2007435%2C%20USA,,https://my.atlist.com/map/8bed33fa-9b8c-4c51-bb33-74cd0d98628a?share=true
Sparkology,3231 NJ-27,Franklin Park,NJ,8823.0,R,https://www.google.com/maps/dir/?api=1&destination=3231%20NJ-27%2C%20Franklin%20Park%2C%20NJ%2008823%2C%20USA,,https://my.atlist.com/map/8bed33fa-9b8c-4c51-bb33-74cd0d98628a?share=true
Spot 23 LLC,2915 NJ-23,Newfoundland,NJ,7435.0,R,https://www.google.com/maps/dir/?api=1&destination=2915%20NJ-23%2C%20Newfoundland%2C%20NJ%2007435%2C%20USA,,https://my.atlist.com/map/8bed33fa-9b8c-4c51-bb33-74cd0d98628a?share=true
Springfield Ave Dispensary,1070 Springfield Ave,Irvington,NJ,7111.0,R,https://www.google.com/maps/dir/?api=1&destination=1070%20Springfield%20Ave%2C%20Irvington%2C%20NJ%2007111%2C%20USA,,https://my.atlist.com/map/8bed33fa-9b8c-4c51-bb33-74cd0d98628a?share=true
Story Dispensary of Springfield,130 US-22,Springfield,NJ,7081.0,R,https://www.google.com/maps/dir/?api=1&destination=130%20US-22%2C%20Springfield%2C%20NJ%2007081%2C%20USA,,https://my.atlist.com/map/8bed33fa-9b8c-4c51-bb33-74cd0d98628a?share=true
SunnyTien,3004 Atlantic Ave,Atlantic City,NJ,8401.0,R,https://www.google.com/maps/dir/?api=1&destination=3004%20Atlantic%20Ave%2C%20Atlantic%20City%2C%20NJ%2008401%2C%20USA,,https://my.atlist.com/map/8bed33fa-9b8c-4c51-bb33-74cd0d98628a?share=true
Sussex Pharms,54 Main St,Sussex,NJ,7461.0,R,https://www.google.com/maps/dir/?api=1&destination=54%20Main%20St%2C%20Sussex%2C%20NJ%2007461%2C%20USA,,https://my.atlist.com/map/8bed33fa-9b8c-4c51-bb33-74cd0d98628a?share=true
Sweet Leaf's LLC,21 S Tennessee Ave,Atlantic City,NJ,8401.0,R,https://www.google.com/maps/dir/?api=1&destination=21%20S%20Tennessee%20Ave%2C%20Atlantic%20City%2C%20NJ%2008401%2C%20USA,,https://my.atlist.com/map/8bed33fa-9b8c-4c51-bb33-74cd0d98628a?share=true
Sweetspot Dispensary Maplewood,751 Irvington Ave,Maplewood,NJ,7040.0,R,https://www.google.com/maps/dir/?api=1&destination=751%20Irvington%20Ave%2C%20Maplewood%2C%20NJ%2007040%2C%20USA,,https://my.atlist.com/map/8bed33fa-9b8c-4c51-bb33-74cd0d98628a?share=true
Sweetspot River Edge,75 Rte 4,River Edge,NJ,7661.0,R,https://www.google.com/maps/dir/?api=1&destination=75%20Rte%204%2C%20River%20Edge%2C%20NJ%2007661%2C%20USA,,https://my.atlist.com/map/8bed33fa-9b8c-4c51-bb33-74cd0d98628a?share=true
Taste of Earth,108 Wheat Rd,Buena,NJ,8310.0,R,https://www.google.com/maps/dir/?api=1&destination=108%20Wheat%20Rd%2C%20Buena%2C%20NJ%2008310%2C%20USA,,https://my.atlist.com/map/8bed33fa-9b8c-4c51-bb33-74cd0d98628a?share=true
The Cannabis Place,1544 John F. Kennedy Blvd,Jersey City,NJ,7305.0,R,https://www.google.com/maps/dir/?api=1&destination=1544%20John%20F.%20Kennedy%20Blvd%2C%20Jersey%20City%2C%20NJ%2007305%2C%20USA,,https://my.atlist.com/map/8bed33fa-9b8c-4c51-bb33-74cd0d98628a?share=true
The Dispensary of Saddle Brook,225 US-46,Saddle Brook,NJ,7663.0,R,https://www.google.com/maps/dir/?api=1&destination=225%20US-46%2C%20Saddle%20Brook%2C%20NJ%2007663%2C%20USA,,https://my.atlist.com/map/8bed33fa-9b8c-4c51-bb33-74cd0d98628a?share=true
The Frosted Nug at Red Bank,22 Bridge Ave,Red Bank,NJ,7701.0,R,https://www.google.com/maps/dir/?api=1&destination=22%20Bridge%20Ave%2C%20Red%20Bank%2C%20NJ%2007701%2C%20USA,,https://my.atlist.com/map/8bed33fa-9b8c-4c51-bb33-74cd0d98628a?share=true
"The Goods Supply Co. Victory Gardens, LLC",330 S Salem St,Dover,NJ,7801.0,R,https://www.google.com/maps/dir/?api=1&destination=330%20S%20Salem%20St%2C%20Dover%2C%20NJ%2007801%2C%20USA,,https://my.atlist.com/map/8bed33fa-9b8c-4c51-bb33-74cd0d98628a?share=true
The Healing Side,2415 Pacific Ave,Atlantic City,NJ,8401.0,R,https://www.google.com/maps/dir/?api=1&destination=2415%20Pacific%20Ave%2C%20Atlantic%20City%2C%20NJ%2008401%2C%20USA,,https://my.atlist.com/map/8bed33fa-9b8c-4c51-bb33-74cd0d98628a?share=true
The Honorable Plant,123 Bay Ave,Highlands,NJ,7732.0,R,https://www.google.com/maps/dir/?api=1&destination=123%20Bay%20Ave%2C%20Highlands%2C%20NJ%2007732%2C%20USA,,https://my.atlist.com/map/8bed33fa-9b8c-4c51-bb33-74cd0d98628a?share=true
The Jersey Joint Dispensary,7-11 State St,Glassboro,NJ,8028.0,R,https://www.google.com/maps/dir/?api=1&destination=7-11%20State%20St%2C%20Glassboro%2C%20NJ%2008028%2C%20USA,,https://my.atlist.com/map/8bed33fa-9b8c-4c51-bb33-74cd0d98628a?share=true
The Leaf and Seed Dispensary,328 White Horse Pike Unit L,Clementon,NJ,8021.0,R,https://www.google.com/maps/dir/?api=1&destination=328%20White%20Horse%20Pike%20Unit%20L%2C%20Clementon%2C%20NJ%2008021%2C%20USA,,https://my.atlist.com/map/8bed33fa-9b8c-4c51-bb33-74cd0d98628a?share=true
The Library of New Jersey,1-3 Washington St,West Orange,NJ,7052.0,R,https://www.google.com/maps/dir/?api=1&destination=1-3%20Washington%20St%2C%20West%20Orange%2C%20NJ%2007052%2C%20USA,,https://my.atlist.com/map/8bed33fa-9b8c-4c51-bb33-74cd0d98628a?share=true
The Medicine Woman,660 Tonnelle Ave,Jersey City,NJ,7307.0,R,https://www.google.com/maps/dir/?api=1&destination=660%20Tonnelle%20Ave%2C%20Jersey%20City%2C%20NJ%2007307%2C%20USA,,https://my.atlist.com/map/8bed33fa-9b8c-4c51-bb33-74cd0d98628a?share=true
The Other Side Dispensary,36 Congress St,Jersey City,NJ,7307.0,R,https://www.google.com/maps/dir/?api=1&destination=36%20Congress%20St%2C%20Jersey%20City%2C%20NJ%2007307%2C%20USA,,https://my.atlist.com/map/8bed33fa-9b8c-4c51-bb33-74cd0d98628a?share=true
The Social Leaf,334 Atlantic City Blvd,Toms River,NJ,8757.0,R,https://www.google.com/maps/dir/?api=1&destination=334%20Atlantic%20City%20Blvd%2C%20Toms%20River%2C%20NJ%2008757%2C%20USA,,https://my.atlist.com/map/8bed33fa-9b8c-4c51-bb33-74cd0d98628a?share=true
The THC Shop,1740 Atlantic Ave,Atlantic City,NJ,8401.0,R,https://www.google.com/maps/dir/?api=1&destination=1740%20Atlantic%20Ave%2C%20Atlantic%20City%2C%20NJ%2008401%2C%20USA,,https://my.atlist.com/map/8bed33fa-9b8c-4c51-bb33-74cd0d98628a?share=true
The Wildflower Market,1810 Wayside Rd suite a,Eatontown,NJ,7724.0,R,https://www.google.com/maps/dir/?api=1&destination=1810%20Wayside%20Rd%20suite%20a%2C%20Eatontown%2C%20NJ%2007724%2C%20USA,,https://my.atlist.com/map/8bed33fa-9b8c-4c51-bb33-74cd0d98628a?share=true
Timber 5,695 Hamilton St,Somerset,NJ,8873.0,R,https://www.google.com/maps/dir/?api=1&destination=695%20Hamilton%20St%2C%20Somerset%2C%20NJ%2008873%2C%20USA,,https://my.atlist.com/map/8bed33fa-9b8c-4c51-bb33-74cd0d98628a?share=true
Township Green,15-17 E Scott St,Riverside,NJ,8075.0,R,https://www.google.com/maps/dir/?api=1&destination=15-17%20E%20Scott%20St%2C%20Riverside%2C%20NJ%2008075%2C%20USA,,https://my.atlist.com/map/8bed33fa-9b8c-4c51-bb33-74cd0d98628a?share=true
Tree House Co-Op Dispensary,326 NJ-73,Voorhees Township,NJ,8043.0,R,https://www.google.com/maps/dir/?api=1&destination=326%20NJ-73%2C%20Voorhees%20Township%2C%20NJ%2008043%2C%20USA,,https://my.atlist.com/map/8bed33fa-9b8c-4c51-bb33-74cd0d98628a?share=true
Treeotics,467 Lyons Ave,Newark,NJ,7112.0,R,https://www.google.com/maps/dir/?api=1&destination=467%20Lyons%20Ave%2C%20Newark%2C%20NJ%2007112%2C%20USA,,https://my.atlist.com/map/8bed33fa-9b8c-4c51-bb33-74cd0d98628a?share=true
Twisted Hat Cannabis,515 Shell Rd,Carneys Point,NJ,8069.0,R,https://www.google.com/maps/dir/?api=1&destination=515%20Shell%20Rd%2C%20Carneys%20Point%2C%20NJ%2008069%2C%20USA,,https://my.atlist.com/map/8bed33fa-9b8c-4c51-bb33-74cd0d98628a?share=true
Uforia Dispensary,138 Griffith St,Jersey City,NJ,7307.0,R,https://www.google.com/maps/dir/?api=1&destination=138%20Griffith%20St%2C%20Jersey%20City%2C%20NJ%2007307%2C%20USA,,https://my.atlist.com/map/8bed33fa-9b8c-4c51-bb33-74cd0d98628a?share=true
Uma Flowers,100 Ridgedale Ave,Morristown,NJ,7960.0,R,https://www.google.com/maps/dir/?api=1&destination=100%20Ridgedale%20Ave%2C%20Morristown%2C%20NJ%2007960%2C%20USA,,https://my.atlist.com/map/8bed33fa-9b8c-4c51-bb33-74cd0d98628a?share=true
Union Chill,204 N Union St,Lambertville,NJ,8530.0,R,https://www.google.com/maps/dir/?api=1&destination=204%20N%20Union%20St%2C%20Lambertville%2C%20NJ%2008530%2C%20USA,,https://my.atlist.com/map/8bed33fa-9b8c-4c51-bb33-74cd0d98628a?share=true
Unity Rd. Cannabis Shop,441 Elizabeth Ave,Somerset,NJ,8873.0,R,https://www.google.com/maps/dir/?api=1&destination=441%20Elizabeth%20Ave%2C%20Somerset%2C%20NJ%2008873%2C%20USA,,https://my.atlist.com/map/8bed33fa-9b8c-4c51-bb33-74cd0d98628a?share=true
Urge,941 Elizabeth Ave,Elizabeth,NJ,7201.0,R,https://www.google.com/maps/dir/?api=1&destination=941%20Elizabeth%20Ave%2C%20Elizabeth%2C%20NJ%2007201%2C%20USA,,https://my.atlist.com/map/8bed33fa-9b8c-4c51-bb33-74cd0d98628a?share=true
Vigor Dispensary,1082 NJ-34,Matawan,NJ,7747.0,R,https://www.google.com/maps/dir/?api=1&destination=1082%20NJ-34%2C%20Matawan%2C%20NJ%2007747%2C%20USA,,https://my.atlist.com/map/8bed33fa-9b8c-4c51-bb33-74cd0d98628a?share=true
Village Hoboken,516 Washington St,Hoboken,NJ,7030.0,R,https://www.google.com/maps/dir/?api=1&destination=516%20Washington%20St%2C%20Hoboken%2C%20NJ%2007030%2C%20USA,,https://my.atlist.com/map/8bed33fa-9b8c-4c51-bb33-74cd0d98628a?share=true
Voltaire NJ,47 Mill St,Mt Holly,NJ,8060.0,R,https://www.google.com/maps/dir/?api=1&destination=47%20Mill%20St%2C%20Mt%20Holly%2C%20NJ%2008060%2C%20USA,,https://my.atlist.com/map/8bed33fa-9b8c-4c51-bb33-74cd0d98628a?share=true
West Orange Wellness,26 S Valley Rd,West Orange,NJ,7052.0,R,https://www.google.com/maps/dir/?api=1&destination=26%20S%20Valley%20Rd%2C%20West%20Orange%2C%20NJ%2007052%2C%20USA,,https://my.atlist.com/map/8bed33fa-9b8c-4c51-bb33-74cd0d98628a?share=true
Woodbury Wellness,818 N Broad St,Woodbury,NJ,8096.0,R,https://www.google.com/maps/dir/?api=1&destination=818%20N%20Broad%20St%2C%20Woodbury%2C%20NJ%2008096%2C%20USA,,https://my.atlist.com/map/8bed33fa-9b8c-4c51-bb33-74cd0d98628a?share=true
Xena NJ,759a Bergen Ave,Jersey City,NJ,7305.0,R,https://www.google.com/maps/dir/?api=1&destination=759a%20Bergen%20Ave%2C%20Jersey%20City%2C%20NJ%2007305%2C%20USA,,https://my.atlist.com/map/8bed33fa-9b8c-4c51-bb33-74cd0d98628a?share=true
Zacate,"Millside Shopping Center II, 4037 US-130",Delran,NJ,8075.0,R,https://www.google.com/maps/dir/?api=1&destination=Millside%20Shopping%20Center%20II%2C%204037%20US-130%2C%20Delran%2C%20NJ%2008075%2C%20USA,,https://my.atlist.com/map/8bed33fa-9b8c-4c51-bb33-74cd0d98628a?share=true
Zen Leaf Mount Holly,600 High St,Mt Holly,NJ,8060.0,R,https://www.google.com/maps/dir/?api=1&destination=600%20High%20St%2C%20Mt%20Holly%2C%20NJ%2008060%2C%20USA,,https://my.atlist.com/map/8bed33fa-9b8c-4c51-bb33-74cd0d98628a?share=true
Apothecarium Dispensary,55 S Main St,Phillipsburg,NJ,8865.0,M,https://www.google.com/maps/dir/?api=1&destination=55%20S%20Main%20St%2C%20Phillipsburg%2C%20NJ%2008865%2C%20USA,,https://my.atlist.com/map/8bed33fa-9b8c-4c51-bb33-74cd0d98628a?share=true
Apothecarium Dispensary,1865 Springfield Ave,Maplewood,NJ,7040.0,M,https://www.google.com/maps/dir/?api=1&destination=1865%20Springfield%20Ave%2C%20Maplewood%2C%20NJ%2007040%2C%20USA,,https://my.atlist.com/map/8bed33fa-9b8c-4c51-bb33-74cd0d98628a?share=true
Apothecarium Dispensary,200 NJ-17,Lodi,NJ,7644.0,M,https://www.google.com/maps/dir/?api=1&destination=200%20NJ-17%2C%20Lodi%2C%20NJ%2007644%2C%20USA,,https://my.atlist.com/map/8bed33fa-9b8c-4c51-bb33-74cd0d98628a?share=true
Ascend,325 NJ-15,Wharton,NJ,7885.0,M,https://www.google.com/maps/dir/?api=1&destination=325%20NJ-15%2C%20Wharton%2C%20NJ%2007885%2C%20USA,,https://my.atlist.com/map/8bed33fa-9b8c-4c51-bb33-74cd0d98628a?share=true
Ascend,461-469 West St,Fort Lee,NJ,7024.0,M,https://www.google.com/maps/dir/?api=1&destination=461-469%20West%20St%2C%20Fort%20Lee%2C%20NJ%2007024%2C%20USA,,https://my.atlist.com/map/8bed33fa-9b8c-4c51-bb33-74cd0d98628a?share=true
Ascend,174 NJ-17,Rochelle Park,NJ,7662.0,M,https://www.google.com/maps/dir/?api=1&destination=174%20NJ-17%2C%20Rochelle%20Park%2C%20NJ%2007662%2C%20USA,,https://my.atlist.com/map/8bed33fa-9b8c-4c51-bb33-74cd0d98628a?share=true
Aunt Mary's Dispensary,100 Reaville Ave,Flemington,NJ,8822.0,M,https://www.google.com/maps/dir/?api=1&destination=100%20Reaville%20Ave%2C%20Flemington%2C%20NJ%2008822%2C%20USA,,https://my.atlist.com/map/8bed33fa-9b8c-4c51-bb33-74cd0d98628a?share=true
Ayr Wellness,950 US-1,Woodbridge,NJ,7095.0,M,https://www.google.com/maps/dir/?api=1&destination=950%20US-1%2C%20Woodbridge%2C%20NJ%2007095%2C%20USA,,https://my.atlist.com/map/8bed33fa-9b8c-4c51-bb33-74cd0d98628a?share=true
Ayr Wellness,59 Main St,Eatontown,NJ,7724.0,M,https://www.google.com/maps/dir/?api=1&destination=59%20Main%20St%2C%20Eatontown%2C%20NJ%2007724%2C%20USA,,https://my.atlist.com/map/8bed33fa-9b8c-4c51-bb33-74cd0d98628a?share=true
Ayr Wellness,2536 US-22,Union,NJ,7083.0,M,https://www.google.com/maps/dir/?api=1&destination=2536%20US-22%2C%20Union%2C%20NJ%2007083%2C%20USA,,https://my.atlist.com/map/8bed33fa-9b8c-4c51-bb33-74cd0d98628a?share=true
BLOC,1075 Easton Ave,Somerset,NJ,8873.0,M,https://www.google.com/maps/dir/?api=1&destination=1075%20Easton%20Ave%2C%20Somerset%2C%20NJ%2008873%2C%20USA,,https://my.atlist.com/map/8bed33fa-9b8c-4c51-bb33-74cd0d98628a?share=true
BLOC,501 US-9,Waretown,NJ,8758.0,M,https://www.google.com/maps/dir/?api=1&destination=501%20US-9%2C%20Waretown%2C%20NJ%2008758%2C%20USA,,https://my.atlist.com/map/8bed33fa-9b8c-4c51-bb33-74cd0d98628a?share=true
BLOC,1761 N Olden Ave,Ewing Township,NJ,8638.0,M,https://www.google.com/maps/dir/?api=1&destination=1761%20N%20Olden%20Ave%2C%20Ewing%20Township%2C%20NJ%2008638%2C%20USA,,https://my.atlist.com/map/8bed33fa-9b8c-4c51-bb33-74cd0d98628a?share=true
Breakwater,2 Corporate Dr,East Windsor,NJ,8512.0,M,https://www.google.com/maps/dir/?api=1&destination=2%20Corporate%20Dr%2C%20East%20Windsor%2C%20NJ%2008512%2C%20USA,,https://my.atlist.com/map/8bed33fa-9b8c-4c51-bb33-74cd0d98628a?share=true
Breakwater,154 Westfield Ave W,Roselle Park,NJ,7204.0,M,https://www.google.com/maps/dir/?api=1&destination=154%20Westfield%20Ave%20W%2C%20Roselle%20Park%2C%20NJ%2007204%2C%20USA,,https://my.atlist.com/map/8bed33fa-9b8c-4c51-bb33-74cd0d98628a?share=true
Brute's Roots,6206 Black Horse Pike,Egg Harbor Township,NJ,8234.0,M,https://www.google.com/maps/dir/?api=1&destination=6206%20Black%20Horse%20Pike%2C%20Egg%20Harbor%20Township%2C%20NJ%2008234%2C%20USA,,https://my.atlist.com/map/8bed33fa-9b8c-4c51-bb33-74cd0d98628a?share=true
Curaleaf,191 US-130,Bordentown,NJ,8505.0,M,https://www.google.com/maps/dir/?api=1&destination=191%20US-130%2C%20Bordentown%2C%20NJ%2008505%2C%20USA,,https://my.atlist.com/map/8bed33fa-9b8c-4c51-bb33-74cd0d98628a?share=true
Curaleaf,4237 US-130,Edgewater Park,NJ,8010.0,M,https://www.google.com/maps/dir/?api=1&destination=4237%20US-130%2C%20Edgewater%20Park%2C%20NJ%2008010%2C%20USA,,https://my.atlist.com/map/8bed33fa-9b8c-4c51-bb33-74cd0d98628a?share=true
Curaleaf,640 Creek Rd,Bellmawr,NJ,8031.0,M,https://www.google.com/maps/dir/?api=1&destination=640%20Creek%20Rd%2C%20Bellmawr%2C%20NJ%2008031%2C%20USA,,https://my.atlist.com/map/8bed33fa-9b8c-4c51-bb33-74cd0d98628a?share=true
Design 710,112 Park Pl,Atlantic City,NJ,8401.0,M,https://www.google.com/maps/dir/?api=1&destination=112%20Park%20Pl%2C%20Atlantic%20City%2C%20NJ%2008401%2C%20USA,,https://my.atlist.com/map/8bed33fa-9b8c-4c51-bb33-74cd0d98628a?share=true
Downtown FLWR,141 Newark Ave,Jersey City,NJ,7302.0,M,https://www.google.com/maps/dir/?api=1&destination=141%20Newark%20Ave%2C%20Jersey%20City%2C%20NJ%2007302%2C%20USA,,https://my.atlist.com/map/8bed33fa-9b8c-4c51-bb33-74cd0d98628a?share=true
Eastern Green,78 NJ-73,Voorhees Township,NJ,8043.0,M,https://www.google.com/maps/dir/?api=1&destination=78%20NJ-73%2C%20Voorhees%20Township%2C%20NJ%2008043%2C%20USA,,https://my.atlist.com/map/8bed33fa-9b8c-4c51-bb33-74cd0d98628a?share=true
Garfield Gardens Dispensary,517 River Dr,Garfield,NJ,7026.0,M,https://www.google.com/maps/dir/?api=1&destination=517%20River%20Dr%2C%20Garfield%2C%20NJ%2007026%2C%20USA,,https://my.atlist.com/map/8bed33fa-9b8c-4c51-bb33-74cd0d98628a?share=true
Holistic Solutions,451 White Horse Pike,Atco,NJ,8004.0,M,https://www.google.com/maps/dir/?api=1&destination=451%20White%20Horse%20Pike%2C%20Atco%2C%20NJ%2008004%2C%20USA,,https://my.atlist.com/map/8bed33fa-9b8c-4c51-bb33-74cd0d98628a?share=true
HoneyGrove,1337 Blackwood-Clementon Rd,Clementon,NJ,8021.0,M,https://www.google.com/maps/dir/?api=1&destination=1337%20Blackwood-Clementon%20Rd%2C%20Clementon%2C%20NJ%2008021%2C%20USA,,https://my.atlist.com/map/8bed33fa-9b8c-4c51-bb33-74cd0d98628a?share=true
Illicit Gardens Dispensary Secaucus,30 Wood Ave,Secaucus,NJ,7094.0,M,https://www.google.com/maps/dir/?api=1&destination=30%20Wood%20Ave%2C%20Secaucus%2C%20NJ%2007094%2C%20USA,,https://my.atlist.com/map/8bed33fa-9b8c-4c51-bb33-74cd0d98628a?share=true
Monmouth Wellness & Healing (Formerly NJ Leaf),546 Park Ave,Freehold,NJ,7728.0,M,https://www.google.com/maps/dir/?api=1&destination=546%20Park%20Ave%2C%20Freehold%2C%20NJ%2007728%2C%20USA,,https://my.atlist.com/map/8bed33fa-9b8c-4c51-bb33-74cd0d98628a?share=true
Monteverde NJ,45 Bridge Ave,Red Bank,NJ,7701.0,M,https://www.google.com/maps/dir/?api=1&destination=45%20Bridge%20Ave%2C%20Red%20Bank%2C%20NJ%2007701%2C%20USA,,https://my.atlist.com/map/8bed33fa-9b8c-4c51-bb33-74cd0d98628a?share=true
MPX NJ,153 S New York Ave,Atlantic City,NJ,8401.0,M,https://www.google.com/maps/dir/?api=1&destination=153%20S%20New%20York%20Ave%2C%20Atlantic%20City%2C%20NJ%2008401%2C%20USA,,https://my.atlist.com/map/8bed33fa-9b8c-4c51-bb33-74cd0d98628a?share=true
MPX NJ,5035 Central Hwy,Pennsauken Township,NJ,8109.0,M,https://www.google.com/maps/dir/?api=1&destination=5035%20Central%20Hwy%2C%20Pennsauken%20Township%2C%20NJ%2008109%2C%20USA,,https://my.atlist.com/map/8bed33fa-9b8c-4c51-bb33-74cd0d98628a?share=true
MPX NJ,581 Berlin - Cross Keys Rd,Sicklerville,NJ,8081.0,M,https://www.google.com/maps/dir/?api=1&destination=581%20Berlin%20-%20Cross%20Keys%20Rd%2C%20Sicklerville%2C%20NJ%2008081%2C%20USA,,https://my.atlist.com/map/8bed33fa-9b8c-4c51-bb33-74cd0d98628a?share=true
NJ Leaf North Brunswick (Formerly Garden State Botanicals),1345 US-1,North Brunswick Township,NJ,8902.0,M,https://www.google.com/maps/dir/?api=1&destination=1345%20US-1%2C%20North%20Brunswick%20Township%2C%20NJ%2008902%2C%20USA,,https://my.atlist.com/map/8bed33fa-9b8c-4c51-bb33-74cd0d98628a?share=true
Restore NJ,300 William Dalton Dr,Glassboro,NJ,8028.0,M,https://www.google.com/maps/dir/?api=1&destination=300%20William%20Dalton%20Dr%2C%20Glassboro%2C%20NJ%2008028%2C%20USA,,https://my.atlist.com/map/8bed33fa-9b8c-4c51-bb33-74cd0d98628a?share=true
RIPT,220 Broadway,Jersey City,NJ,7306.0,M,https://www.google.com/maps/dir/?api=1&destination=220%20Broadway%2C%20Jersey%20City%2C%20NJ%2007306%2C%20USA,,https://my.atlist.com/map/8bed33fa-9b8c-4c51-bb33-74cd0d98628a?share=true
RISE,145 Rte 4,Paramus,NJ,7652.0,M,https://www.google.com/maps/dir/?api=1&destination=145%20Rte%204%2C%20Paramus%2C%20NJ%2007652%2C%20USA,,https://my.atlist.com/map/8bed33fa-9b8c-4c51-bb33-74cd0d98628a?share=true
RISE,196 3rd Ave 3 c,Paterson,NJ,7514.0,M,https://www.google.com/maps/dir/?api=1&destination=196%203rd%20Ave%203%20c%2C%20Paterson%2C%20NJ%2007514%2C%20USA,,https://my.atlist.com/map/8bed33fa-9b8c-4c51-bb33-74cd0d98628a?share=true
RISE,26-48 Bloomfield Ave,Bloomfield,NJ,7003.0,M,https://www.google.com/maps/dir/?api=1&destination=26-48%20Bloomfield%20Ave%2C%20Bloomfield%2C%20NJ%2007003%2C%20USA,,https://my.atlist.com/map/8bed33fa-9b8c-4c51-bb33-74cd0d98628a?share=true
Roots Dispensary,4402 US-130,Willingboro,NJ,8046.0,M,https://www.google.com/maps/dir/?api=1&destination=4402%20US-130%2C%20Willingboro%2C%20NJ%2008046%2C%20USA,,https://my.atlist.com/map/8bed33fa-9b8c-4c51-bb33-74cd0d98628a?share=true
Sanctuary Cannabis,2581 US-22,Scotch Plains,NJ,7076.0,M,https://www.google.com/maps/dir/?api=1&destination=2581%20US-22%2C%20Scotch%20Plains%2C%20NJ%2007076%2C%20USA,,https://my.atlist.com/map/8bed33fa-9b8c-4c51-bb33-74cd0d98628a?share=true
SilverLeaf Wellness,1743 NJ-27,Somerset,NJ,8873.0,M,https://www.google.com/maps/dir/?api=1&destination=1743%20NJ-27%2C%20Somerset%2C%20NJ%2008873%2C%20USA,,https://my.atlist.com/map/8bed33fa-9b8c-4c51-bb33-74cd0d98628a?share=true
Sweet Spot,903 White Horse Rd,Voorhees Township,NJ,8043.0,M,https://www.google.com/maps/dir/?api=1&destination=903%20White%20Horse%20Rd%2C%20Voorhees%20Township%2C%20NJ%2008043%2C%20USA,,https://my.atlist.com/map/8bed33fa-9b8c-4c51-bb33-74cd0d98628a?share=true
The Botanist,2090 N Black Horse Pike,Williamstown,NJ,8094.0,M,https://www.google.com/maps/dir/?api=1&destination=2090%20N%20Black%20Horse%20Pike%2C%20Williamstown%2C%20NJ%2008094%2C%20USA,,https://my.atlist.com/map/8bed33fa-9b8c-4c51-bb33-74cd0d98628a?share=true
The Botanist,35 W Crescent Blvd,Collingswood,NJ,8108.0,M,https://www.google.com/maps/dir/?api=1&destination=35%20W%20Crescent%20Blvd%2C%20Collingswood%2C%20NJ%2008108%2C%20USA,,https://my.atlist.com/map/8bed33fa-9b8c-4c51-bb33-74cd0d98628a?share=true
The Botanist,100 Century Dr,Egg Harbor Township,NJ,8234.0,M,https://www.google.com/maps/dir/?api=1&destination=100%20Century%20Dr%2C%20Egg%20Harbor%20Township%2C%20NJ%2008234%2C%20USA,,https://my.atlist.com/map/8bed33fa-9b8c-4c51-bb33-74cd0d98628a?share=true
The Cannabist,4476 Black Horse Pike Suite 2,Mays Landing,NJ,8330.0,M,https://www.google.com/maps/dir/?api=1&destination=4476%20Black%20Horse%20Pike%20Suite%202%2C%20Mays%20Landing%2C%20NJ%2008330%2C%20USA,,https://my.atlist.com/map/8bed33fa-9b8c-4c51-bb33-74cd0d98628a?share=true
The Cannabist,1062 N Delsea Dr,Vineland,NJ,8360.0,M,https://www.google.com/maps/dir/?api=1&destination=1062%20N%20Delsea%20Dr%2C%20Vineland%2C%20NJ%2008360%2C%20USA,,https://my.atlist.com/map/8bed33fa-9b8c-4c51-bb33-74cd0d98628a?share=true
The Cannabist,1692 Clements Bridge Rd,Deptford,NJ,8096.0,M,https://www.google.com/maps/dir/?api=1&destination=1692%20Clements%20Bridge%20Rd%2C%20Deptford%2C%20NJ%2008096%2C%20USA,,https://my.atlist.com/map/8bed33fa-9b8c-4c51-bb33-74cd0d98628a?share=true
The Station,86 River St,Hoboken,NJ,7030.0,M,https://www.google.com/maps/dir/?api=1&destination=86%20River%20St%2C%20Hoboken%2C%20NJ%2007030%2C%20USA,,https://my.atlist.com/map/8bed33fa-9b8c-4c51-bb33-74cd0d98628a?share=true
Theo A. Cannabis,3059 NJ-27 unit 104,Franklin Park,NJ,8823.0,M,https://www.google.com/maps/dir/?api=1&destination=3059%20NJ-27%20unit%20104%2C%20Franklin%20Park%2C%20NJ%2008823%2C%20USA,,https://my.atlist.com/map/8bed33fa-9b8c-4c51-bb33-74cd0d98628a?share=true
Theory Wellness,461 New York Ave,Trenton,NJ,8638.0,M,https://www.google.com/maps/dir/?api=1&destination=461%20New%20York%20Ave%2C%20Trenton%2C%20NJ%2008638%2C%20USA,,https://my.atlist.com/map/8bed33fa-9b8c-4c51-bb33-74cd0d98628a?share=true
Toke Lane Cannabis Dispensary,226 S Broad St,Trenton,NJ,8608.0,M,https://www.google.com/maps/dir/?api=1&destination=226%20S%20Broad%20St%2C%20Trenton%2C%20NJ%2008608%2C%20USA,,https://my.atlist.com/map/8bed33fa-9b8c-4c51-bb33-74cd0d98628a?share=true
URB’N Dispensary,378 South St,Newark,NJ,7105.0,M,https://www.google.com/maps/dir/?api=1&destination=378%20South%20St%2C%20Newark%2C%20NJ%2007105%2C%20USA,,https://my.atlist.com/map/8bed33fa-9b8c-4c51-bb33-74cd0d98628a?share=true
Valley Wellness,407 US-202,Raritan,NJ,8869.0,M,https://www.google.com/maps/dir/?api=1&destination=407%20US-202%2C%20Raritan%2C%20NJ%2008869%2C%20USA,,https://my.atlist.com/map/8bed33fa-9b8c-4c51-bb33-74cd0d98628a?share=true
Zen Leaf,NJ-66,Neptune Township,NJ,,M,https://www.google.com/maps/dir/?api=1&destination=NJ-66%2C%20Neptune%20Township%2C%20NJ%2C%20USA,,https://my.atlist.com/map/8bed33fa-9b8c-4c51-bb33-74cd0d98628a?share=true
Zen Leaf,117 Spring St,Elizabeth,NJ,7201.0,M,https://www.google.com/maps/dir/?api=1&destination=117%20Spring%20St%2C%20Elizabeth%2C%20NJ%2007201%2C%20USA,,https://my.atlist.com/map/8bed33fa-9b8c-4c51-bb33-74cd0d98628a?share=true
Zen Leaf,3256 Brunswick Pike,Lawrence Township,NJ,8648.0,M,https://www.google.com/maps/dir/?api=1&destination=3256%20Brunswick%20Pike%2C%20Lawrence%20Township%2C%20NJ%2008648%2C%20USA,,https://my.atlist.com/map/8bed33fa-9b8c-4c51-bb33-74cd0d98628a?share=true
