name,street,city,state,zip,type,website,phone,source
1634 Funk,394 Communipaw Ave,Jersey City,NJ,7304,R,,,https://my.atlist.com/map/8bed33fa-9b8c-4c51-bb33-74cd0d98628a?share=true
4Twenty Somewhere,1938 Union Valley Rd,Hewitt,NJ,7421,R,,,https://my.atlist.com/map/8bed33fa-9b8c-4c51-bb33-74cd0d98628a?share=true
A-Z Supply,1283 Broad St,Bloomfield,NJ,7003,R,,,https://my.atlist.com/map/8bed33fa-9b8c-4c51-bb33-74cd0d98628a?share=true
A21 Wellness,2507 US-22,Scotch Plains,NJ,7076,R,,,https://my.atlist.com/map/8bed33fa-9b8c-4c51-bb33-74cd0d98628a?share=true
AC Leef,470 N Albany Ave,Atlantic City,NJ,8401,R,,,https://my.atlist.com/map/8bed33fa-9b8c-4c51-bb33-74cd0d98628a?share=true
Altitude Cannabis,225 Atlantic City Blvd,Toms River,NJ,8757,R,,,https://my.atlist.com/map/8bed33fa-9b8c-4c51-bb33-74cd0d98628a?share=true
Altius NJ,60 Delsea Dr N,Glassboro,NJ,8028,R,,,https://my.atlist.com/map/8bed33fa-9b8c-4c51-bb33-74cd0d98628a?share=true
Andover Cannabis,144-146 Main St,Andover,NJ,7821,R,,,https://my.atlist.com/map/8bed33fa-9b8c-4c51-bb33-74cd0d98628a?share=true
Anja,225 Woodbridge Ave,Highland Park,NJ,8904,R,,,https://my.atlist.com/map/8bed33fa-9b8c-4c51-bb33-74cd0d98628a?share=true
Aurum Botanics,6 Fort Dix Rd,Pemberton,NJ,8068,R,,,https://my.atlist.com/map/8bed33fa-9b8c-4c51-bb33-74cd0d98628a?share=true
Baked by the River,8 Church St,Lambertville,NJ,8530,R,,,https://my.atlist.com/map/8bed33fa-9b8c-4c51-bb33-74cd0d98628a?share=true
Bakin’ Bad,2834 Atlantic Ave,Atlantic City,NJ,8401,R,,,https://my.atlist.com/map/8bed33fa-9b8c-4c51-bb33-74cd0d98628a?share=true
Bay Street Greenery,150 Bay St,Jersey City,NJ,7302,R,,,https://my.atlist.com/map/8bed33fa-9b8c-4c51-bb33-74cd0d98628a?share=true
Benedict's Supply,3523 John F. Kennedy Blvd,Jersey City,NJ,7307,R,,,https://my.atlist.com/map/8bed33fa-9b8c-4c51-bb33-74cd0d98628a?share=true
BestBuds,135 S Broad St,Woodbury,NJ,8096,R,,,https://my.atlist.com/map/8bed33fa-9b8c-4c51-bb33-74cd0d98628a?share=true
"Beyond Bleaf, LLC",753 Macopin Rd,West Milford,NJ,7480,R,,,https://my.atlist.com/map/8bed33fa-9b8c-4c51-bb33-74cd0d98628a?share=true
BLKBRN Cannabis Dispensary,176 Woodbridge Ave,Highland Park,NJ,8904,R,,,https://my.atlist.com/map/8bed33fa-9b8c-4c51-bb33-74cd0d98628a?share=true
Blue Oak,1025 Broad St suite 2,Bloomfield,NJ,7003,R,,,https://my.atlist.com/map/8bed33fa-9b8c-4c51-bb33-74cd0d98628a?share=true
Blue Violets,628 Washington St,Hoboken,NJ,7030,R,,,https://my.atlist.com/map/8bed33fa-9b8c-4c51-bb33-74cd0d98628a?share=true
BluLight Cannabis,890 Mantua Pike,Woodbury Heights,NJ,8097,R,,,https://my.atlist.com/map/8bed33fa-9b8c-4c51-bb33-74cd0d98628a?share=true
Boone Town Provisions,677 Myrtle Ave,Boonton,NJ,7005,R,,,https://my.atlist.com/map/8bed33fa-9b8c-4c51-bb33-74cd0d98628a?share=true
Botera Harrison,701 Frank E Rodgers Blvd N,Harrison,NJ,7029,R,,,https://my.atlist.com/map/8bed33fa-9b8c-4c51-bb33-74cd0d98628a?share=true
Botera Union,2290 US-22,Union,NJ,7083,R,,,https://my.atlist.com/map/8bed33fa-9b8c-4c51-bb33-74cd0d98628a?share=true
Bridge City Collective Dispensary,665 Hamilton St,Somerset,NJ,8873,R,,,https://my.atlist.com/map/8bed33fa-9b8c-4c51-bb33-74cd0d98628a?share=true
Brotherly Bud Dispensary,500 N Black Horse Pike,Mt Ephraim,NJ,8059,R,,,https://my.atlist.com/map/8bed33fa-9b8c-4c51-bb33-74cd0d98628a?share=true
Bud 2 Bloom,123 Ledgewood Ave #1a,Netcong,NJ,7857,R,,,https://my.atlist.com/map/8bed33fa-9b8c-4c51-bb33-74cd0d98628a?share=true
Bud City NJ,117 Water St,Newton,NJ,7860,R,,,https://my.atlist.com/map/8bed33fa-9b8c-4c51-bb33-74cd0d98628a?share=true
Budzooka Weed Dispensary,142 Broad St,Elizabeth,NJ,7201,R,,,https://my.atlist.com/map/8bed33fa-9b8c-4c51-bb33-74cd0d98628a?share=true
Camden Apothecary,1205 Haddon Ave,Camden,NJ,8103,R,,,https://my.atlist.com/map/8bed33fa-9b8c-4c51-bb33-74cd0d98628a?share=true
Canabhang,24 Marshall Hill Rd,West Milford,NJ,7480,R,,,https://my.atlist.com/map/8bed33fa-9b8c-4c51-bb33-74cd0d98628a?share=true
Canna Bar,58 Main St,Matawan,NJ,7747,R,,,https://my.atlist.com/map/8bed33fa-9b8c-4c51-bb33-74cd0d98628a?share=true
Canna Remedies,2175 Spruce St,Trenton,NJ,8638,R,,,https://my.atlist.com/map/8bed33fa-9b8c-4c51-bb33-74cd0d98628a?share=true
Cannabis Clubhouse,70-72 E Main St,Sussex,NJ,7461,R,,,https://my.atlist.com/map/8bed33fa-9b8c-4c51-bb33-74cd0d98628a?share=true
CannaBoy Treehouse,57 W South Orange Ave,South Orange Village,NJ,7079,R,,,https://my.atlist.com/map/8bed33fa-9b8c-4c51-bb33-74cd0d98628a?share=true
Cannavibes,1 US-46,Elmwood Park,NJ,7407,R,,,https://my.atlist.com/map/8bed33fa-9b8c-4c51-bb33-74cd0d98628a?share=true
Canopy Crossroad,9 West St,Red Bank,NJ,7701,R,,,https://my.atlist.com/map/8bed33fa-9b8c-4c51-bb33-74cd0d98628a?share=true
Carry-On Cannabis,2379 S Black Horse Pike,Williamstown,NJ,8094,R,,,https://my.atlist.com/map/8bed33fa-9b8c-4c51-bb33-74cd0d98628a?share=true
Casa Verde Wellness,315 US-46,Dover,NJ,7801,R,,,https://my.atlist.com/map/8bed33fa-9b8c-4c51-bb33-74cd0d98628a?share=true
Castaway Cannabis,6006 US-130,Delran,NJ,8075,R,,,https://my.atlist.com/map/8bed33fa-9b8c-4c51-bb33-74cd0d98628a?share=true
Central Jersey Dispensary,2 John F Kennedy Blvd,Somerset,NJ,8873,R,,,https://my.atlist.com/map/8bed33fa-9b8c-4c51-bb33-74cd0d98628a?share=true
Citi Roots,4585 NJ-27,Kingston,NJ,8528,R,,,https://my.atlist.com/map/8bed33fa-9b8c-4c51-bb33-74cd0d98628a?share=true
City Leaves,2516 Fire Rd,Egg Harbor Township,NJ,8234,R,,,https://my.atlist.com/map/8bed33fa-9b8c-4c51-bb33-74cd0d98628a?share=true
CityLeaf Dispensary,519 Broadway,Newark,NJ,7104,R,,,https://my.atlist.com/map/8bed33fa-9b8c-4c51-bb33-74cd0d98628a?share=true
Cloud Nine Dispensary,513-27 US-22,North Plainfield,NJ,7060,R,,,https://my.atlist.com/map/8bed33fa-9b8c-4c51-bb33-74cd0d98628a?share=true
Conservatory Cannabis Company,2516 Fire Rd,Egg Harbor Township,NJ,8234,R,,,https://my.atlist.com/map/8bed33fa-9b8c-4c51-bb33-74cd0d98628a?share=true
Cookies Harrison,335 Angelo Cifelli Dr,Harrison,NJ,7029,R,,,https://my.atlist.com/map/8bed33fa-9b8c-4c51-bb33-74cd0d98628a?share=true
Cottonmouth Dispensary,10 E Clements Bridge Rd,Runnemede,NJ,8078,R,,,https://my.atlist.com/map/8bed33fa-9b8c-4c51-bb33-74cd0d98628a?share=true
CREAM Cannabis Dispensary,284 1st St,Jersey City,NJ,7302,R,,,https://my.atlist.com/map/8bed33fa-9b8c-4c51-bb33-74cd0d98628a?share=true
Cuzzie's,2750 Mt Ephraim Ave,Camden,NJ,8104,R,,,https://my.atlist.com/map/8bed33fa-9b8c-4c51-bb33-74cd0d98628a?share=true
Dank Poet Dispensary,245 E Washington Ave,Washington,NJ,7882,R,,,https://my.atlist.com/map/8bed33fa-9b8c-4c51-bb33-74cd0d98628a?share=true
Daylite Cannabis,1136 NJ-73,Mt Laurel Township,NJ,8054,R,,,https://my.atlist.com/map/8bed33fa-9b8c-4c51-bb33-74cd0d98628a?share=true
Dispensary of Somerset,920 Hamilton St,Somerset,NJ,8873,R,,,https://my.atlist.com/map/8bed33fa-9b8c-4c51-bb33-74cd0d98628a?share=true
Dispensary of Union,1603 US-22,Union,NJ,7083,R,,,https://my.atlist.com/map/8bed33fa-9b8c-4c51-bb33-74cd0d98628a?share=true
Dogwood Green,5 Central Ave,West Orange,NJ,7052,R,,,https://my.atlist.com/map/8bed33fa-9b8c-4c51-bb33-74cd0d98628a?share=true
Doobiez,1612 Union Valley Rd,West Milford,NJ,7480,R,,,https://my.atlist.com/map/8bed33fa-9b8c-4c51-bb33-74cd0d98628a?share=true
Earth & Ivy,355 George St,New Brunswick,NJ,8901,R,,,https://my.atlist.com/map/8bed33fa-9b8c-4c51-bb33-74cd0d98628a?share=true
Earth & Ivy Lakehurst,29 Union Ave,Lakehurst,NJ,8733,R,,,https://my.atlist.com/map/8bed33fa-9b8c-4c51-bb33-74cd0d98628a?share=true
Elevated by TheCannaBossLady,9 Highland Pl,Maplewood,NJ,7040,R,,,https://my.atlist.com/map/8bed33fa-9b8c-4c51-bb33-74cd0d98628a?share=true
Elevated Herb,1846 NJ-23,West Milford,NJ,7480,R,,,https://my.atlist.com/map/8bed33fa-9b8c-4c51-bb33-74cd0d98628a?share=true
Emerald Tea Supply,368b Broad St,Bloomfield,NJ,7003,R,,,https://my.atlist.com/map/8bed33fa-9b8c-4c51-bb33-74cd0d98628a?share=true
Enlighten Dispensary,781 Rte 70 W,Marlton,NJ,8053,R,,,https://my.atlist.com/map/8bed33fa-9b8c-4c51-bb33-74cd0d98628a?share=true
Everest Dispensary,1226 Atlantic Ave,Atlantic City,NJ,8401,R,,,https://my.atlist.com/map/8bed33fa-9b8c-4c51-bb33-74cd0d98628a?share=true
Evergreen Nature's Remedy,1242 NJ-23,Butler,NJ,7405,R,,,https://my.atlist.com/map/8bed33fa-9b8c-4c51-bb33-74cd0d98628a?share=true
Evolve Cannabis,186 US-130,Bordentown,NJ,8505,R,,,https://my.atlist.com/map/8bed33fa-9b8c-4c51-bb33-74cd0d98628a?share=true
Feels of Green,474 US-206,Newton,NJ,7860,R,,,https://my.atlist.com/map/8bed33fa-9b8c-4c51-bb33-74cd0d98628a?share=true
Fire and Oak,5 Washington St,Mt Holly,NJ,8060,R,,,https://my.atlist.com/map/8bed33fa-9b8c-4c51-bb33-74cd0d98628a?share=true
Flower & Flame Dispensary,601 College Dr,Blackwood,NJ,8012,R,,,https://my.atlist.com/map/8bed33fa-9b8c-4c51-bb33-74cd0d98628a?share=true
Flowerbomb Dispensary,1108 Clinton Ave,Irvington,NJ,7111,R,,,https://my.atlist.com/map/8bed33fa-9b8c-4c51-bb33-74cd0d98628a?share=true
Fresh Dispensary Eatontown,315 NJ-35,Eatontown,NJ,7724,R,,,https://my.atlist.com/map/8bed33fa-9b8c-4c51-bb33-74cd0d98628a?share=true
Fresh Elizabeth,460 Maple Ave,Elizabeth,NJ,7202,R,,,https://my.atlist.com/map/8bed33fa-9b8c-4c51-bb33-74cd0d98628a?share=true
G2 Dispensary,350 US-46,Rockaway,NJ,7866,R,,,https://my.atlist.com/map/8bed33fa-9b8c-4c51-bb33-74cd0d98628a?share=true
Garden Greenz,190 Newark Ave,Jersey City,NJ,7302,R,,,https://my.atlist.com/map/8bed33fa-9b8c-4c51-bb33-74cd0d98628a?share=true
Garden State Natural Green,4597 NJ-27,Kingston,NJ,8528,R,,,https://my.atlist.com/map/8bed33fa-9b8c-4c51-bb33-74cd0d98628a?share=true
Ginger Hale,814 White Horse Pike,Oaklyn,NJ,8107,R,,,https://my.atlist.com/map/8bed33fa-9b8c-4c51-bb33-74cd0d98628a?share=true
Golden Door Dispensary,638 Newark Ave,Jersey City,NJ,7306,R,,,https://my.atlist.com/map/8bed33fa-9b8c-4c51-bb33-74cd0d98628a?share=true
Got Your Six Dispensary of New Jersey,4437 NJ-27,Princeton,NJ,8540,R,,,https://my.atlist.com/map/8bed33fa-9b8c-4c51-bb33-74cd0d98628a?share=true
Green Haven Industries,402 Elizabeth Ave,Elizabeth,NJ,7206,R,,,https://my.atlist.com/map/8bed33fa-9b8c-4c51-bb33-74cd0d98628a?share=true
Green Knight Cannabis,831 Hamilton St,Somerset,NJ,8873,R,,,https://my.atlist.com/map/8bed33fa-9b8c-4c51-bb33-74cd0d98628a?share=true
Green Lightning Cannabis,1503 Taylors Ln,Cinnaminson,NJ,8077,R,,,https://my.atlist.com/map/8bed33fa-9b8c-4c51-bb33-74cd0d98628a?share=true
Green Oasis Dispensary,632 White Horse Pike,Atco,NJ,8004,R,,,https://my.atlist.com/map/8bed33fa-9b8c-4c51-bb33-74cd0d98628a?share=true
Green Wellness Haven,1110 N New Rd,Pleasantville,NJ,8232,R,,,https://my.atlist.com/map/8bed33fa-9b8c-4c51-bb33-74cd0d98628a?share=true
Greenstop Dispensary,516 Tonnelle Ave,Jersey City,NJ,7307,R,,,https://my.atlist.com/map/8bed33fa-9b8c-4c51-bb33-74cd0d98628a?share=true
Gynsyng,14 S Center St,Merchantville,NJ,8109,R,,,https://my.atlist.com/map/8bed33fa-9b8c-4c51-bb33-74cd0d98628a?share=true
Hackettstown Dispensary,321 Mountain Ave,Hackettstown,NJ,7840,R,,,https://my.atlist.com/map/8bed33fa-9b8c-4c51-bb33-74cd0d98628a?share=true
Hamm & Chaz Cannabis Dispensary,747 West Side Ave,Jersey City,NJ,7306,R,,,https://my.atlist.com/map/8bed33fa-9b8c-4c51-bb33-74cd0d98628a?share=true
Happy Leaf,200 N White Horse Pike,Somerdale,NJ,8083,R,,,https://my.atlist.com/map/8bed33fa-9b8c-4c51-bb33-74cd0d98628a?share=true
Hashery,409 NJ-17,Hackensack,NJ,7601,R,,,https://my.atlist.com/map/8bed33fa-9b8c-4c51-bb33-74cd0d98628a?share=true
Hashstoria NJ,799 Broad St,Newark,NJ,7102,R,,,https://my.atlist.com/map/8bed33fa-9b8c-4c51-bb33-74cd0d98628a?share=true
Hello High,7685 Black Horse Pike,Hammonton,NJ,8037,R,,,https://my.atlist.com/map/8bed33fa-9b8c-4c51-bb33-74cd0d98628a?share=true
Herb's Premium Dispensary,757 Franklin Blvd,Somerset,NJ,8873,R,,,https://my.atlist.com/map/8bed33fa-9b8c-4c51-bb33-74cd0d98628a?share=true
Herbalicity,246 Raritan Ave,Highland Park,NJ,8904,R,,,https://my.atlist.com/map/8bed33fa-9b8c-4c51-bb33-74cd0d98628a?share=true
High Profile Lakehurst,145 NJ-70,Lakehurst,NJ,8733,R,,,https://my.atlist.com/map/8bed33fa-9b8c-4c51-bb33-74cd0d98628a?share=true
High Profile of Somerdale Dispensary,4 N White Horse Pike,Somerdale,NJ,8083,R,,,https://my.atlist.com/map/8bed33fa-9b8c-4c51-bb33-74cd0d98628a?share=true
High Rollers Dispensary,120 S Indiana Ave,Atlantic City,NJ,8401,R,,,https://my.atlist.com/map/8bed33fa-9b8c-4c51-bb33-74cd0d98628a?share=true
High Street Dispensary,811 High St,Hackettstown,NJ,7840,R,,,https://my.atlist.com/map/8bed33fa-9b8c-4c51-bb33-74cd0d98628a?share=true
Highway 90,90 Old Marlton Pike,Evesham,NJ,8053,R,,,https://my.atlist.com/map/8bed33fa-9b8c-4c51-bb33-74cd0d98628a?share=true
Holistic Re-Leaf,321 Mt Hope Ave,Rockaway,NJ,7866,R,,,https://my.atlist.com/map/8bed33fa-9b8c-4c51-bb33-74cd0d98628a?share=true
Honey Buzz Farms,1724 Atlantic Ave,Atlantic City,NJ,8401,R,,,https://my.atlist.com/map/8bed33fa-9b8c-4c51-bb33-74cd0d98628a?share=true
HudHaus,9001 River Rd,North Bergen,NJ,7047,R,,,https://my.atlist.com/map/8bed33fa-9b8c-4c51-bb33-74cd0d98628a?share=true
Hudsonica Inc.,1427 Grand St,Hoboken,NJ,7030,R,,,https://my.atlist.com/map/8bed33fa-9b8c-4c51-bb33-74cd0d98628a?share=true
HZY Goods,19 Prospect St,East Orange,NJ,7017,R,,,https://my.atlist.com/map/8bed33fa-9b8c-4c51-bb33-74cd0d98628a?share=true
Indigo,302 Crescent Blvd,Brooklawn,NJ,8030,R,,,https://my.atlist.com/map/8bed33fa-9b8c-4c51-bb33-74cd0d98628a?share=true
INSA Coastline Dispensary,1580 US-9,Cape May Court House,NJ,8210,R,,,https://my.atlist.com/map/8bed33fa-9b8c-4c51-bb33-74cd0d98628a?share=true
Island Vibez,18 Roosevelt Ave,Plainfield,NJ,7060,R,,,https://my.atlist.com/map/8bed33fa-9b8c-4c51-bb33-74cd0d98628a?share=true
J & J Cannabis Dispensary,3055 NJ-23 Unit A,Oak Ridge,NJ,7438,R,,,https://my.atlist.com/map/8bed33fa-9b8c-4c51-bb33-74cd0d98628a?share=true
JC Element,365 Central Ave,Jersey City,NJ,7307,R,,,https://my.atlist.com/map/8bed33fa-9b8c-4c51-bb33-74cd0d98628a?share=true
Jersey Leaf,554 West Side Ave,Jersey City,NJ,7304,R,,,https://my.atlist.com/map/8bed33fa-9b8c-4c51-bb33-74cd0d98628a?share=true
Jersey Meds,7 NJ-31,Pennington,NJ,8534,R,,,https://my.atlist.com/map/8bed33fa-9b8c-4c51-bb33-74cd0d98628a?share=true
Jersey Roots,1433 Union Valley Rd,West Milford,NJ,7480,R,,,https://my.atlist.com/map/8bed33fa-9b8c-4c51-bb33-74cd0d98628a?share=true
Jester's Joint,70 Easton Ave,New Brunswick,NJ,8901,R,,,https://my.atlist.com/map/8bed33fa-9b8c-4c51-bb33-74cd0d98628a?share=true
Joy Leaf,711 E 1st Ave,Roselle Park,NJ,7204,R,,,https://my.atlist.com/map/8bed33fa-9b8c-4c51-bb33-74cd0d98628a?share=true
Kind Kush,279 US-46,Rockaway,NJ,7866,R,,,https://my.atlist.com/map/8bed33fa-9b8c-4c51-bb33-74cd0d98628a?share=true
Kine Buds Maywood,113 E Passaic St,Maywood,NJ,7607,R,,,https://my.atlist.com/map/8bed33fa-9b8c-4c51-bb33-74cd0d98628a?share=true
La Vida Gardens,523 Washington Ave,Belleville,NJ,7109,R,,,https://my.atlist.com/map/8bed33fa-9b8c-4c51-bb33-74cd0d98628a?share=true
Lady L Cannabis,547 West Side Ave,Jersey City,NJ,7304,R,,,https://my.atlist.com/map/8bed33fa-9b8c-4c51-bb33-74cd0d98628a?share=true
Leaf Haus,900 Easton Ave,Somerset,NJ,8873,R,,,https://my.atlist.com/map/8bed33fa-9b8c-4c51-bb33-74cd0d98628a?share=true
Leaf Joint,391 Central Ave,Jersey City,NJ,7307,R,,,https://my.atlist.com/map/8bed33fa-9b8c-4c51-bb33-74cd0d98628a?share=true
Legacy to Lifted,490 West Side Ave,Jersey City,NJ,7304,R,,,https://my.atlist.com/map/8bed33fa-9b8c-4c51-bb33-74cd0d98628a?share=true
Legal Distribution,3112 Atlantic Ave,Atlantic City,NJ,8401,R,,,https://my.atlist.com/map/8bed33fa-9b8c-4c51-bb33-74cd0d98628a?share=true
Lemon 22,2006 US-22,Scotch Plains,NJ,7076,R,,,https://my.atlist.com/map/8bed33fa-9b8c-4c51-bb33-74cd0d98628a?share=true
Loud House,112 N 3rd St,Camden,NJ,8102,R,,,https://my.atlist.com/map/8bed33fa-9b8c-4c51-bb33-74cd0d98628a?share=true
Mad Hatter Dispensary,845 US-1,Avenel,NJ,7001,R,,,https://my.atlist.com/map/8bed33fa-9b8c-4c51-bb33-74cd0d98628a?share=true
Main Street Dispensary,311 Raritan Ave,Highland Park,NJ,8904,R,,,https://my.atlist.com/map/8bed33fa-9b8c-4c51-bb33-74cd0d98628a?share=true
Mass Grown,34 Mill St,Mt Holly,NJ,8060,R,,,https://my.atlist.com/map/8bed33fa-9b8c-4c51-bb33-74cd0d98628a?share=true
Med Leaf,201 Philadelphia Ave,Egg Harbor City,NJ,8215,R,,,https://my.atlist.com/map/8bed33fa-9b8c-4c51-bb33-74cd0d98628a?share=true
Midnight Greens,5100 NJ-42,Blackwood,NJ,8012,R,,,https://my.atlist.com/map/8bed33fa-9b8c-4c51-bb33-74cd0d98628a?share=true
MindLift Dispensary,517 Park Ave,Plainfield,NJ,7060,R,,,https://my.atlist.com/map/8bed33fa-9b8c-4c51-bb33-74cd0d98628a?share=true
MMD NJ,655 Newark Ave,Jersey City,NJ,7306,R,,,https://my.atlist.com/map/8bed33fa-9b8c-4c51-bb33-74cd0d98628a?share=true
Moja Life,28 S Warren St,Trenton,NJ,8608,R,,,https://my.atlist.com/map/8bed33fa-9b8c-4c51-bb33-74cd0d98628a?share=true
Molly Ann Farms,256 Belmont Ave,Haledon,NJ,7508,R,,,https://my.atlist.com/map/8bed33fa-9b8c-4c51-bb33-74cd0d98628a?share=true
Mountain Dispensary,46 NJ-94,Vernon Township,NJ,7462,R,,,https://my.atlist.com/map/8bed33fa-9b8c-4c51-bb33-74cd0d98628a?share=true
Mountain View Farmacy,74 Oak Ridge Rd,Oak Ridge,NJ,7438,R,,,https://my.atlist.com/map/8bed33fa-9b8c-4c51-bb33-74cd0d98628a?share=true
NAR Cannabis,4004 Church Rd,Mt Laurel Township,NJ,8054,R,,,https://my.atlist.com/map/8bed33fa-9b8c-4c51-bb33-74cd0d98628a?share=true
Natural Apothecary,27 Washington Ave,Belleville,NJ,7109,R,,,https://my.atlist.com/map/8bed33fa-9b8c-4c51-bb33-74cd0d98628a?share=true
Nature’s Motivation,1095 Clinton Ave,Irvington,NJ,7111,R,,,https://my.atlist.com/map/8bed33fa-9b8c-4c51-bb33-74cd0d98628a?share=true
Nevaeh Verde Dispensary,176 Belmont Ave,Belleville,NJ,7109,R,,,https://my.atlist.com/map/8bed33fa-9b8c-4c51-bb33-74cd0d98628a?share=true
New Era Dispensary,80-88 Main St,South Bound Brook,NJ,8880,R,,,https://my.atlist.com/map/8bed33fa-9b8c-4c51-bb33-74cd0d98628a?share=true
New Frontier Solutions,473 E Broadway,Salem,NJ,8079,R,,,https://my.atlist.com/map/8bed33fa-9b8c-4c51-bb33-74cd0d98628a?share=true
Nightjar,549 Bloomfield Ave,Bloomfield,NJ,7003,R,,,https://my.atlist.com/map/8bed33fa-9b8c-4c51-bb33-74cd0d98628a?share=true
Nile of NJ,5409 Bergenline Ave,West New York,NJ,7093,R,,,https://my.atlist.com/map/8bed33fa-9b8c-4c51-bb33-74cd0d98628a?share=true
Nirvana,1134 NJ-73,Mt Laurel Township,NJ,8054,R,,,https://my.atlist.com/map/8bed33fa-9b8c-4c51-bb33-74cd0d98628a?share=true
NJ Pure,"A-10, 4313 US-130",Edgewater Park,NJ,8010,R,,,https://my.atlist.com/map/8bed33fa-9b8c-4c51-bb33-74cd0d98628a?share=true
Noire Dispensary,171 Maplewood Ave,Maplewood,NJ,7040,R,,,https://my.atlist.com/map/8bed33fa-9b8c-4c51-bb33-74cd0d98628a?share=true
Northeast Alternatives Dispensary,780 US-130,Hamilton Township,NJ,8691,R,,,https://my.atlist.com/map/8bed33fa-9b8c-4c51-bb33-74cd0d98628a?share=true
Nova Farms,642 Mantua Pike,Woodbury,NJ,8096,R,,,https://my.atlist.com/map/8bed33fa-9b8c-4c51-bb33-74cd0d98628a?share=true
Ohm Theory,213 US-46,Elmwood Park,NJ,7407,R,,,https://my.atlist.com/map/8bed33fa-9b8c-4c51-bb33-74cd0d98628a?share=true
One Green Leaf,95 Lakeview Dr N,Gibbsboro,NJ,8026,R,,,https://my.atlist.com/map/8bed33fa-9b8c-4c51-bb33-74cd0d98628a?share=true
Organic Farms,2895 Mt Ephraim Ave,Camden,NJ,8104,R,,,https://my.atlist.com/map/8bed33fa-9b8c-4c51-bb33-74cd0d98628a?share=true
OTC Jersey,167 New Jersey Ave,Absecon,NJ,8201,R,,,https://my.atlist.com/map/8bed33fa-9b8c-4c51-bb33-74cd0d98628a?share=true
Phasal,1100 N Black Horse Pike,Runnemede,NJ,8078,R,,,https://my.atlist.com/map/8bed33fa-9b8c-4c51-bb33-74cd0d98628a?share=true
Phula,60-62 High St,Mt Holly,NJ,8060,R,,,https://my.atlist.com/map/8bed33fa-9b8c-4c51-bb33-74cd0d98628a?share=true
Plant Base,148 E 2nd St,Plainfield,NJ,7060,R,,,https://my.atlist.com/map/8bed33fa-9b8c-4c51-bb33-74cd0d98628a?share=true
Plantabis,2077 US-1,Rahway,NJ,7065,R,,,https://my.atlist.com/map/8bed33fa-9b8c-4c51-bb33-74cd0d98628a?share=true
Plantopia,37 Main St,Englishtown,NJ,7726,R,,,https://my.atlist.com/map/8bed33fa-9b8c-4c51-bb33-74cd0d98628a?share=true
PPP Dispensary,3001 Atlantic Ave,Atlantic City,NJ,8401,R,,,https://my.atlist.com/map/8bed33fa-9b8c-4c51-bb33-74cd0d98628a?share=true
Premo,2 E Front St,Keyport,NJ,7735,R,,,https://my.atlist.com/map/8bed33fa-9b8c-4c51-bb33-74cd0d98628a?share=true
Public Absecon,792a White Horse Pike,Absecon,NJ,8201,R,,,https://my.atlist.com/map/8bed33fa-9b8c-4c51-bb33-74cd0d98628a?share=true
Puffin Store,382 George St,New Brunswick,NJ,8901,R,,,https://my.atlist.com/map/8bed33fa-9b8c-4c51-bb33-74cd0d98628a?share=true
Pure Blossom,2554 Pennington Rd,Pennington,NJ,8534,R,,,https://my.atlist.com/map/8bed33fa-9b8c-4c51-bb33-74cd0d98628a?share=true
Pure Natural Vibes,470 Prospect Ave,West Orange,NJ,7052,R,,,https://my.atlist.com/map/8bed33fa-9b8c-4c51-bb33-74cd0d98628a?share=true
Quality Roots,850 Rte 70 W,Marlton,NJ,8053,R,,,https://my.atlist.com/map/8bed33fa-9b8c-4c51-bb33-74cd0d98628a?share=true
Queen City Remedies,1353 South Ave,Plainfield,NJ,7062,R,,,https://my.atlist.com/map/8bed33fa-9b8c-4c51-bb33-74cd0d98628a?share=true
Releaf Cannabis,1024 S Black Horse Pike,Williamstown,NJ,8094,R,,,https://my.atlist.com/map/8bed33fa-9b8c-4c51-bb33-74cd0d98628a?share=true
RushBudz Dispensary,77 Main St,South Bound Brook,NJ,8880,R,,,https://my.atlist.com/map/8bed33fa-9b8c-4c51-bb33-74cd0d98628a?share=true
Ruuted,14 Main St,Englishtown,NJ,7726,R,,,https://my.atlist.com/map/8bed33fa-9b8c-4c51-bb33-74cd0d98628a?share=true
Salt Air Botanicals,1127 Arctic Ave,Atlantic City,NJ,8401,R,,,https://my.atlist.com/map/8bed33fa-9b8c-4c51-bb33-74cd0d98628a?share=true
Scarlet Reserve Room,5 Hamilton Rd,Englishtown,NJ,7726,R,,,https://my.atlist.com/map/8bed33fa-9b8c-4c51-bb33-74cd0d98628a?share=true
Sea & Leaf,3860 Bayshore Rd,North Cape May,NJ,8204,R,,,https://my.atlist.com/map/8bed33fa-9b8c-4c51-bb33-74cd0d98628a?share=true
Shipwreck'd,300 W Sylvania Ave,Neptune City,NJ,7753,R,,,https://my.atlist.com/map/8bed33fa-9b8c-4c51-bb33-74cd0d98628a?share=true
Shore House Canna,124 Sunset Blvd,Cape May,NJ,8204,R,,,https://my.atlist.com/map/8bed33fa-9b8c-4c51-bb33-74cd0d98628a?share=true
Simply Pure Trenton,1531 N Olden Ave,Ewing Township,NJ,8638,R,,,https://my.atlist.com/map/8bed33fa-9b8c-4c51-bb33-74cd0d98628a?share=true
Sky Cannabis,52 E Broad St unit 9,Hopewell,NJ,8525,R,,,https://my.atlist.com/map/8bed33fa-9b8c-4c51-bb33-74cd0d98628a?share=true
Social Dispensary,614 N Pearl St,Bridgeton,NJ,8302,R,,,https://my.atlist.com/map/8bed33fa-9b8c-4c51-bb33-74cd0d98628a?share=true
Somerset Green,729 Somerset St,Somerset,NJ,8873,R,,,https://my.atlist.com/map/8bed33fa-9b8c-4c51-bb33-74cd0d98628a?share=true
Soulflora,2713 NJ-23,Newfoundland,NJ,7435,R,,,https://my.atlist.com/map/8bed33fa-9b8c-4c51-bb33-74cd0d98628a?share=true
Sparkology,3231 NJ-27,Franklin Park,NJ,8823,R,,,https://my.atlist.com/map/8bed33fa-9b8c-4c51-bb33-74cd0d98628a?share=true
Spot 23 LLC,2915 NJ-23,Newfoundland,NJ,7435,R,,,https://my.atlist.com/map/8bed33fa-9b8c-4c51-bb33-74cd0d98628a?share=true
Springfield Ave Dispensary,1070 Springfield Ave,Irvington,NJ,7111,R,,,https://my.atlist.com/map/8bed33fa-9b8c-4c51-bb33-74cd0d98628a?share=true
Story Dispensary of Springfield,130 US-22,Springfield,NJ,7081,R,,,https://my.atlist.com/map/8bed33fa-9b8c-4c51-bb33-74cd0d98628a?share=true
SunnyTien,3004 Atlantic Ave,Atlantic City,NJ,8401,R,,,https://my.atlist.com/map/8bed33fa-9b8c-4c51-bb33-74cd0d98628a?share=true
Sussex Pharms,54 Main St,Sussex,NJ,7461,R,,,https://my.atlist.com/map/8bed33fa-9b8c-4c51-bb33-74cd0d98628a?share=true
Sweet Leaf's LLC,21 S Tennessee Ave,Atlantic City,NJ,8401,R,,,https://my.atlist.com/map/8bed33fa-9b8c-4c51-bb33-74cd0d98628a?share=true
Sweetspot Dispensary Maplewood,751 Irvington Ave,Maplewood,NJ,7040,R,,,https://my.atlist.com/map/8bed33fa-9b8c-4c51-bb33-74cd0d98628a?share=true
Sweetspot River Edge,75 Rte 4,River Edge,NJ,7661,R,,,https://my.atlist.com/map/8bed33fa-9b8c-4c51-bb33-74cd0d98628a?share=true
Taste of Earth,108 Wheat Rd,Buena,NJ,8310,R,,,https://my.atlist.com/map/8bed33fa-9b8c-4c51-bb33-74cd0d98628a?share=true
The Cannabis Place,1544 John F. Kennedy Blvd,Jersey City,NJ,7305,R,,,https://my.atlist.com/map/8bed33fa-9b8c-4c51-bb33-74cd0d98628a?share=true
The Dispensary of Saddle Brook,225 US-46,Saddle Brook,NJ,7663,R,,,https://my.atlist.com/map/8bed33fa-9b8c-4c51-bb33-74cd0d98628a?share=true
The Frosted Nug at Red Bank,22 Bridge Ave,Red Bank,NJ,7701,R,,,https://my.atlist.com/map/8bed33fa-9b8c-4c51-bb33-74cd0d98628a?share=true
"The Goods Supply Co. Victory Gardens, LLC",330 S Salem St,Dover,NJ,7801,R,,,https://my.atlist.com/map/8bed33fa-9b8c-4c51-bb33-74cd0d98628a?share=true
The Healing Side,2415 Pacific Ave,Atlantic City,NJ,8401,R,,,https://my.atlist.com/map/8bed33fa-9b8c-4c51-bb33-74cd0d98628a?share=true
The Honorable Plant,123 Bay Ave,Highlands,NJ,7732,R,,,https://my.atlist.com/map/8bed33fa-9b8c-4c51-bb33-74cd0d98628a?share=true
The Jersey Joint Dispensary,7-11 State St,Glassboro,NJ,8028,R,,,https://my.atlist.com/map/8bed33fa-9b8c-4c51-bb33-74cd0d98628a?share=true
The Leaf and Seed Dispensary,328 White Horse Pike Unit L,Clementon,NJ,8021,R,,,https://my.atlist.com/map/8bed33fa-9b8c-4c51-bb33-74cd0d98628a?share=true
The Library of New Jersey,1-3 Washington St,West Orange,NJ,7052,R,,,https://my.atlist.com/map/8bed33fa-9b8c-4c51-bb33-74cd0d98628a?share=true
The Medicine Woman,660 Tonnelle Ave,Jersey City,NJ,7307,R,,,https://my.atlist.com/map/8bed33fa-9b8c-4c51-bb33-74cd0d98628a?share=true
The Other Side Dispensary,36 Congress St,Jersey City,NJ,7307,R,,,https://my.atlist.com/map/8bed33fa-9b8c-4c51-bb33-74cd0d98628a?share=true
The Social Leaf,334 Atlantic City Blvd,Toms River,NJ,8757,R,,,https://my.atlist.com/map/8bed33fa-9b8c-4c51-bb33-74cd0d98628a?share=true
The THC Shop,1740 Atlantic Ave,Atlantic City,NJ,8401,R,,,https://my.atlist.com/map/8bed33fa-9b8c-4c51-bb33-74cd0d98628a?share=true
The Wildflower Market,1810 Wayside Rd suite a,Eatontown,NJ,7724,R,,,https://my.atlist.com/map/8bed33fa-9b8c-4c51-bb33-74cd0d98628a?share=true
Timber 5,695 Hamilton St,Somerset,NJ,8873,R,,,https://my.atlist.com/map/8bed33fa-9b8c-4c51-bb33-74cd0d98628a?share=true
Township Green,15-17 E Scott St,Riverside,NJ,8075,R,,,https://my.atlist.com/map/8bed33fa-9b8c-4c51-bb33-74cd0d98628a?share=true
Tree House Co-Op Dispensary,326 NJ-73,Voorhees Township,NJ,8043,R,,,https://my.atlist.com/map/8bed33fa-9b8c-4c51-bb33-74cd0d98628a?share=true
Treeotics,467 Lyons Ave,Newark,NJ,7112,R,,,https://my.atlist.com/map/8bed33fa-9b8c-4c51-bb33-74cd0d98628a?share=true
Twisted Hat Cannabis,515 Shell Rd,Carneys Point,NJ,8069,R,,,https://my.atlist.com/map/8bed33fa-9b8c-4c51-bb33-74cd0d98628a?share=true
Uforia Dispensary,138 Griffith St,Jersey City,NJ,7307,R,,,https://my.atlist.com/map/8bed33fa-9b8c-4c51-bb33-74cd0d98628a?share=true
Uma Flowers,100 Ridgedale Ave,Morristown,NJ,7960,R,,,https://my.atlist.com/map/8bed33fa-9b8c-4c51-bb33-74cd0d98628a?share=true
Union Chill,204 N Union St,Lambertville,NJ,8530,R,,,https://my.atlist.com/map/8bed33fa-9b8c-4c51-bb33-74cd0d98628a?share=true
Unity Rd. Cannabis Shop,441 Elizabeth Ave,Somerset,NJ,8873,R,,,https://my.atlist.com/map/8bed33fa-9b8c-4c51-bb33-74cd0d98628a?share=true
Urge,941 Elizabeth Ave,Elizabeth,NJ,7201,R,,,https://my.atlist.com/map/8bed33fa-9b8c-4c51-bb33-74cd0d98628a?share=true
Vigor Dispensary,1082 NJ-34,Matawan,NJ,7747,R,,,https://my.atlist.com/map/8bed33fa-9b8c-4c51-bb33-74cd0d98628a?share=true
Village Hoboken,516 Washington St,Hoboken,NJ,7030,R,,,https://my.atlist.com/map/8bed33fa-9b8c-4c51-bb33-74cd0d98628a?share=true
Voltaire NJ,47 Mill St,Mt Holly,NJ,8060,R,,,https://my.atlist.com/map/8bed33fa-9b8c-4c51-bb33-74cd0d98628a?share=true
West Orange Wellness,26 S Valley Rd,West Orange,NJ,7052,R,,,https://my.atlist.com/map/8bed33fa-9b8c-4c51-bb33-74cd0d98628a?share=true
Woodbury Wellness,818 N Broad St,Woodbury,NJ,8096,R,,,https://my.atlist.com/map/8bed33fa-9b8c-4c51-bb33-74cd0d98628a?share=true
Xena NJ,759a Bergen Ave,Jersey City,NJ,7305,R,,,https://my.atlist.com/map/8bed33fa-9b8c-4c51-bb33-74cd0d98628a?share=true
Zacate,"Millside Shopping Center II, 4037 US-130",Delran,NJ,8075,R,,,https://my.atlist.com/map/8bed33fa-9b8c-4c51-bb33-74cd0d98628a?share=true
Zen Leaf Mount Holly,600 High St,Mt Holly,NJ,8060,R,,,https://my.atlist.com/map/8bed33fa-9b8c-4c51-bb33-74cd0d98628a?share=true
Apothecarium Dispensary,55 S Main St,Phillipsburg,NJ,8865,M,,,https://my.atlist.com/map/8bed33fa-9b8c-4c51-bb33-74cd0d98628a?share=true
Apothecarium Dispensary,1865 Springfield Ave,Maplewood,NJ,7040,M,,,https://my.atlist.com/map/8bed33fa-9b8c-4c51-bb33-74cd0d98628a?share=true
Apothecarium Dispensary,200 NJ-17,Lodi,NJ,7644,M,,,https://my.atlist.com/map/8bed33fa-9b8c-4c51-bb33-74cd0d98628a?share=true
Ascend,325 NJ-15,Wharton,NJ,7885,M,,,https://my.atlist.com/map/8bed33fa-9b8c-4c51-bb33-74cd0d98628a?share=true
Ascend,461-469 West St,Fort Lee,NJ,7024,M,,,https://my.atlist.com/map/8bed33fa-9b8c-4c51-bb33-74cd0d98628a?share=true
Ascend,174 NJ-17,Rochelle Park,NJ,7662,M,,,https://my.atlist.com/map/8bed33fa-9b8c-4c51-bb33-74cd0d98628a?share=true
Aunt Mary's Dispensary,100 Reaville Ave,Flemington,NJ,8822,M,,,https://my.atlist.com/map/8bed33fa-9b8c-4c51-bb33-74cd0d98628a?share=true
Ayr Wellness,950 US-1,Woodbridge,NJ,7095,M,,,https://my.atlist.com/map/8bed33fa-9b8c-4c51-bb33-74cd0d98628a?share=true
Ayr Wellness,59 Main St,Eatontown,NJ,7724,M,,,https://my.atlist.com/map/8bed33fa-9b8c-4c51-bb33-74cd0d98628a?share=true
Ayr Wellness,2536 US-22,Union,NJ,7083,M,,,https://my.atlist.com/map/8bed33fa-9b8c-4c51-bb33-74cd0d98628a?share=true
BLOC,1075 Easton Ave,Somerset,NJ,8873,M,,,https://my.atlist.com/map/8bed33fa-9b8c-4c51-bb33-74cd0d98628a?share=true
BLOC,501 US-9,Waretown,NJ,8758,M,,,https://my.atlist.com/map/8bed33fa-9b8c-4c51-bb33-74cd0d98628a?share=true
BLOC,1761 N Olden Ave,Ewing Township,NJ,8638,M,,,https://my.atlist.com/map/8bed33fa-9b8c-4c51-bb33-74cd0d98628a?share=true
Breakwater,2 Corporate Dr,East Windsor,NJ,8512,M,,,https://my.atlist.com/map/8bed33fa-9b8c-4c51-bb33-74cd0d98628a?share=true
Breakwater,154 Westfield Ave W,Roselle Park,NJ,7204,M,,,https://my.atlist.com/map/8bed33fa-9b8c-4c51-bb33-74cd0d98628a?share=true
Brute's Roots,6206 Black Horse Pike,Egg Harbor Township,NJ,8234,M,,,https://my.atlist.com/map/8bed33fa-9b8c-4c51-bb33-74cd0d98628a?share=true
Curaleaf,191 US-130,Bordentown,NJ,8505,M,,,https://my.atlist.com/map/8bed33fa-9b8c-4c51-bb33-74cd0d98628a?share=true
Curaleaf,4237 US-130,Edgewater Park,NJ,8010,M,,,https://my.atlist.com/map/8bed33fa-9b8c-4c51-bb33-74cd0d98628a?share=true
Curaleaf,640 Creek Rd,Bellmawr,NJ,8031,M,,,https://my.atlist.com/map/8bed33fa-9b8c-4c51-bb33-74cd0d98628a?share=true
Design 710,112 Park Pl,Atlantic City,NJ,8401,M,,,https://my.atlist.com/map/8bed33fa-9b8c-4c51-bb33-74cd0d98628a?share=true
Downtown FLWR,141 Newark Ave,Jersey City,NJ,7302,M,,,https://my.atlist.com/map/8bed33fa-9b8c-4c51-bb33-74cd0d98628a?share=true
Eastern Green,78 NJ-73,Voorhees Township,NJ,8043,M,,,https://my.atlist.com/map/8bed33fa-9b8c-4c51-bb33-74cd0d98628a?share=true
Garfield Gardens Dispensary,517 River Dr,Garfield,NJ,7026,M,,,https://my.atlist.com/map/8bed33fa-9b8c-4c51-bb33-74cd0d98628a?share=true
Holistic Solutions,451 White Horse Pike,Atco,NJ,8004,M,,,https://my.atlist.com/map/8bed33fa-9b8c-4c51-bb33-74cd0d98628a?share=true
HoneyGrove,1337 Blackwood-Clementon Rd,Clementon,NJ,8021,M,,,https://my.atlist.com/map/8bed33fa-9b8c-4c51-bb33-74cd0d98628a?share=true
Illicit Gardens Dispensary Secaucus,30 Wood Ave,Secaucus,NJ,7094,M,,,https://my.atlist.com/map/8bed33fa-9b8c-4c51-bb33-74cd0d98628a?share=true
Monmouth Wellness & Healing (Formerly NJ Leaf),546 Park Ave,Freehold,NJ,7728,M,,,https://my.atlist.com/map/8bed33fa-9b8c-4c51-bb33-74cd0d98628a?share=true
Monteverde NJ,45 Bridge Ave,Red Bank,NJ,7701,M,,,https://my.atlist.com/map/8bed33fa-9b8c-4c51-bb33-74cd0d98628a?share=true
MPX NJ,153 S New York Ave,Atlantic City,NJ,8401,M,,,https://my.atlist.com/map/8bed33fa-9b8c-4c51-bb33-74cd0d98628a?share=true
MPX NJ,5035 Central Hwy,Pennsauken Township,NJ,8109,M,,,https://my.atlist.com/map/8bed33fa-9b8c-4c51-bb33-74cd0d98628a?share=true
MPX NJ,581 Berlin - Cross Keys Rd,Sicklerville,NJ,8081,M,,,https://my.atlist.com/map/8bed33fa-9b8c-4c51-bb33-74cd0d98628a?share=true
NJ Leaf North Brunswick (Formerly Garden State Botanicals),1345 US-1,North Brunswick Township,NJ,8902,M,,,https://my.atlist.com/map/8bed33fa-9b8c-4c51-bb33-74cd0d98628a?share=true
Restore NJ,300 William Dalton Dr,Glassboro,NJ,8028,M,,,https://my.atlist.com/map/8bed33fa-9b8c-4c51-bb33-74cd0d98628a?share=true
RIPT,220 Broadway,Jersey City,NJ,7306,M,,,https://my.atlist.com/map/8bed33fa-9b8c-4c51-bb33-74cd0d98628a?share=true
RISE,145 Rte 4,Paramus,NJ,7652,M,,,https://my.atlist.com/map/8bed33fa-9b8c-4c51-bb33-74cd0d98628a?share=true
RISE,196 3rd Ave 3 c,Paterson,NJ,7514,M,,,https://my.atlist.com/map/8bed33fa-9b8c-4c51-bb33-74cd0d98628a?share=true
RISE,26-48 Bloomfield Ave,Bloomfield,NJ,7003,M,,,https://my.atlist.com/map/8bed33fa-9b8c-4c51-bb33-74cd0d98628a?share=true
Roots Dispensary,4402 US-130,Willingboro,NJ,8046,M,,,https://my.atlist.com/map/8bed33fa-9b8c-4c51-bb33-74cd0d98628a?share=true
Sanctuary Cannabis,2581 US-22,Scotch Plains,NJ,7076,M,,,https://my.atlist.com/map/8bed33fa-9b8c-4c51-bb33-74cd0d98628a?share=true
SilverLeaf Wellness,1743 NJ-27,Somerset,NJ,8873,M,,,https://my.atlist.com/map/8bed33fa-9b8c-4c51-bb33-74cd0d98628a?share=true
Sweet Spot,903 White Horse Rd,Voorhees Township,NJ,8043,M,,,https://my.atlist.com/map/8bed33fa-9b8c-4c51-bb33-74cd0d98628a?share=true
The Botanist,2090 N Black Horse Pike,Williamstown,NJ,8094,M,,,https://my.atlist.com/map/8bed33fa-9b8c-4c51-bb33-74cd0d98628a?share=true
The Botanist,35 W Crescent Blvd,Collingswood,NJ,8108,M,,,https://my.atlist.com/map/8bed33fa-9b8c-4c51-bb33-74cd0d98628a?share=true
The Botanist,100 Century Dr,Egg Harbor Township,NJ,8234,M,,,https://my.atlist.com/map/8bed33fa-9b8c-4c51-bb33-74cd0d98628a?share=true
The Cannabist,4476 Black Horse Pike Suite 2,Mays Landing,NJ,8330,M,,,https://my.atlist.com/map/8bed33fa-9b8c-4c51-bb33-74cd0d98628a?share=true
The Cannabist,1062 N Delsea Dr,Vineland,NJ,8360,M,,,https://my.atlist.com/map/8bed33fa-9b8c-4c51-bb33-74cd0d98628a?share=true
The Cannabist,1692 Clements Bridge Rd,Deptford,NJ,8096,M,,,https://my.atlist.com/map/8bed33fa-9b8c-4c51-bb33-74cd0d98628a?share=true
The Station,86 River St,Hoboken,NJ,7030,M,,,https://my.atlist.com/map/8bed33fa-9b8c-4c51-bb33-74cd0d98628a?share=true
Theo A. Cannabis,3059 NJ-27 unit 104,Franklin Park,NJ,8823,M,,,https://my.atlist.com/map/8bed33fa-9b8c-4c51-bb33-74cd0d98628a?share=true
Theory Wellness,461 New York Ave,Trenton,NJ,8638,M,,,https://my.atlist.com/map/8bed33fa-9b8c-4c51-bb33-74cd0d98628a?share=true
Toke Lane Cannabis Dispensary,226 S Broad St,Trenton,NJ,8608,M,,,https://my.atlist.com/map/8bed33fa-9b8c-4c51-bb33-74cd0d98628a?share=true
URB’N Dispensary,378 South St,Newark,NJ,7105,M,,,https://my.atlist.com/map/8bed33fa-9b8c-4c51-bb33-74cd0d98628a?share=true
Valley Wellness,407 US-202,Raritan,NJ,8869,M,,,https://my.atlist.com/map/8bed33fa-9b8c-4c51-bb33-74cd0d98628a?share=true
Zen Leaf,NJ-66,Neptune Township,NJ,,M,,,https://my.atlist.com/map/8bed33fa-9b8c-4c51-bb33-74cd0d98628a?share=true
Zen Leaf,117 Spring St,Elizabeth,NJ,7201,M,,,https://my.atlist.com/map/8bed33fa-9b8c-4c51-bb33-74cd0d98628a?share=true
Zen Leaf,3256 Brunswick Pike,Lawrence Township,NJ,8648,M,,,https://my.atlist.com/map/8bed33fa-9b8c-4c51-bb33-74cd0d98628a?share=true
